{
"type": "FeatureCollection",
"name": "ne_10m_admin_0_boundary_lines_land",
"crs": { "type": "name", "properties": { "name": "urn:ogc:def:crs:OGC:1.3:CRS84" } },
"features": [
{ "type": "Feature", "properties": { "FEATURECLA": "International boundary (verify)", "NAME": null, "COMMENT": null, "ADM0_USA": 1, "ADM0_LEFT": "Canada", "ADM0_RIGHT": "United States of America", "ADM0_A3_L": "CAN", "ADM0_A3_R": "USA", "SOV_A3_L": "CAN", "SOV_A3_R": "US1", "TYPE": "Land", "LABELRANK": 2, "SCALERANK": 1, "MIN_ZOOM": 0.0, "MIN_LABEL": 5.7, "NOTE": null, "ADM0_ABR_L": "Can.", "ADM0_ABR_R": "U.S.A.", "FCLASS_ISO": null, "FCLASS_US": null, "FCLASS_FR": null, "FCLASS_RU": null, "FCLASS_ES": null, "FCLASS_CN": null, "FCLASS_TW": null, "FCLASS_IN": null, "FCLASS_NP": null, "FCLASS_PK": null, "FCLASS_DE": null, "FCLASS_GB": null, "FCLASS_BR": null, "FCLASS_IL": null, "FCLASS_PS": null, "FCLASS_SA": null, "FCLASS_EG": null, "FCLASS_MA": null, "FCLASS_PT": null, "FCLASS_AR": null, "FCLASS_JP": null, "FCLASS_KO": null, "FCLASS_VN": null, "FCLASS_TR": null, "FCLASS_ID": null, "FCLASS_PL": null, "FCLASS_GR": null, "FCLASS_IT": null, "FCLASS_NL": null, "FCLASS_SE": null, "FCLASS_BD": null, "FCLASS_UA": null, "ne_id": 1746707689, "BRK_A3": null, "FCLASS_OSM": null, "FCLASS_TLC": null }, "geometry": { "type": "LineString", "coordinates": [ [ -110.0, 48.992617900000099 ], [ -109.999321087999888, 48.992617900000099 ], [ -109.904268758999962, 48.992617900000099 ], [ -109.684540568999864, 48.992617900000099 ], [ -109.464709025999923, 48.992617900000099 ], [ -109.244851644999898, 48.992617900000099 ], [ -109.02504593999987, 48.992617900000099 ], [ -108.805240234999943, 48.992617900000099 ], [ -108.58543452999993, 48.992617900000099 ], [ -108.365628824999902, 48.992617900000099 ], [ -108.145797281999876, 48.992617900000099 ], [ -107.926043253999865, 48.992617900000099 ], [ -107.70623754999994, 48.992617900000099 ], [ -107.486431844999913, 48.992617900000099 ], [ -107.266626138999897, 48.992617900000099 ], [ -107.046794596999874, 48.992617900000099 ], [ -106.82698889299985, 48.992617900000099 ], [ -106.607183186999919, 48.992617900000099 ], [ -106.387325805999893, 48.992617900000099 ], [ -106.167520100999866, 48.992617900000099 ], [ -105.947740234999941, 48.992617900000099 ], [ -105.727934529999928, 48.992617900000099 ], [ -105.508154662999914, 48.992617900000099 ], [ -105.288323120999877, 48.992617900000099 ], [ -105.057502418999917, 48.992617899896118 ], [ -104.848711710999936, 48.992617900000099 ], [ -104.628854329999896, 48.992617900000099 ], [ -104.409048624999883, 48.992617900000099 ], [ -104.18924292099986, 48.992617900000099 ], [ -104.047574446999889, 48.992617900000099 ], [ -103.969488891999845, 48.992617900000099 ], [ -103.749683186999917, 48.992617900000099 ], [ -103.529851643999891, 48.992617900000099 ], [ -103.310045938999878, 48.992617900000099 ], [ -103.090240234999854, 48.992617900000099 ], [ -102.870382853999914, 48.992617900000099 ], [ -102.650577148999886, 48.992617900000099 ], [ -102.43074560599986, 48.992617900000099 ], [ -102.210939900999932, 48.992669577000115 ], [ -101.991185872999921, 48.992669577000115 ], [ -101.771380167999908, 48.992669577000115 ], [ -101.551574462999881, 48.992669577000115 ], [ -101.364339646999881, 48.992669577000115 ], [ -101.331691243999842, 48.992669577000115 ], [ -101.111885538999914, 48.992669577000115 ], [ -100.892105672999904, 48.992669577000115 ], [ -100.672274129999963, 48.992669577000115 ], [ -100.452494262999949, 48.992669577000115 ], [ -100.232662719999922, 48.992669577000115 ], [ -100.012882853999912, 48.992669577000115 ], [ -99.793102986999898, 48.992669577000115 ], [ -99.57329728299996, 48.992669577000115 ], [ -99.353491576999943, 48.992669577000115 ], [ -99.13366003499992, 48.992669577000115 ], [ -98.913854329999893, 48.992669577000115 ], [ -98.694048624999965, 48.992669577000115 ], [ -98.47419124399994, 48.992669577000115 ], [ -98.254437215999928, 48.992669577000115 ], [ -98.034605671999884, 48.992669577000115 ], [ -97.814799967999875, 48.992669577000115 ], [ -97.594994262999933, 48.992669577000115 ], [ -97.375188558999923, 48.992669577000115 ], [ -97.226088565999959, 48.992669577000115 ], [ -97.155382852999907, 48.992669577000115 ], [ -96.935602987999886, 48.992669577000115 ], [ -96.715797281999869, 48.992669577000115 ], [ -96.495991576999927, 48.992669577000115 ], [ -96.276211710999917, 48.992669577000115 ], [ -96.056328491999892, 48.992669577000115 ], [ -95.836496948999951, 48.992669577000115 ], [ -95.616717081999923, 48.992669577000115 ], [ -95.396937215999912, 48.992669577000115 ], [ -95.177105672999886, 48.992669577000115 ], [ -95.168527384999948, 48.995046693000077 ], [ -95.161886962999858, 49.001144512000039 ], [ -95.15932897999997, 49.011789856000021 ], [ -95.159664876999869, 49.109509990000063 ], [ -95.160026611999854, 49.223353170000095 ], [ -95.160336669999936, 49.313011780000053 ], [ -95.160569213999906, 49.369494121000102 ], [ -95.102820800999922, 49.353939515000079 ], [ -94.982518066999916, 49.356161601000068 ], [ -94.926087402999883, 49.345567933 ], [ -94.856195028999906, 49.318282776000089 ], [ -94.839141804999969, 49.308877665000026 ], [ -94.827256225999946, 49.292857972 ], [ -94.819892334999935, 49.252033590000096 ], [ -94.810358032999943, 49.229606019000087 ], [ -94.80612056599989, 49.210899150000031 ], [ -94.811184855999869, 49.166560771000078 ], [ -94.803743449999843, 49.146406963000075 ], [ -94.792038736999871, 49.126459860000082 ], [ -94.75377233999987, 49.026155904000021 ], [ -94.711216796999906, 48.914586487000108 ], [ -94.711733561999949, 48.862755026000016 ], [ -94.712146972999875, 48.842446187000107 ], [ -94.713283854999872, 48.823842672000055 ], [ -94.71090673899991, 48.807512920000093 ], [ -94.701785848999947, 48.790097962000075 ], [ -94.68889257899994, 48.778832499000018 ], [ -94.592851928999949, 48.726432597000084 ], [ -94.519161336999929, 48.704470113000113 ], [ -94.479499674999943, 48.700697734000087 ], [ -94.311577107999909, 48.713926900000089 ], [ -94.29258601899997, 48.711911520000044 ], [ -94.284033569999934, 48.709069316000054 ], [ -94.274499267999943, 48.704108378000015 ], [ -94.265481729999891, 48.697752177 ], [ -94.258453735999893, 48.6908275360001 ], [ -94.255766560999859, 48.683541158000125 ], [ -94.252459268999957, 48.66240549700008 ], [ -94.251038167999866, 48.657289530000085 ], [ -94.232150431999941, 48.652018535000067 ], [ -94.034849812999937, 48.643311056000087 ], [ -93.874885417999877, 48.636205546000056 ], [ -93.835740519999945, 48.617136943000091 ], [ -93.809385538999976, 48.543575541000095 ], [ -93.778663900999931, 48.519468486000036 ], [ -93.756778930999872, 48.51654876700006 ], [ -93.616296549999902, 48.531302389000061 ], [ -93.599889282999953, 48.526341451000022 ], [ -93.566583821999899, 48.53827870700006 ], [ -93.491756347999882, 48.542309469000045 ], [ -93.459923665999924, 48.557398987000042 ], [ -93.452249714999937, 48.572721050000027 ], [ -93.45377417099985, 48.58695790700007 ], [ -93.451474568999913, 48.597422384000126 ], [ -93.417316446999848, 48.604114482000043 ], [ -93.385716308999861, 48.614863180000057 ], [ -93.257739624999886, 48.630314433000066 ], [ -93.131700805999941, 48.62463002500003 ], [ -92.979720417999943, 48.617679546000048 ], [ -92.955587524999885, 48.612227682000039 ], [ -92.884196532999908, 48.579878235000066 ], [ -92.725549886999886, 48.54869150800009 ], [ -92.648603678999876, 48.536263326000025 ], [ -92.630181030999978, 48.519468486000036 ], [ -92.627468018999934, 48.502776998000016 ], [ -92.646743326999882, 48.497428488000068 ], [ -92.691365925999889, 48.489857891 ], [ -92.710641235999844, 48.482881572000011 ], [ -92.718909464999882, 48.459782207000032 ], [ -92.704052490999942, 48.445157776000045 ], [ -92.677129068999932, 48.441747132000032 ], [ -92.657052775999972, 48.438233134000072 ], [ -92.570520588999869, 48.446656393000055 ], [ -92.52693151899993, 48.445622864000072 ], [ -92.490628824999959, 48.433117168000095 ], [ -92.474531615999894, 48.41048289000004 ], [ -92.467581136999911, 48.394282329000035 ], [ -92.467064371999953, 48.353225403000081 ], [ -92.462465169999916, 48.329299215000063 ], [ -92.451380574999888, 48.312685242000057 ], [ -92.418230142999903, 48.282041118000038 ], [ -92.384640462999954, 48.232405904000061 ], [ -92.371850545999877, 48.222587382000071 ], [ -92.353815470999876, 48.222897441000057 ], [ -92.327873901999936, 48.229434509000058 ], [ -92.303663492999959, 48.23927887000012 ], [ -92.291028605999912, 48.249562480000108 ], [ -92.292062134999895, 48.270336406000055 ], [ -92.301415568999943, 48.290645244000061 ], [ -92.303095052999907, 48.310928243 ], [ -92.281597656999878, 48.33177968400004 ], [ -92.259118408999939, 48.339634502000095 ], [ -92.154732014999894, 48.350124818000026 ], [ -92.070499430999917, 48.346714173000109 ], [ -92.043420979999951, 48.334596049000098 ], [ -92.030114298999933, 48.313176169000101 ], [ -92.021355142999937, 48.287441305000087 ], [ -92.007996785999921, 48.262481588000028 ], [ -91.992157959999929, 48.247908834000057 ], [ -91.975492309999908, 48.236565857000087 ], [ -91.957302205999866, 48.228323466000049 ], [ -91.852244018999897, 48.195974019000047 ], [ -91.764988362999901, 48.1873440560001 ], [ -91.744136922999928, 48.179592590000098 ], [ -91.727574625999921, 48.16832712800003 ], [ -91.695509399999906, 48.137579651000081 ], [ -91.716438354999894, 48.112051494000056 ], [ -91.692512166999904, 48.097866313000097 ], [ -91.618614868999913, 48.089572246000031 ], [ -91.597479207999896, 48.090399068000053 ], [ -91.589676065999868, 48.088332012000095 ], [ -91.581097778999919, 48.080942281 ], [ -91.57980586799988, 48.070968730000075 ], [ -91.585128539999914, 48.060840149000043 ], [ -91.586988891999937, 48.052571920000091 ], [ -91.574844929999927, 48.04820526200011 ], [ -91.487098348999893, 48.053476258000032 ], [ -91.464722452999922, 48.048954570000021 ], [ -91.446273966999911, 48.040738017000066 ], [ -91.427928833999914, 48.036448874000101 ], [ -91.365400349999931, 48.057842916000126 ], [ -91.276361857999945, 48.064767558000099 ], [ -91.238069621999927, 48.082647604000059 ], [ -91.203963175999945, 48.107658997000058 ], [ -91.071103068999946, 48.170859274000023 ], [ -91.028159952999886, 48.184837749000039 ], [ -91.008109497999868, 48.194372051000116 ], [ -90.923153442999961, 48.227109070000026 ], [ -90.873802449999857, 48.23434377100007 ], [ -90.840677856999946, 48.220106914000027 ], [ -90.837939005999914, 48.210546773000019 ], [ -90.848842733999874, 48.198712871000097 ], [ -90.849721232999912, 48.189566142 ], [ -90.843003295999978, 48.176982931000097 ], [ -90.834269979999902, 48.171789449000087 ], [ -90.823883016999901, 48.16832712800003 ], [ -90.812307495999846, 48.160989075000046 ], [ -90.803057413999937, 48.147165629000099 ], [ -90.79670121299992, 48.117064107000019 ], [ -90.786469278999931, 48.100450134000099 ], [ -90.750347452999904, 48.083991191000038 ], [ -90.7013065189999, 48.084559632000079 ], [ -90.611079467999872, 48.103499044000031 ], [ -90.586843220999896, 48.104816793000069 ], [ -90.573872436999864, 48.097892151000011 ], [ -90.56219356299988, 48.088848776000034 ], [ -90.542013916999906, 48.083732809000068 ], [ -90.531601114999972, 48.084559632000079 ], [ -90.501887166999893, 48.094274801000026 ], [ -90.490492513999897, 48.096238506000063 ], [ -90.483464518999909, 48.094481507000083 ], [ -90.477857625999974, 48.091535950000079 ], [ -90.470622925999919, 48.089882304000028 ], [ -90.178625244999864, 48.116443990000036 ], [ -90.120385905999854, 48.115358786000044 ], [ -90.073256998999938, 48.101199443 ], [ -90.06103552299993, 48.091019186000025 ], [ -90.008222208999968, 48.029730937000082 ], [ -89.995328938999961, 48.018594666000055 ], [ -89.98031693599998, 48.010093893000047 ], [ -89.920449788999917, 47.987459615 ], [ -89.902440551999916, 47.985909323000087 ], [ -89.803454346999843, 48.013762919000058 ], [ -89.780975097999914, 48.017199402000088 ], [ -89.763301758999916, 48.017302755000102 ], [ -89.745964314999924, 48.013762919000058 ], [ -89.724596109999908, 48.005908102000021 ], [ -89.712788045999901, 48.003375956000028 ], [ -89.678655762999938, 48.008698629000079 ], [ -89.656589925999924, 48.007975159000082 ], [ -89.593105427999973, 47.996502991000042 ], [ -89.498962443999886, 47.995094552000054 ], [ -89.461847289999923, 47.994539286000119 ], [ -89.387097330999921, 47.980534973000019 ], [ -89.36363623099993, 47.97960479700005 ], [ -89.340381835999921, 47.984152324 ], [ -89.245529744999942, 48.021178488000047 ], [ -89.095254678999908, 48.079934591000026 ], [ -88.904620320999925, 48.154296977000044 ], [ -88.782147175999938, 48.202071838 ], [ -88.642724162999855, 48.256590475000039 ], [ -88.578877929999919, 48.270388082000082 ], [ -88.407906453999942, 48.304055278000121 ], [ -88.37646134499991, 48.305114645000103 ], [ -88.347264159999895, 48.298655091000043 ], [ -88.159678711999902, 48.224886984000094 ], [ -87.97209326199993, 48.151170553000085 ], [ -87.784481974999949, 48.07742828400005 ], [ -87.596896524999892, 48.003737692000115 ], [ -87.409259399999911, 47.92999542200009 ], [ -87.221699788999871, 47.856253154000044 ], [ -87.034166015999915, 47.782485047000094 ], [ -86.846554728999934, 47.708742778000058 ], [ -86.741806600999951, 47.666445618000083 ], [ -86.637058471999893, 47.62412262000008 ], [ -86.532310343999939, 47.581902975 ], [ -86.427613891999897, 47.539579977000088 ], [ -86.322865763999943, 47.497205302000097 ], [ -86.21811763499997, 47.45493398100011 ], [ -86.113369506999902, 47.41266265900002 ], [ -86.008569702999949, 47.370365499000044 ], [ -85.883616088999901, 47.318559876000066 ], [ -85.758610798999911, 47.266780090000069 ], [ -85.633631347999966, 47.215026144000021 ], [ -85.508626058999909, 47.163220520000053 ], [ -85.383646606999946, 47.111440735000073 ], [ -85.258641316999871, 47.059686788000121 ], [ -85.133661865999926, 47.007829488000127 ], [ -85.008656575999851, 46.955998027000035 ], [ -84.992404337999943, 46.948789164000075 ], [ -84.976203776999938, 46.941476949 ], [ -84.959977376999916, 46.934242249000036 ], [ -84.943673461999907, 46.927007548000077 ], [ -84.927447062999903, 46.919669495000065 ], [ -84.91116898599995, 46.912486470000019 ], [ -84.894942586999946, 46.90514841700012 ], [ -84.87869034799985, 46.897913717000066 ], [ -84.863730021999885, 46.881945700000117 ], [ -84.854195719999979, 46.861171773000066 ], [ -84.835411336999897, 46.80386261000011 ], [ -84.816446085999928, 46.745907491000068 ], [ -84.787455606999856, 46.65717905700005 ], [ -84.773322102999913, 46.6334337360001 ], [ -84.693688720999972, 46.564859111000075 ], [ -84.589405679999942, 46.475122986000073 ], [ -84.566564696999933, 46.461196188000102 ], [ -84.541294921999878, 46.452824606000021 ], [ -84.512304442999891, 46.451636047000093 ], [ -84.492176473999933, 46.456881206000034 ], [ -84.478301350999857, 46.466467184000024 ], [ -84.46540808099985, 46.478171896 ], [ -84.448096475999932, 46.489721578000044 ], [ -84.423240111999888, 46.511580709 ], [ -84.389702107999881, 46.520262350000039 ], [ -84.352469237999884, 46.522742818000026 ], [ -84.305340331999872, 46.501607158000084 ], [ -84.242010864999941, 46.526463521000025 ], [ -84.197284911999901, 46.546358948000048 ], [ -84.147675536999913, 46.541346334000067 ], [ -84.110442667999905, 46.526463521000025 ], [ -84.158811808999957, 46.433342591000027 ], [ -84.147675536999913, 46.399882101000046 ], [ -84.129046183999947, 46.375025737000087 ], [ -84.105430053999839, 46.347740580000064 ], [ -84.112897298999968, 46.327870992000086 ], [ -84.119098470999859, 46.314228414000056 ], [ -84.114137532999905, 46.295573222000101 ], [ -84.106670288999879, 46.27696970600006 ], [ -84.099228882999853, 46.25087310800005 ], [ -84.099228882999853, 46.237230530000048 ], [ -84.096774250999886, 46.224828187000085 ], [ -84.086800700999873, 46.201212057000063 ], [ -84.055820678999879, 46.171446432000081 ], [ -84.021042439999917, 46.151602681000085 ], [ -84.014169474999846, 46.115997620000101 ], [ -84.008769287999883, 46.1123285930001 ], [ -83.995824340999945, 46.101166484 ], [ -83.976394001999978, 46.073106181000057 ], [ -83.964585937999885, 46.063184307000071 ], [ -83.947300171999871, 46.060600484000062 ], [ -83.930737874999892, 46.066956686000069 ], [ -83.872679402999893, 46.107884420000104 ], [ -83.856427165999889, 46.115739238000046 ], [ -83.839296427999841, 46.119201559 ], [ -83.818057413999952, 46.116566060000068 ], [ -83.766536010999857, 46.106489157000041 ], [ -83.664836791999932, 46.119149883000077 ], [ -83.613883829999878, 46.115635885000117 ], [ -83.565437174999914, 46.090779521000044 ], [ -83.508825643999842, 46.047371317000071 ], [ -83.492030802999892, 46.037087707000055 ], [ -83.474099080999906, 46.023135071000084 ], [ -83.462807780999924, 46.007787171000089 ], [ -83.465856689999868, 45.993111064000018 ], [ -83.510246744999932, 45.932391256000116 ], [ -83.556212930999919, 45.869656068000083 ], [ -83.636867, 45.773944 ], [ -83.483974, 45.771937 ], [ -83.359252820897908, 45.715804524943366 ], [ -83.199309652999943, 45.641556295 ], [ -83.019010579999957, 45.561871236000044 ], [ -82.759439860999919, 45.447201233 ], [ -82.588778442999853, 45.371805319000103 ], [ -82.548289957999941, 45.334598287000105 ], [ -82.532141072999963, 45.293515523000039 ], [ -82.484081990999925, 45.083244120000089 ], [ -82.43602290899986, 44.872972718000071 ], [ -82.387886312999882, 44.662701315000035 ], [ -82.339878905999939, 44.452429912000113 ], [ -82.291845662999975, 44.242210185 ], [ -82.243683227999895, 44.031938782000068 ], [ -82.195624145999943, 43.821693217000032 ], [ -82.147565063999878, 43.611344299000066 ], [ -82.145446329999913, 43.600647278000068 ], [ -82.145653035999942, 43.576411031000092 ], [ -82.153611205999908, 43.549590963000085 ], [ -82.185857299999981, 43.487295024000062 ], [ -82.218000041999915, 43.425024923000066 ], [ -82.250194458999971, 43.362780660000041 ], [ -82.282388875999914, 43.300484721000103 ], [ -82.314505778999944, 43.23818878200008 ], [ -82.346726033999886, 43.175841167000058 ], [ -82.378920450999942, 43.113571066000034 ], [ -82.411089029999886, 43.051275127000011 ], [ -82.416411702999937, 43.01714284300003 ], [ -82.414603027999931, 42.98324310400001 ], [ -82.430441853999923, 42.951307068000048 ], [ -82.453179483999918, 42.918983460000064 ], [ -82.464780842999886, 42.88363678000006 ], [ -82.468036458999848, 42.863973898000026 ], [ -82.482324991999945, 42.835112610000081 ], [ -82.485270548999921, 42.818524476000064 ], [ -82.47361751299988, 42.798163961000043 ], [ -82.470982015999937, 42.790567525000071 ], [ -82.471343749999846, 42.779844666000045 ], [ -82.47695064399997, 42.76147369400006 ], [ -82.483410197999916, 42.719254049000099 ], [ -82.511263793999888, 42.64667450000006 ], [ -82.52622412199986, 42.61990610800008 ], [ -82.549245971999909, 42.590941468000025 ], [ -82.575833496999849, 42.571795349000027 ], [ -82.608467162999915, 42.561098328000114 ], [ -82.644330606999858, 42.557816874000125 ], [ -82.694405069999874, 42.51913706500001 ], [ -82.800135050999899, 42.417980449000126 ], [ -82.83282039499997, 42.39800750800002 ], [ -82.943511311999941, 42.355477804000046 ], [ -83.04035294699986, 42.331861674000024 ], [ -83.079962930999926, 42.305067444000045 ], [ -83.10983190999994, 42.272278748000033 ], [ -83.128512939999922, 42.239955140000049 ], [ -83.135928507999921, 42.200267639000074 ], [ -83.13964921099992, 42.115854188000057 ], [ -83.159492960999927, 42.046323548000046 ], [ -83.157012492999854, 42.000434876000085 ], [ -83.132506619999845, 41.941952808000039 ], [ -83.123448649999943, 41.920336405000015 ], [ -83.097377888999944, 41.875765483000109 ], [ -83.068413249999878, 41.847731019 ], [ -82.983793090999882, 41.808069357000122 ], [ -82.865221516999952, 41.752491353000025 ], [ -82.711122395999894, 41.680247701000084 ], [ -82.666913207999897, 41.669085592000059 ], [ -82.451319132999913, 41.671901957000031 ], [ -82.424860799999919, 41.676811219000044 ], [ -82.281355346999931, 41.743292949000121 ], [ -82.137746540999899, 41.809800517000085 ], [ -81.994241088999928, 41.876204733000023 ], [ -81.850735635999939, 41.9427123010001 ], [ -81.707281860999871, 42.009219869000063 ], [ -81.56372473199994, 42.075675761000028 ], [ -81.420219278999951, 42.142157491 ], [ -81.276662150999954, 42.208665060000058 ], [ -81.147884480999949, 42.228250427 ], [ -81.019158488999977, 42.247809957000086 ], [ -80.890380818999887, 42.267447002000026 ], [ -80.761654826999916, 42.287032369000045 ], [ -80.632877156999939, 42.306643575000081 ], [ -80.520233196999925, 42.323782098000052 ], [ -80.50415116399995, 42.326228943 ], [ -80.375373494999877, 42.345788473000098 ], [ -80.24659582599989, 42.365477194000064 ], [ -80.093168497999898, 42.420150859000032 ], [ -79.939767008999894, 42.474772848000057 ], [ -79.786391357999918, 42.529368999 ], [ -79.763006634999869, 42.537704928000053 ], [ -79.633015706999856, 42.584042664000052 ], [ -79.47964005599988, 42.638716329000019 ], [ -79.326186889999889, 42.693338318000045 ], [ -79.172759562999914, 42.748011984000087 ], [ -79.01938391099992, 42.802685649000054 ], [ -78.96305660099992, 42.840125224000033 ], [ -78.918950765999938, 42.889243673000081 ], [ -78.909054727999944, 42.930223084000019 ], [ -78.915255900999938, 42.947612203000048 ], [ -78.936339884999967, 42.960040385000113 ], [ -78.959956013999886, 42.96621571900009 ], [ -78.983520467999881, 42.976137593 ], [ -79.008350992999937, 42.991046245000049 ], [ -79.022019409999956, 43.002234193000064 ], [ -79.031967122999845, 43.013422140000031 ], [ -79.028246419999846, 43.03450612400006 ], [ -79.022019409999956, 43.049414775000102 ], [ -79.023259643999978, 43.058070578000056 ], [ -79.030752726999907, 43.066803894000103 ], [ -79.041863159999934, 43.075459697000085 ], [ -79.055531575999851, 43.087887879000064 ], [ -79.062947143999878, 43.096543681000085 ], [ -79.06527258299991, 43.105897116000037 ], [ -79.065737670999937, 43.120237326000037 ], [ -79.061422689999858, 43.130288392000082 ], [ -79.055583251999877, 43.13842743 ], [ -79.05160416699988, 43.146850688000072 ], [ -79.04933040399996, 43.159847310000103 ], [ -79.048606933999878, 43.170621847000021 ], [ -79.053774576999871, 43.260357971000118 ], [ -79.058425455999924, 43.27779876700005 ], [ -79.091627563999879, 43.342523499000052 ], [ -79.174309855999923, 43.464531555000079 ], [ -79.078992675999928, 43.498948060000131 ], [ -78.946184244999927, 43.546722921000125 ], [ -78.750821492999961, 43.617054546000034 ], [ -78.68808630399991, 43.631808167000131 ], [ -78.457273518999898, 43.630981344000119 ], [ -78.226460734999904, 43.630206197000106 ], [ -77.995673787999891, 43.629431051 ], [ -77.764835163999862, 43.62865590400007 ], [ -77.533996541999841, 43.627854920000075 ], [ -77.303209594999942, 43.627105612000051 ], [ -77.072370971999902, 43.626330465000038 ], [ -76.841532348999891, 43.625503642000027 ], [ -76.836002970999886, 43.62803578800002 ], [ -76.83047359199989, 43.630438741000077 ], [ -76.824892536999869, 43.632893372000026 ], [ -76.819363158999863, 43.63542551700003 ], [ -76.813782104999859, 43.637880148000093 ], [ -76.80830440299988, 43.640308940000054 ], [ -76.802723348999848, 43.642789409000031 ], [ -76.797193970999842, 43.645269877 ], [ -76.754354206999921, 43.700098572000101 ], [ -76.711514444999864, 43.755004781000096 ], [ -76.668674682999921, 43.809885153000025 ], [ -76.625886596999891, 43.864765523000031 ], [ -76.582995157999846, 43.919594218000029 ], [ -76.54020707199993, 43.974474589000053 ], [ -76.497367309999873, 44.029354960000049 ], [ -76.454630900999888, 44.084235332000063 ], [ -76.430032918999899, 44.103303935000056 ], [ -76.350089477999859, 44.151724752000106 ], [ -76.344405069999908, 44.158184306000052 ], [ -76.341356160999908, 44.165780742000024 ], [ -76.337118692999951, 44.173738912 ], [ -76.327765258999904, 44.181490377000088 ], [ -76.317171590999919, 44.185056051000046 ], [ -76.206635701999886, 44.217405498000048 ], [ -76.185758422999925, 44.225673727000085 ], [ -76.169325317999949, 44.242365214000031 ], [ -76.169738728999874, 44.247687887000083 ], [ -76.178058634999928, 44.272130840000031 ], [ -76.178678751999882, 44.278642070000089 ], [ -76.149791626999843, 44.304531962000013 ], [ -76.067264363999925, 44.347991842000042 ], [ -75.89869584199991, 44.39997833300005 ], [ -75.870325480999924, 44.4086082970001 ], [ -75.855701049999936, 44.422044170000063 ], [ -75.845417439999949, 44.439045715000063 ], [ -75.830948038999907, 44.46431549100005 ], [ -75.791183024999896, 44.496768291000066 ], [ -75.75462194799988, 44.527567444000013 ], [ -75.699689900999942, 44.581672668000024 ], [ -75.578198608999941, 44.661512757000096 ], [ -75.455958007999925, 44.74176625600002 ], [ -75.341830606999906, 44.816748759000077 ], [ -75.270232909999947, 44.863774313000064 ], [ -75.129647175999963, 44.925165914000061 ], [ -75.075593627999893, 44.935501200000047 ], [ -75.058721273999907, 44.941030578000053 ], [ -75.014899657999877, 44.965990296000044 ], [ -74.998647420999873, 44.972398173000087 ], [ -74.940201375999891, 44.987746074000043 ], [ -74.903743651999974, 45.005212708 ], [ -74.88650956299989, 45.009398499000028 ], [ -74.868474486999901, 45.010121969000025 ], [ -74.741557169999908, 44.99885650700007 ], [ -74.712961391999897, 44.999253648000078 ], [ -74.695875203999918, 44.998029684000059 ], [ -74.596113850999899, 44.998494772000086 ], [ -74.496352497999908, 44.999011536000111 ], [ -74.396616984999895, 44.999476623000035 ], [ -74.296881469999903, 44.999993388000078 ], [ -74.1971459559999, 45.000458476000105 ], [ -74.097384603999899, 45.000975240000045 ], [ -74.0, 45.00142936520016 ] ] } }
]
}
