{"type": "FeatureCollection", "features": [{"type": "Feature", "geometry": {"type": "Point", "coordinates": [-74.428887, 41.192821]}, "properties": {"id": "turn_000", "course_mi": 0.18, "ele_m": 346.0, "direction": "right", "intensity": "normal", "label": "Bike Path", "label_type": "road", "section": "Start \u2192 Finish", "snap_method": "geometry_only", "context": "", "jurisdiction": "", "jurisdiction_unit": ""}}, {"type": "Feature", "geometry": {"type": "Point", "coordinates": [-74.416372, 41.192288]}, "properties": {"id": "turn_001", "course_mi": 0.9, "ele_m": 322.0, "direction": "right", "intensity": "normal", "label": "Bike Path", "label_type": "road", "section": "Start \u2192 Finish", "snap_method": "geometry_only", "context": "", "jurisdiction": "", "jurisdiction_unit": ""}}, {"type": "Feature", "geometry": {"type": "Point", "coordinates": [-74.421732, 41.184927]}, "properties": {"id": "turn_002", "course_mi": 1.49, "ele_m": 334.0, "direction": "left", "intensity": "sharp", "label": "Campsite Road/Double Pond Trail", "label_type": "road", "section": "Start \u2192 Finish", "snap_method": "geometry_only", "context": "", "jurisdiction": "", "jurisdiction_unit": ""}}, {"type": "Feature", "geometry": {"type": "Point", "coordinates": [-74.420239, 41.185385]}, "properties": {"id": "turn_003", "course_mi": 1.58, "ele_m": 338.0, "direction": "right", "intensity": "normal", "label": "Double Pond Trail", "label_type": "trail", "section": "Start \u2192 Finish", "snap_method": "geometry_only", "context": "", "jurisdiction": "", "jurisdiction_unit": ""}}, {"type": "Feature", "geometry": {"type": "Point", "coordinates": [-74.415191, 41.181986]}, "properties": {"id": "turn_004", "course_mi": 1.99, "ele_m": 345.0, "direction": "right", "intensity": "normal", "label": "Double Pond Trail", "label_type": "trail", "section": "Start \u2192 Finish", "snap_method": "geometry_only", "context": "", "jurisdiction": "", "jurisdiction_unit": ""}}, {"type": "Feature", "geometry": {"type": "Point", "coordinates": [-74.411405, 41.173127]}, "properties": {"id": "turn_005", "course_mi": 2.72, "ele_m": 348.0, "direction": "left", "intensity": "normal", "label": "Cedar Swamp Trail", "label_type": "trail", "section": "Start \u2192 Finish", "snap_method": "geometry_only", "context": "", "jurisdiction": "", "jurisdiction_unit": ""}}, {"type": "Feature", "geometry": {"type": "Point", "coordinates": [-74.408532, 41.171221]}, "properties": {"id": "turn_006", "course_mi": 2.95, "ele_m": 352.0, "direction": "right", "intensity": "normal", "label": "Cedar Swamp Trail", "label_type": "trail", "section": "Start \u2192 Finish", "snap_method": "geometry_only", "context": "", "jurisdiction": "", "jurisdiction_unit": ""}}, {"type": "Feature", "geometry": {"type": "Point", "coordinates": [-74.410599, 41.170146]}, "properties": {"id": "turn_007", "course_mi": 3.1, "ele_m": 353.0, "direction": "left", "intensity": "normal", "label": "Cedar Swamp Trail", "label_type": "trail", "section": "Start \u2192 Finish", "snap_method": "geometry_only", "context": "", "jurisdiction": "", "jurisdiction_unit": ""}}, {"type": "Feature", "geometry": {"type": "Point", "coordinates": [-74.410906, 41.16261]}, "properties": {"id": "turn_008", "course_mi": 3.73, "ele_m": 356.0, "direction": "left", "intensity": "normal", "label": "Rockadendron", "label_type": "trail", "section": "Start \u2192 Finish", "snap_method": "geometry_only", "context": "", "jurisdiction": "", "jurisdiction_unit": ""}}, {"type": "Feature", "geometry": {"type": "Point", "coordinates": [-74.410011, 41.162414]}, "properties": {"id": "turn_009", "course_mi": 3.78, "ele_m": 352.0, "direction": "right", "intensity": "normal", "label": "Cedar Swamp Trail", "label_type": "trail", "section": "Start \u2192 Finish", "snap_method": "geometry_only", "context": "", "jurisdiction": "", "jurisdiction_unit": ""}}, {"type": "Feature", "geometry": {"type": "Point", "coordinates": [-74.41438, 41.157176]}, "properties": {"id": "turn_010", "course_mi": 4.27, "ele_m": 372.0, "direction": "right", "intensity": "normal", "label": "Cherry Ridge Trail", "label_type": "trail", "section": "Start \u2192 Finish", "snap_method": "geometry_only", "context": "", "jurisdiction": "", "jurisdiction_unit": ""}}, {"type": "Feature", "geometry": {"type": "Point", "coordinates": [-74.419665, 41.161377]}, "properties": {"id": "turn_011", "course_mi": 4.69, "ele_m": 360.0, "direction": "left", "intensity": "normal", "label": "Rockadendron", "label_type": "trail", "section": "Start \u2192 Finish", "snap_method": "geometry_only", "context": "", "jurisdiction": "", "jurisdiction_unit": ""}}, {"type": "Feature", "geometry": {"type": "Point", "coordinates": [-74.421268, 41.160443]}, "properties": {"id": "turn_012", "course_mi": 4.8, "ele_m": 358.0, "direction": "right", "intensity": "normal", "label": "Mojo Swamp", "label_type": "trail", "section": "Start \u2192 Finish", "snap_method": "geometry_only", "context": "", "jurisdiction": "", "jurisdiction_unit": ""}}, {"type": "Feature", "geometry": {"type": "Point", "coordinates": [-74.427903, 41.162331]}, "properties": {"id": "turn_013", "course_mi": 5.2, "ele_m": 367.0, "direction": "right", "intensity": "normal", "label": "Cherry Ridge Trail", "label_type": "trail", "section": "Start \u2192 Finish", "snap_method": "geometry_only", "context": "", "jurisdiction": "", "jurisdiction_unit": ""}}, {"type": "Feature", "geometry": {"type": "Point", "coordinates": [-74.428983, 41.164561]}, "properties": {"id": "turn_014", "course_mi": 5.37, "ele_m": 354.0, "direction": "left", "intensity": "normal", "label": "Cherry Ridge Trail", "label_type": "trail", "section": "Start \u2192 Finish", "snap_method": "geometry_only", "context": "", "jurisdiction": "", "jurisdiction_unit": ""}}, {"type": "Feature", "geometry": {"type": "Point", "coordinates": [-74.429948, 41.164424]}, "properties": {"id": "turn_015", "course_mi": 5.43, "ele_m": 356.0, "direction": "right", "intensity": "normal", "label": "Cherry Ridge Trail", "label_type": "trail", "section": "Start \u2192 Finish", "snap_method": "geometry_only", "context": "", "jurisdiction": "", "jurisdiction_unit": ""}}, {"type": "Feature", "geometry": {"type": "Point", "coordinates": [-74.432316, 41.165922]}, "properties": {"id": "turn_016", "course_mi": 5.61, "ele_m": 382.0, "direction": "right", "intensity": "sharp", "label": "Cherry Ridge Trail", "label_type": "trail", "section": "Start \u2192 Finish", "snap_method": "geometry_only", "context": "", "jurisdiction": "", "jurisdiction_unit": ""}}, {"type": "Feature", "geometry": {"type": "Point", "coordinates": [-74.423737, 41.188153]}, "properties": {"id": "turn_017", "course_mi": 7.37, "ele_m": 348.0, "direction": "left", "intensity": "normal", "label": "Wawayanda Lake Loop", "label_type": "trail", "section": "Start \u2192 Finish", "snap_method": "geometry_only", "context": "", "jurisdiction": "", "jurisdiction_unit": ""}}]}