<?xml version="1.0" encoding="UTF-8"?>
<gpx xmlns="http://www.topografix.com/GPX/1/1" xmlns:xsi="http://www.w3.org/2001/XMLSchema-instance" xsi:schemaLocation="http://www.topografix.com/GPX/1/1 http://www.topografix.com/GPX/1/1/gpx.xsd" version="1.1" creator="gpx.py -- https://github.com/tkrajina/gpxpy">
  <trk>
    <name>Wild Goose Ringwood — 5.5 Miler</name>
    <trkseg>
      <trkpt lat="41.137836" lon="-74.231696">
        <ele>200.0</ele>
      </trkpt>
      <trkpt lat="41.137664" lon="-74.231671">
        <ele>199.1</ele>
      </trkpt>
      <trkpt lat="41.137567" lon="-74.231645">
        <ele>198.7</ele>
      </trkpt>
      <trkpt lat="41.137491" lon="-74.231597">
        <ele>198.5</ele>
      </trkpt>
      <trkpt lat="41.137463" lon="-74.231654">
        <ele>198.4</ele>
      </trkpt>
      <trkpt lat="41.137379" lon="-74.231722">
        <ele>198.5</ele>
      </trkpt>
      <trkpt lat="41.137326" lon="-74.231737">
        <ele>198.5</ele>
      </trkpt>
      <trkpt lat="41.13704" lon="-74.23177">
        <ele>198.3</ele>
      </trkpt>
      <trkpt lat="41.137027" lon="-74.231883">
        <ele>198.6</ele>
      </trkpt>
      <trkpt lat="41.137016" lon="-74.231932">
        <ele>198.7</ele>
      </trkpt>
      <trkpt lat="41.136899" lon="-74.23192">
        <ele>198.3</ele>
      </trkpt>
      <trkpt lat="41.136669" lon="-74.232036">
        <ele>197.8</ele>
      </trkpt>
      <trkpt lat="41.136627" lon="-74.232057">
        <ele>197.6</ele>
      </trkpt>
      <trkpt lat="41.136491" lon="-74.23213">
        <ele>196.7</ele>
      </trkpt>
      <trkpt lat="41.136376" lon="-74.232012">
        <ele>195.9</ele>
      </trkpt>
      <trkpt lat="41.136241" lon="-74.232048">
        <ele>195.0</ele>
      </trkpt>
      <trkpt lat="41.136148" lon="-74.232049">
        <ele>194.9</ele>
      </trkpt>
      <trkpt lat="41.136054" lon="-74.232041">
        <ele>194.8</ele>
      </trkpt>
      <trkpt lat="41.135867" lon="-74.231975">
        <ele>194.6</ele>
      </trkpt>
      <trkpt lat="41.135648" lon="-74.231946">
        <ele>195.2</ele>
      </trkpt>
      <trkpt lat="41.135571" lon="-74.231913">
        <ele>195.3</ele>
      </trkpt>
      <trkpt lat="41.135535" lon="-74.231861">
        <ele>195.3</ele>
      </trkpt>
      <trkpt lat="41.135511" lon="-74.231951">
        <ele>195.7</ele>
      </trkpt>
      <trkpt lat="41.135484" lon="-74.231922">
        <ele>195.7</ele>
      </trkpt>
      <trkpt lat="41.135375" lon="-74.231799">
        <ele>196.0</ele>
      </trkpt>
      <trkpt lat="41.135268" lon="-74.231589">
        <ele>196.3</ele>
      </trkpt>
      <trkpt lat="41.135229" lon="-74.231356">
        <ele>195.8</ele>
      </trkpt>
      <trkpt lat="41.135246" lon="-74.231036">
        <ele>197.6</ele>
      </trkpt>
      <trkpt lat="41.13539" lon="-74.230665">
        <ele>197.2</ele>
      </trkpt>
      <trkpt lat="41.135624" lon="-74.23001">
        <ele>197.5</ele>
      </trkpt>
      <trkpt lat="41.135653" lon="-74.229905">
        <ele>197.6</ele>
      </trkpt>
      <trkpt lat="41.135652" lon="-74.229904">
        <ele>197.6</ele>
      </trkpt>
      <trkpt lat="41.135688" lon="-74.229772">
        <ele>198.4</ele>
      </trkpt>
      <trkpt lat="41.135704" lon="-74.229598">
        <ele>198.4</ele>
      </trkpt>
      <trkpt lat="41.135647" lon="-74.229385">
        <ele>198.2</ele>
      </trkpt>
      <trkpt lat="41.13557" lon="-74.229257">
        <ele>197.9</ele>
      </trkpt>
      <trkpt lat="41.135476" lon="-74.229162">
        <ele>198.1</ele>
      </trkpt>
      <trkpt lat="41.135321" lon="-74.228997">
        <ele>200.0</ele>
      </trkpt>
      <trkpt lat="41.135219" lon="-74.228825">
        <ele>200.6</ele>
      </trkpt>
      <trkpt lat="41.135161" lon="-74.228602">
        <ele>199.6</ele>
      </trkpt>
      <trkpt lat="41.135121" lon="-74.228393">
        <ele>199.5</ele>
      </trkpt>
      <trkpt lat="41.13508" lon="-74.227712">
        <ele>200.7</ele>
      </trkpt>
      <trkpt lat="41.134963" lon="-74.22737">
        <ele>200.5</ele>
      </trkpt>
      <trkpt lat="41.13464" lon="-74.227025">
        <ele>200.9</ele>
      </trkpt>
      <trkpt lat="41.134467" lon="-74.226764">
        <ele>201.8</ele>
      </trkpt>
      <trkpt lat="41.134413" lon="-74.22663">
        <ele>202.1</ele>
      </trkpt>
      <trkpt lat="41.134418" lon="-74.226496">
        <ele>202.0</ele>
      </trkpt>
      <trkpt lat="41.134452" lon="-74.226362">
        <ele>201.7</ele>
      </trkpt>
      <trkpt lat="41.134623" lon="-74.22594">
        <ele>203.7</ele>
      </trkpt>
      <trkpt lat="41.134778" lon="-74.225538">
        <ele>203.3</ele>
      </trkpt>
      <trkpt lat="41.134829" lon="-74.225259">
        <ele>203.5</ele>
      </trkpt>
      <trkpt lat="41.134839" lon="-74.225002">
        <ele>204.2</ele>
      </trkpt>
      <trkpt lat="41.13481" lon="-74.224614">
        <ele>204.3</ele>
      </trkpt>
      <trkpt lat="41.134709" lon="-74.224278">
        <ele>203.7</ele>
      </trkpt>
      <trkpt lat="41.134608" lon="-74.224011">
        <ele>203.9</ele>
      </trkpt>
      <trkpt lat="41.134558" lon="-74.223692">
        <ele>205.4</ele>
      </trkpt>
      <trkpt lat="41.134589" lon="-74.223469">
        <ele>205.4</ele>
      </trkpt>
      <trkpt lat="41.134799" lon="-74.2229">
        <ele>206.8</ele>
      </trkpt>
      <trkpt lat="41.135036" lon="-74.22248">
        <ele>208.4</ele>
      </trkpt>
      <trkpt lat="41.135316" lon="-74.22206">
        <ele>207.2</ele>
      </trkpt>
      <trkpt lat="41.135423" lon="-74.221766">
        <ele>207.2</ele>
      </trkpt>
      <trkpt lat="41.135522" lon="-74.22134">
        <ele>209.1</ele>
      </trkpt>
      <trkpt lat="41.135599" lon="-74.221183">
        <ele>210.7</ele>
      </trkpt>
      <trkpt lat="41.135722" lon="-74.221026">
        <ele>211.4</ele>
      </trkpt>
      <trkpt lat="41.136142" lon="-74.220638">
        <ele>212.1</ele>
      </trkpt>
      <trkpt lat="41.136311" lon="-74.220087">
        <ele>219.6</ele>
      </trkpt>
      <trkpt lat="41.136346" lon="-74.219766">
        <ele>224.6</ele>
      </trkpt>
      <trkpt lat="41.136306" lon="-74.219416">
        <ele>228.9</ele>
      </trkpt>
      <trkpt lat="41.136235" lon="-74.219202">
        <ele>231.7</ele>
      </trkpt>
      <trkpt lat="41.135983" lon="-74.218816">
        <ele>232.0</ele>
      </trkpt>
      <trkpt lat="41.135984" lon="-74.218816">
        <ele>232.0</ele>
      </trkpt>
      <trkpt lat="41.135915" lon="-74.218711">
        <ele>232.5</ele>
      </trkpt>
      <trkpt lat="41.135599" lon="-74.218301">
        <ele>234.7</ele>
      </trkpt>
      <trkpt lat="41.135284" lon="-74.217922">
        <ele>233.3</ele>
      </trkpt>
      <trkpt lat="41.135047" lon="-74.217874">
        <ele>232.7</ele>
      </trkpt>
      <trkpt lat="41.134605" lon="-74.217936">
        <ele>230.7</ele>
      </trkpt>
      <trkpt lat="41.134374" lon="-74.21814">
        <ele>233.2</ele>
      </trkpt>
      <trkpt lat="41.133968" lon="-74.218522">
        <ele>239.6</ele>
      </trkpt>
      <trkpt lat="41.133621" lon="-74.218779">
        <ele>238.3</ele>
      </trkpt>
      <trkpt lat="41.133406" lon="-74.219184">
        <ele>240.5</ele>
      </trkpt>
      <trkpt lat="41.132746" lon="-74.219445">
        <ele>237.6</ele>
      </trkpt>
      <trkpt lat="41.132267" lon="-74.219567">
        <ele>230.3</ele>
      </trkpt>
      <trkpt lat="41.131834" lon="-74.219806">
        <ele>223.7</ele>
      </trkpt>
      <trkpt lat="41.131378" lon="-74.220079">
        <ele>221.8</ele>
      </trkpt>
      <trkpt lat="41.13115" lon="-74.220159">
        <ele>219.5</ele>
      </trkpt>
      <trkpt lat="41.131148" lon="-74.22016">
        <ele>219.5</ele>
      </trkpt>
      <trkpt lat="41.130885" lon="-74.220251">
        <ele>216.3</ele>
      </trkpt>
      <trkpt lat="41.130527" lon="-74.220467">
        <ele>212.9</ele>
      </trkpt>
      <trkpt lat="41.129999" lon="-74.22063">
        <ele>208.3</ele>
      </trkpt>
      <trkpt lat="41.129598" lon="-74.220721">
        <ele>204.6</ele>
      </trkpt>
      <trkpt lat="41.129226" lon="-74.220722">
        <ele>203.0</ele>
      </trkpt>
      <trkpt lat="41.128442" lon="-74.220888">
        <ele>198.4</ele>
      </trkpt>
      <trkpt lat="41.127533" lon="-74.221885">
        <ele>199.7</ele>
      </trkpt>
      <trkpt lat="41.126934" lon="-74.222475">
        <ele>198.6</ele>
      </trkpt>
      <trkpt lat="41.126516" lon="-74.222819">
        <ele>198.2</ele>
      </trkpt>
      <trkpt lat="41.126356" lon="-74.222885">
        <ele>198.6</ele>
      </trkpt>
      <trkpt lat="41.126235" lon="-74.222905">
        <ele>198.9</ele>
      </trkpt>
      <trkpt lat="41.126171" lon="-74.222963">
        <ele>199.2</ele>
      </trkpt>
      <trkpt lat="41.12611" lon="-74.22313">
        <ele>200.7</ele>
      </trkpt>
      <trkpt lat="41.125954" lon="-74.223121">
        <ele>200.7</ele>
      </trkpt>
      <trkpt lat="41.12552" lon="-74.223452">
        <ele>204.3</ele>
      </trkpt>
      <trkpt lat="41.12489" lon="-74.223741">
        <ele>206.9</ele>
      </trkpt>
      <trkpt lat="41.124601" lon="-74.223827">
        <ele>208.9</ele>
      </trkpt>
      <trkpt lat="41.124348" lon="-74.223902">
        <ele>209.1</ele>
      </trkpt>
      <trkpt lat="41.123857" lon="-74.223963">
        <ele>210.4</ele>
      </trkpt>
      <trkpt lat="41.123583" lon="-74.22396">
        <ele>210.5</ele>
      </trkpt>
      <trkpt lat="41.123584" lon="-74.22396">
        <ele>210.5</ele>
      </trkpt>
      <trkpt lat="41.123552" lon="-74.22396">
        <ele>210.5</ele>
      </trkpt>
      <trkpt lat="41.123128" lon="-74.223971">
        <ele>210.9</ele>
      </trkpt>
      <trkpt lat="41.12296" lon="-74.223976">
        <ele>210.9</ele>
      </trkpt>
      <trkpt lat="41.12256" lon="-74.224025">
        <ele>210.2</ele>
      </trkpt>
      <trkpt lat="41.122347" lon="-74.224095">
        <ele>209.6</ele>
      </trkpt>
      <trkpt lat="41.122126" lon="-74.224289">
        <ele>208.8</ele>
      </trkpt>
      <trkpt lat="41.121992" lon="-74.224648">
        <ele>209.1</ele>
      </trkpt>
      <trkpt lat="41.121901" lon="-74.224985">
        <ele>207.7</ele>
      </trkpt>
      <trkpt lat="41.121802" lon="-74.22533">
        <ele>209.0</ele>
      </trkpt>
      <trkpt lat="41.120174" lon="-74.227187">
        <ele>200.2</ele>
      </trkpt>
      <trkpt lat="41.120052" lon="-74.227327">
        <ele>199.3</ele>
      </trkpt>
      <trkpt lat="41.119777" lon="-74.227486">
        <ele>198.6</ele>
      </trkpt>
      <trkpt lat="41.11907" lon="-74.227998">
        <ele>198.5</ele>
      </trkpt>
      <trkpt lat="41.118553" lon="-74.228642">
        <ele>196.1</ele>
      </trkpt>
      <trkpt lat="41.118205" lon="-74.22896">
        <ele>196.1</ele>
      </trkpt>
      <trkpt lat="41.118204" lon="-74.22896">
        <ele>196.1</ele>
      </trkpt>
      <trkpt lat="41.118072" lon="-74.229081">
        <ele>196.1</ele>
      </trkpt>
      <trkpt lat="41.117544" lon="-74.229428">
        <ele>194.7</ele>
      </trkpt>
      <trkpt lat="41.11708" lon="-74.229852">
        <ele>194.5</ele>
      </trkpt>
      <trkpt lat="41.116621" lon="-74.230383">
        <ele>191.4</ele>
      </trkpt>
      <trkpt lat="41.1162" lon="-74.230893">
        <ele>191.2</ele>
      </trkpt>
      <trkpt lat="41.115815" lon="-74.231341">
        <ele>189.1</ele>
      </trkpt>
      <trkpt lat="41.115212" lon="-74.231872">
        <ele>189.1</ele>
      </trkpt>
      <trkpt lat="41.115212" lon="-74.231872">
        <ele>189.1</ele>
      </trkpt>
      <trkpt lat="41.115149" lon="-74.231927">
        <ele>189.0</ele>
      </trkpt>
      <trkpt lat="41.114657" lon="-74.232442">
        <ele>190.1</ele>
      </trkpt>
      <trkpt lat="41.114424" lon="-74.232834">
        <ele>189.9</ele>
      </trkpt>
      <trkpt lat="41.114081" lon="-74.233143">
        <ele>191.4</ele>
      </trkpt>
      <trkpt lat="41.113708" lon="-74.233546">
        <ele>191.3</ele>
      </trkpt>
      <trkpt lat="41.113434" lon="-74.233893">
        <ele>189.7</ele>
      </trkpt>
      <trkpt lat="41.113369" lon="-74.233861">
        <ele>189.1</ele>
      </trkpt>
      <trkpt lat="41.113368" lon="-74.233864">
        <ele>189.1</ele>
      </trkpt>
      <trkpt lat="41.113433" lon="-74.233896">
        <ele>189.7</ele>
      </trkpt>
      <trkpt lat="41.113625" lon="-74.234013">
        <ele>192.9</ele>
      </trkpt>
      <trkpt lat="41.113946" lon="-74.234189">
        <ele>199.1</ele>
      </trkpt>
      <trkpt lat="41.114015" lon="-74.234308">
        <ele>201.4</ele>
      </trkpt>
      <trkpt lat="41.114047" lon="-74.234441">
        <ele>203.0</ele>
      </trkpt>
      <trkpt lat="41.113986" lon="-74.23472">
        <ele>204.7</ele>
      </trkpt>
      <trkpt lat="41.113948" lon="-74.234902">
        <ele>205.9</ele>
      </trkpt>
      <trkpt lat="41.113912" lon="-74.235225">
        <ele>207.7</ele>
      </trkpt>
      <trkpt lat="41.113903" lon="-74.235332">
        <ele>208.7</ele>
      </trkpt>
      <trkpt lat="41.113867" lon="-74.235653">
        <ele>212.3</ele>
      </trkpt>
      <trkpt lat="41.113824" lon="-74.236132">
        <ele>216.5</ele>
      </trkpt>
      <trkpt lat="41.113803" lon="-74.236651">
        <ele>219.9</ele>
      </trkpt>
      <trkpt lat="41.113824" lon="-74.236823">
        <ele>220.3</ele>
      </trkpt>
      <trkpt lat="41.113898" lon="-74.236981">
        <ele>219.5</ele>
      </trkpt>
      <trkpt lat="41.114051" lon="-74.237127">
        <ele>216.3</ele>
      </trkpt>
      <trkpt lat="41.114324" lon="-74.237245">
        <ele>213.3</ele>
      </trkpt>
      <trkpt lat="41.11488" lon="-74.237116">
        <ele>213.4</ele>
      </trkpt>
      <trkpt lat="41.11488" lon="-74.237112">
        <ele>213.5</ele>
      </trkpt>
      <trkpt lat="41.114998" lon="-74.237085">
        <ele>213.2</ele>
      </trkpt>
      <trkpt lat="41.115511" lon="-74.236849">
        <ele>214.8</ele>
      </trkpt>
      <trkpt lat="41.115893" lon="-74.236704">
        <ele>215.9</ele>
      </trkpt>
      <trkpt lat="41.116416" lon="-74.236536">
        <ele>216.4</ele>
      </trkpt>
      <trkpt lat="41.116741" lon="-74.236521">
        <ele>214.3</ele>
      </trkpt>
      <trkpt lat="41.117449" lon="-74.2363">
        <ele>208.7</ele>
      </trkpt>
      <trkpt lat="41.117837" lon="-74.235988">
        <ele>205.7</ele>
      </trkpt>
      <trkpt lat="41.118044" lon="-74.235937">
        <ele>202.7</ele>
      </trkpt>
      <trkpt lat="41.118658" lon="-74.234978">
        <ele>202.3</ele>
      </trkpt>
      <trkpt lat="41.11893" lon="-74.234853">
        <ele>201.8</ele>
      </trkpt>
      <trkpt lat="41.119337" lon="-74.234791">
        <ele>200.2</ele>
      </trkpt>
      <trkpt lat="41.11934" lon="-74.234792">
        <ele>200.2</ele>
      </trkpt>
      <trkpt lat="41.119528" lon="-74.234763">
        <ele>199.9</ele>
      </trkpt>
      <trkpt lat="41.120493" lon="-74.234741">
        <ele>195.3</ele>
      </trkpt>
      <trkpt lat="41.120689" lon="-74.234676">
        <ele>194.2</ele>
      </trkpt>
      <trkpt lat="41.120788" lon="-74.234198">
        <ele>195.2</ele>
      </trkpt>
      <trkpt lat="41.120852" lon="-74.234032">
        <ele>195.8</ele>
      </trkpt>
      <trkpt lat="41.121019" lon="-74.233743">
        <ele>197.2</ele>
      </trkpt>
      <trkpt lat="41.121242" lon="-74.23357">
        <ele>196.5</ele>
      </trkpt>
      <trkpt lat="41.121491" lon="-74.23351">
        <ele>196.5</ele>
      </trkpt>
      <trkpt lat="41.121511" lon="-74.233512">
        <ele>196.4</ele>
      </trkpt>
      <trkpt lat="41.121512" lon="-74.233512">
        <ele>196.4</ele>
      </trkpt>
      <trkpt lat="41.121835" lon="-74.233544">
        <ele>196.6</ele>
      </trkpt>
      <trkpt lat="41.12211" lon="-74.233623">
        <ele>196.0</ele>
      </trkpt>
      <trkpt lat="41.122548" lon="-74.23377">
        <ele>196.4</ele>
      </trkpt>
      <trkpt lat="41.122697" lon="-74.233856">
        <ele>194.8</ele>
      </trkpt>
      <trkpt lat="41.122974" lon="-74.233905">
        <ele>193.9</ele>
      </trkpt>
      <trkpt lat="41.123045" lon="-74.233905">
        <ele>193.9</ele>
      </trkpt>
      <trkpt lat="41.123211" lon="-74.233855">
        <ele>194.5</ele>
      </trkpt>
      <trkpt lat="41.123486" lon="-74.233766">
        <ele>194.3</ele>
      </trkpt>
      <trkpt lat="41.123676" lon="-74.233703">
        <ele>194.0</ele>
      </trkpt>
      <trkpt lat="41.124063" lon="-74.233598">
        <ele>194.4</ele>
      </trkpt>
      <trkpt lat="41.124392" lon="-74.233538">
        <ele>195.4</ele>
      </trkpt>
      <trkpt lat="41.124582" lon="-74.233489">
        <ele>194.9</ele>
      </trkpt>
      <trkpt lat="41.124664" lon="-74.233473">
        <ele>195.3</ele>
      </trkpt>
      <trkpt lat="41.124758" lon="-74.23348">
        <ele>195.6</ele>
      </trkpt>
      <trkpt lat="41.124904" lon="-74.233491">
        <ele>196.5</ele>
      </trkpt>
      <trkpt lat="41.124945" lon="-74.233513">
        <ele>196.9</ele>
      </trkpt>
      <trkpt lat="41.124944" lon="-74.233512">
        <ele>196.9</ele>
      </trkpt>
      <trkpt lat="41.125406" lon="-74.233753">
        <ele>202.3</ele>
      </trkpt>
      <trkpt lat="41.125564" lon="-74.233793">
        <ele>205.0</ele>
      </trkpt>
      <trkpt lat="41.125866" lon="-74.233996">
        <ele>209.2</ele>
      </trkpt>
      <trkpt lat="41.126145" lon="-74.234185">
        <ele>211.5</ele>
      </trkpt>
      <trkpt lat="41.12664" lon="-74.234308">
        <ele>221.1</ele>
      </trkpt>
      <trkpt lat="41.126708" lon="-74.234346">
        <ele>222.4</ele>
      </trkpt>
      <trkpt lat="41.126784" lon="-74.234466">
        <ele>223.5</ele>
      </trkpt>
      <trkpt lat="41.126839" lon="-74.234639">
        <ele>224.9</ele>
      </trkpt>
      <trkpt lat="41.126994" lon="-74.234787">
        <ele>229.0</ele>
      </trkpt>
      <trkpt lat="41.126972" lon="-74.234849">
        <ele>228.7</ele>
      </trkpt>
      <trkpt lat="41.126958" lon="-74.234911">
        <ele>228.5</ele>
      </trkpt>
      <trkpt lat="41.126947" lon="-74.234967">
        <ele>228.4</ele>
      </trkpt>
      <trkpt lat="41.126945" lon="-74.235023">
        <ele>228.1</ele>
      </trkpt>
      <trkpt lat="41.126947" lon="-74.235088">
        <ele>227.0</ele>
      </trkpt>
      <trkpt lat="41.126955" lon="-74.235147">
        <ele>226.1</ele>
      </trkpt>
      <trkpt lat="41.126974" lon="-74.235208">
        <ele>225.5</ele>
      </trkpt>
      <trkpt lat="41.126994" lon="-74.235262">
        <ele>225.0</ele>
      </trkpt>
      <trkpt lat="41.127018" lon="-74.235308">
        <ele>225.0</ele>
      </trkpt>
      <trkpt lat="41.127049" lon="-74.235356">
        <ele>225.3</ele>
      </trkpt>
      <trkpt lat="41.127069" lon="-74.235407">
        <ele>225.2</ele>
      </trkpt>
      <trkpt lat="41.127089" lon="-74.235455">
        <ele>225.2</ele>
      </trkpt>
      <trkpt lat="41.127109" lon="-74.235506">
        <ele>225.1</ele>
      </trkpt>
      <trkpt lat="41.127133" lon="-74.235568">
        <ele>224.8</ele>
      </trkpt>
      <trkpt lat="41.127158" lon="-74.235613">
        <ele>224.6</ele>
      </trkpt>
      <trkpt lat="41.127184" lon="-74.235664">
        <ele>224.2</ele>
      </trkpt>
      <trkpt lat="41.127208" lon="-74.235715">
        <ele>223.8</ele>
      </trkpt>
      <trkpt lat="41.127236" lon="-74.235763">
        <ele>223.6</ele>
      </trkpt>
      <trkpt lat="41.127261" lon="-74.235809">
        <ele>223.3</ele>
      </trkpt>
      <trkpt lat="41.127289" lon="-74.235855">
        <ele>223.1</ele>
      </trkpt>
      <trkpt lat="41.127319" lon="-74.235898">
        <ele>222.9</ele>
      </trkpt>
      <trkpt lat="41.127341" lon="-74.235949">
        <ele>222.5</ele>
      </trkpt>
      <trkpt lat="41.127364" lon="-74.235997">
        <ele>222.1</ele>
      </trkpt>
      <trkpt lat="41.127392" lon="-74.236053">
        <ele>222.0</ele>
      </trkpt>
      <trkpt lat="41.127412" lon="-74.236104">
        <ele>221.6</ele>
      </trkpt>
      <trkpt lat="41.12742" lon="-74.236158">
        <ele>220.9</ele>
      </trkpt>
      <trkpt lat="41.12743" lon="-74.236228">
        <ele>220.0</ele>
      </trkpt>
      <trkpt lat="41.127438" lon="-74.236284">
        <ele>219.2</ele>
      </trkpt>
      <trkpt lat="41.127442" lon="-74.236343">
        <ele>218.3</ele>
      </trkpt>
      <trkpt lat="41.127446" lon="-74.236399">
        <ele>217.4</ele>
      </trkpt>
      <trkpt lat="41.127459" lon="-74.236461">
        <ele>216.7</ele>
      </trkpt>
      <trkpt lat="41.127459" lon="-74.23652">
        <ele>215.8</ele>
      </trkpt>
      <trkpt lat="41.127493" lon="-74.236852">
        <ele>213.6</ele>
      </trkpt>
      <trkpt lat="41.127493" lon="-74.236885">
        <ele>213.6</ele>
      </trkpt>
      <trkpt lat="41.127493" lon="-74.236921">
        <ele>213.5</ele>
      </trkpt>
      <trkpt lat="41.127493" lon="-74.236962">
        <ele>213.5</ele>
      </trkpt>
      <trkpt lat="41.127493" lon="-74.236993">
        <ele>213.5</ele>
      </trkpt>
      <trkpt lat="41.127489" lon="-74.237031">
        <ele>213.5</ele>
      </trkpt>
      <trkpt lat="41.127482" lon="-74.237063">
        <ele>213.4</ele>
      </trkpt>
      <trkpt lat="41.127529" lon="-74.237148">
        <ele>213.6</ele>
      </trkpt>
      <trkpt lat="41.127586" lon="-74.237212">
        <ele>213.8</ele>
      </trkpt>
      <trkpt lat="41.127594" lon="-74.237221">
        <ele>213.8</ele>
      </trkpt>
      <trkpt lat="41.127632" lon="-74.237295">
        <ele>214.0</ele>
      </trkpt>
      <trkpt lat="41.127657" lon="-74.237343">
        <ele>214.2</ele>
      </trkpt>
      <trkpt lat="41.127703" lon="-74.237413">
        <ele>214.8</ele>
      </trkpt>
      <trkpt lat="41.127729" lon="-74.237459">
        <ele>215.0</ele>
      </trkpt>
      <trkpt lat="41.127783" lon="-74.23751">
        <ele>215.5</ele>
      </trkpt>
      <trkpt lat="41.127926" lon="-74.23761">
        <ele>216.3</ele>
      </trkpt>
      <trkpt lat="41.127924" lon="-74.237608">
        <ele>216.3</ele>
      </trkpt>
      <trkpt lat="41.128042" lon="-74.23769">
        <ele>217.0</ele>
      </trkpt>
      <trkpt lat="41.128174" lon="-74.237714">
        <ele>218.2</ele>
      </trkpt>
      <trkpt lat="41.128309" lon="-74.237858">
        <ele>218.3</ele>
      </trkpt>
      <trkpt lat="41.128443" lon="-74.238001">
        <ele>217.6</ele>
      </trkpt>
      <trkpt lat="41.128524" lon="-74.238106">
        <ele>216.8</ele>
      </trkpt>
      <trkpt lat="41.128784" lon="-74.238458">
        <ele>213.9</ele>
      </trkpt>
      <trkpt lat="41.128905" lon="-74.238546">
        <ele>213.2</ele>
      </trkpt>
      <trkpt lat="41.129097" lon="-74.238545">
        <ele>213.8</ele>
      </trkpt>
      <trkpt lat="41.129183" lon="-74.238567">
        <ele>213.3</ele>
      </trkpt>
      <trkpt lat="41.129285" lon="-74.238557">
        <ele>213.2</ele>
      </trkpt>
      <trkpt lat="41.129332" lon="-74.238598">
        <ele>212.2</ele>
      </trkpt>
      <trkpt lat="41.129344" lon="-74.238698">
        <ele>210.9</ele>
      </trkpt>
      <trkpt lat="41.129305" lon="-74.238743">
        <ele>210.6</ele>
      </trkpt>
      <trkpt lat="41.129211" lon="-74.238789">
        <ele>210.2</ele>
      </trkpt>
      <trkpt lat="41.129178" lon="-74.238866">
        <ele>209.3</ele>
      </trkpt>
      <trkpt lat="41.129199" lon="-74.238943">
        <ele>208.3</ele>
      </trkpt>
      <trkpt lat="41.129283" lon="-74.23897">
        <ele>207.9</ele>
      </trkpt>
      <trkpt lat="41.129634" lon="-74.238768">
        <ele>208.0</ele>
      </trkpt>
      <trkpt lat="41.129909" lon="-74.238585">
        <ele>207.7</ele>
      </trkpt>
      <trkpt lat="41.130168" lon="-74.238349">
        <ele>208.2</ele>
      </trkpt>
      <trkpt lat="41.130458" lon="-74.238074">
        <ele>209.2</ele>
      </trkpt>
      <trkpt lat="41.130572" lon="-74.238081">
        <ele>207.9</ele>
      </trkpt>
      <trkpt lat="41.130599" lon="-74.238137">
        <ele>206.8</ele>
      </trkpt>
      <trkpt lat="41.130573" lon="-74.238194">
        <ele>206.1</ele>
      </trkpt>
      <trkpt lat="41.130456" lon="-74.238248">
        <ele>206.2</ele>
      </trkpt>
      <trkpt lat="41.130423" lon="-74.23835">
        <ele>204.7</ele>
      </trkpt>
      <trkpt lat="41.130456" lon="-74.238403">
        <ele>203.5</ele>
      </trkpt>
      <trkpt lat="41.130588" lon="-74.238374">
        <ele>203.0</ele>
      </trkpt>
      <trkpt lat="41.130685" lon="-74.238295">
        <ele>203.6</ele>
      </trkpt>
      <trkpt lat="41.130825" lon="-74.238246">
        <ele>202.4</ele>
      </trkpt>
      <trkpt lat="41.130906" lon="-74.238284">
        <ele>200.7</ele>
      </trkpt>
      <trkpt lat="41.130964" lon="-74.238397">
        <ele>198.2</ele>
      </trkpt>
      <trkpt lat="41.131055" lon="-74.23838">
        <ele>198.0</ele>
      </trkpt>
      <trkpt lat="41.131196" lon="-74.238355">
        <ele>197.9</ele>
      </trkpt>
      <trkpt lat="41.131319" lon="-74.23833">
        <ele>198.1</ele>
      </trkpt>
      <trkpt lat="41.131362" lon="-74.238403">
        <ele>197.0</ele>
      </trkpt>
      <trkpt lat="41.131553" lon="-74.238442">
        <ele>196.2</ele>
      </trkpt>
      <trkpt lat="41.131629" lon="-74.238387">
        <ele>196.2</ele>
      </trkpt>
      <trkpt lat="41.131673" lon="-74.238445">
        <ele>195.0</ele>
      </trkpt>
      <trkpt lat="41.131645" lon="-74.238532">
        <ele>194.2</ele>
      </trkpt>
      <trkpt lat="41.131605" lon="-74.2386">
        <ele>193.6</ele>
      </trkpt>
      <trkpt lat="41.131407" lon="-74.238667">
        <ele>193.2</ele>
      </trkpt>
      <trkpt lat="41.131389" lon="-74.238727">
        <ele>192.3</ele>
      </trkpt>
      <trkpt lat="41.131435" lon="-74.238791">
        <ele>191.2</ele>
      </trkpt>
      <trkpt lat="41.131572" lon="-74.238864">
        <ele>189.4</ele>
      </trkpt>
      <trkpt lat="41.131726" lon="-74.238945">
        <ele>188.0</ele>
      </trkpt>
      <trkpt lat="41.13172" lon="-74.23902">
        <ele>186.6</ele>
      </trkpt>
      <trkpt lat="41.131653" lon="-74.239074">
        <ele>185.7</ele>
      </trkpt>
      <trkpt lat="41.131663" lon="-74.239128">
        <ele>184.7</ele>
      </trkpt>
      <trkpt lat="41.13175" lon="-74.239214">
        <ele>183.2</ele>
      </trkpt>
      <trkpt lat="41.13185" lon="-74.239242">
        <ele>182.5</ele>
      </trkpt>
      <trkpt lat="41.13199" lon="-74.239277">
        <ele>181.3</ele>
      </trkpt>
      <trkpt lat="41.132078" lon="-74.239244">
        <ele>181.6</ele>
      </trkpt>
      <trkpt lat="41.132189" lon="-74.23933">
        <ele>179.5</ele>
      </trkpt>
      <trkpt lat="41.132295" lon="-74.239373">
        <ele>178.3</ele>
      </trkpt>
      <trkpt lat="41.132319" lon="-74.239457">
        <ele>176.9</ele>
      </trkpt>
      <trkpt lat="41.132277" lon="-74.239538">
        <ele>175.4</ele>
      </trkpt>
      <trkpt lat="41.132054" lon="-74.239698">
        <ele>173.5</ele>
      </trkpt>
      <trkpt lat="41.131999" lon="-74.23982">
        <ele>171.7</ele>
      </trkpt>
      <trkpt lat="41.132027" lon="-74.239895">
        <ele>170.5</ele>
      </trkpt>
      <trkpt lat="41.132236" lon="-74.239921">
        <ele>169.0</ele>
      </trkpt>
      <trkpt lat="41.132332" lon="-74.239874">
        <ele>169.0</ele>
      </trkpt>
      <trkpt lat="41.13245" lon="-74.239821">
        <ele>168.8</ele>
      </trkpt>
      <trkpt lat="41.132532" lon="-74.239818">
        <ele>168.2</ele>
      </trkpt>
      <trkpt lat="41.132672" lon="-74.239778">
        <ele>167.7</ele>
      </trkpt>
      <trkpt lat="41.132761" lon="-74.239748">
        <ele>167.6</ele>
      </trkpt>
      <trkpt lat="41.132761" lon="-74.239793">
        <ele>166.6</ele>
      </trkpt>
      <trkpt lat="41.132686" lon="-74.239845">
        <ele>166.3</ele>
      </trkpt>
      <trkpt lat="41.132688" lon="-74.239848">
        <ele>166.2</ele>
      </trkpt>
      <trkpt lat="41.132685" lon="-74.23985">
        <ele>166.2</ele>
      </trkpt>
      <trkpt lat="41.132699" lon="-74.239884">
        <ele>165.4</ele>
      </trkpt>
      <trkpt lat="41.132786" lon="-74.239895">
        <ele>164.2</ele>
      </trkpt>
      <trkpt lat="41.132909" lon="-74.239823">
        <ele>164.5</ele>
      </trkpt>
      <trkpt lat="41.13308" lon="-74.239704">
        <ele>166.1</ele>
      </trkpt>
      <trkpt lat="41.133778" lon="-74.239133">
        <ele>168.3</ele>
      </trkpt>
      <trkpt lat="41.133919" lon="-74.238882">
        <ele>169.8</ele>
      </trkpt>
      <trkpt lat="41.13397" lon="-74.2387">
        <ele>170.8</ele>
      </trkpt>
      <trkpt lat="41.13402" lon="-74.238537">
        <ele>171.3</ele>
      </trkpt>
      <trkpt lat="41.134168" lon="-74.238079">
        <ele>171.8</ele>
      </trkpt>
      <trkpt lat="41.134304" lon="-74.237683">
        <ele>174.0</ele>
      </trkpt>
      <trkpt lat="41.134551" lon="-74.237212">
        <ele>176.5</ele>
      </trkpt>
      <trkpt lat="41.134742" lon="-74.236878">
        <ele>177.8</ele>
      </trkpt>
      <trkpt lat="41.135017" lon="-74.236567">
        <ele>180.3</ele>
      </trkpt>
      <trkpt lat="41.135353" lon="-74.236294">
        <ele>182.8</ele>
      </trkpt>
      <trkpt lat="41.135352" lon="-74.236296">
        <ele>182.7</ele>
      </trkpt>
      <trkpt lat="41.135412" lon="-74.236247">
        <ele>183.6</ele>
      </trkpt>
      <trkpt lat="41.135895" lon="-74.23602">
        <ele>184.9</ele>
      </trkpt>
      <trkpt lat="41.136066" lon="-74.235891">
        <ele>185.9</ele>
      </trkpt>
      <trkpt lat="41.136449" lon="-74.235532">
        <ele>187.0</ele>
      </trkpt>
      <trkpt lat="41.136518" lon="-74.235354">
        <ele>186.9</ele>
      </trkpt>
      <trkpt lat="41.136547" lon="-74.235094">
        <ele>188.1</ele>
      </trkpt>
      <trkpt lat="41.136496" lon="-74.234798">
        <ele>190.1</ele>
      </trkpt>
      <trkpt lat="41.13639" lon="-74.234615">
        <ele>190.5</ele>
      </trkpt>
      <trkpt lat="41.136214" lon="-74.234284">
        <ele>190.4</ele>
      </trkpt>
      <trkpt lat="41.136082" lon="-74.23404">
        <ele>192.0</ele>
      </trkpt>
      <trkpt lat="41.136057" lon="-74.233851">
        <ele>192.6</ele>
      </trkpt>
      <trkpt lat="41.136063" lon="-74.233661">
        <ele>192.9</ele>
      </trkpt>
      <trkpt lat="41.136146" lon="-74.23344">
        <ele>193.7</ele>
      </trkpt>
      <trkpt lat="41.136219" lon="-74.233106">
        <ele>194.2</ele>
      </trkpt>
      <trkpt lat="41.135997" lon="-74.233058">
        <ele>195.8</ele>
      </trkpt>
      <trkpt lat="41.135999" lon="-74.232972">
        <ele>195.8</ele>
      </trkpt>
      <trkpt lat="41.135993" lon="-74.232875">
        <ele>195.9</ele>
      </trkpt>
      <trkpt lat="41.13596" lon="-74.232539">
        <ele>196.2</ele>
      </trkpt>
      <trkpt lat="41.13596" lon="-74.232536">
        <ele>196.2</ele>
      </trkpt>
      <trkpt lat="41.135949" lon="-74.23242">
        <ele>196.3</ele>
      </trkpt>
      <trkpt lat="41.13649" lon="-74.232129">
        <ele>196.7</ele>
      </trkpt>
      <trkpt lat="41.136626" lon="-74.232056">
        <ele>197.6</ele>
      </trkpt>
      <trkpt lat="41.136668" lon="-74.232035">
        <ele>197.8</ele>
      </trkpt>
      <trkpt lat="41.136898" lon="-74.231919">
        <ele>198.3</ele>
      </trkpt>
      <trkpt lat="41.137015" lon="-74.231931">
        <ele>198.7</ele>
      </trkpt>
      <trkpt lat="41.137026" lon="-74.231882">
        <ele>198.6</ele>
      </trkpt>
      <trkpt lat="41.137039" lon="-74.231769">
        <ele>198.3</ele>
      </trkpt>
      <trkpt lat="41.137325" lon="-74.231736">
        <ele>198.5</ele>
      </trkpt>
      <trkpt lat="41.137378" lon="-74.231721">
        <ele>198.5</ele>
      </trkpt>
      <trkpt lat="41.137462" lon="-74.231653">
        <ele>198.4</ele>
      </trkpt>
      <trkpt lat="41.13749" lon="-74.231596">
        <ele>198.5</ele>
      </trkpt>
      <trkpt lat="41.137566" lon="-74.231644">
        <ele>198.7</ele>
      </trkpt>
      <trkpt lat="41.137663" lon="-74.23167">
        <ele>199.1</ele>
      </trkpt>
      <trkpt lat="41.138009" lon="-74.231721">
        <ele>201.0</ele>
      </trkpt>
      <trkpt lat="41.138059" lon="-74.231731">
        <ele>201.4</ele>
      </trkpt>
    </trkseg>
  </trk>
</gpx>