{"type":"FeatureCollection","features":[{"type":"Feature","properties":{"name":"Blue Loop","loop":"blue","color":"#1E66D0","nominal_miles":5.49,"distance_mi":5.49,"gain_ft":500,"loss_ft":575,"min_ele_ft":539,"max_ele_ft":789},"geometry":{"type":"LineString","coordinates":[[-74.231696,41.137836,200.0],[-74.231671,41.137664,199.1],[-74.231645,41.137567,198.7],[-74.231597,41.137491,198.5],[-74.231654,41.137463,198.4],[-74.231722,41.137379,198.5],[-74.231737,41.137326,198.5],[-74.23177,41.13704,198.3],[-74.231883,41.137027,198.6],[-74.231932,41.137016,198.7],[-74.23192,41.136899,198.3],[-74.232036,41.136669,197.8],[-74.232057,41.136627,197.6],[-74.23213,41.136491,196.7],[-74.232012,41.136376,195.9],[-74.232048,41.136241,195.0],[-74.232049,41.136148,194.9],[-74.232041,41.136054,194.8],[-74.231975,41.135867,194.6],[-74.231946,41.135648,195.2],[-74.231913,41.135571,195.3],[-74.231861,41.135535,195.3],[-74.231951,41.135511,195.7],[-74.231922,41.135484,195.7],[-74.231799,41.135375,196.0],[-74.231589,41.135268,196.3],[-74.231356,41.135229,195.8],[-74.231036,41.135246,197.6],[-74.230665,41.13539,197.2],[-74.23001,41.135624,197.5],[-74.229905,41.135653,197.6],[-74.229904,41.135652,197.6],[-74.229772,41.135688,198.4],[-74.229598,41.135704,198.4],[-74.229385,41.135647,198.2],[-74.229257,41.13557,197.9],[-74.229162,41.135476,198.1],[-74.228997,41.135321,200.0],[-74.228825,41.135219,200.6],[-74.228602,41.135161,199.6],[-74.228393,41.135121,199.5],[-74.227712,41.13508,200.7],[-74.22737,41.134963,200.5],[-74.227025,41.13464,200.9],[-74.226764,41.134467,201.8],[-74.22663,41.134413,202.1],[-74.226496,41.134418,202.0],[-74.226362,41.134452,201.7],[-74.22594,41.134623,203.7],[-74.225538,41.134778,203.3],[-74.225259,41.134829,203.5],[-74.225002,41.134839,204.2],[-74.224614,41.13481,204.3],[-74.224278,41.134709,203.7],[-74.224011,41.134608,203.9],[-74.223692,41.134558,205.4],[-74.223469,41.134589,205.4],[-74.2229,41.134799,206.8],[-74.22248,41.135036,208.4],[-74.22206,41.135316,207.2],[-74.221766,41.135423,207.2],[-74.22134,41.135522,209.1],[-74.221183,41.135599,210.7],[-74.221026,41.135722,211.4],[-74.220638,41.136142,212.1],[-74.220087,41.136311,219.6],[-74.219766,41.136346,224.6],[-74.219416,41.136306,228.9],[-74.219202,41.136235,231.7],[-74.218816,41.135983,232.0],[-74.218816,41.135984,232.0],[-74.218711,41.135915,232.5],[-74.218301,41.135599,234.7],[-74.217922,41.135284,233.3],[-74.217874,41.135047,232.7],[-74.217936,41.134605,230.7],[-74.21814,41.134374,233.2],[-74.218522,41.133968,239.6],[-74.218779,41.133621,238.3],[-74.219184,41.133406,240.5],[-74.219445,41.132746,237.6],[-74.219567,41.132267,230.3],[-74.219806,41.131834,223.7],[-74.220079,41.131378,221.8],[-74.220159,41.13115,219.5],[-74.22016,41.131148,219.5],[-74.220251,41.130885,216.3],[-74.220467,41.130527,212.9],[-74.22063,41.129999,208.3],[-74.220721,41.129598,204.6],[-74.220722,41.129226,203.0],[-74.220888,41.128442,198.4],[-74.221885,41.127533,199.7],[-74.222475,41.126934,198.6],[-74.222819,41.126516,198.2],[-74.222885,41.126356,198.6],[-74.222905,41.126235,198.9],[-74.222963,41.126171,199.2],[-74.22313,41.12611,200.7],[-74.223121,41.125954,200.7],[-74.223452,41.12552,204.3],[-74.223741,41.12489,206.9],[-74.223827,41.124601,208.9],[-74.223902,41.124348,209.1],[-74.223963,41.123857,210.4],[-74.22396,41.123583,210.5],[-74.22396,41.123584,210.5],[-74.22396,41.123552,210.5],[-74.223971,41.123128,210.9],[-74.223976,41.12296,210.9],[-74.224025,41.12256,210.2],[-74.224095,41.122347,209.6],[-74.224289,41.122126,208.8],[-74.224648,41.121992,209.1],[-74.224985,41.121901,207.7],[-74.22533,41.121802,209.0],[-74.227187,41.120174,200.2],[-74.227327,41.120052,199.3],[-74.227486,41.119777,198.6],[-74.227998,41.11907,198.5],[-74.228642,41.118553,196.1],[-74.22896,41.118205,196.1],[-74.22896,41.118204,196.1],[-74.229081,41.118072,196.1],[-74.229428,41.117544,194.7],[-74.229852,41.11708,194.5],[-74.230383,41.116621,191.4],[-74.230893,41.1162,191.2],[-74.231341,41.115815,189.1],[-74.231872,41.115212,189.1],[-74.231872,41.115212,189.1],[-74.231927,41.115149,189.0],[-74.232442,41.114657,190.1],[-74.232834,41.114424,189.9],[-74.233143,41.114081,191.4],[-74.233546,41.113708,191.3],[-74.233893,41.113434,189.7],[-74.233861,41.113369,189.1],[-74.233864,41.113368,189.1],[-74.233896,41.113433,189.7],[-74.234013,41.113625,192.9],[-74.234189,41.113946,199.1],[-74.234308,41.114015,201.4],[-74.234441,41.114047,203.0],[-74.23472,41.113986,204.7],[-74.234902,41.113948,205.9],[-74.235225,41.113912,207.7],[-74.235332,41.113903,208.7],[-74.235653,41.113867,212.3],[-74.236132,41.113824,216.5],[-74.236651,41.113803,219.9],[-74.236823,41.113824,220.3],[-74.236981,41.113898,219.5],[-74.237127,41.114051,216.3],[-74.237245,41.114324,213.3],[-74.237116,41.11488,213.4],[-74.237112,41.11488,213.5],[-74.237085,41.114998,213.2],[-74.236849,41.115511,214.8],[-74.236704,41.115893,215.9],[-74.236536,41.116416,216.4],[-74.236521,41.116741,214.3],[-74.2363,41.117449,208.7],[-74.235988,41.117837,205.7],[-74.235937,41.118044,202.7],[-74.234978,41.118658,202.3],[-74.234853,41.11893,201.8],[-74.234791,41.119337,200.2],[-74.234792,41.11934,200.2],[-74.234763,41.119528,199.9],[-74.234741,41.120493,195.3],[-74.234676,41.120689,194.2],[-74.234198,41.120788,195.2],[-74.234032,41.120852,195.8],[-74.233743,41.121019,197.2],[-74.23357,41.121242,196.5],[-74.23351,41.121491,196.5],[-74.233512,41.121511,196.4],[-74.233512,41.121512,196.4],[-74.233544,41.121835,196.6],[-74.233623,41.12211,196.0],[-74.23377,41.122548,196.4],[-74.233856,41.122697,194.8],[-74.233905,41.122974,193.9],[-74.233905,41.123045,193.9],[-74.233855,41.123211,194.5],[-74.233766,41.123486,194.3],[-74.233703,41.123676,194.0],[-74.233598,41.124063,194.4],[-74.233538,41.124392,195.4],[-74.233489,41.124582,194.9],[-74.233473,41.124664,195.3],[-74.23348,41.124758,195.6],[-74.233491,41.124904,196.5],[-74.233513,41.124945,196.9],[-74.233512,41.124944,196.9],[-74.233753,41.125406,202.3],[-74.233793,41.125564,205.0],[-74.233996,41.125866,209.2],[-74.234185,41.126145,211.5],[-74.234308,41.12664,221.1],[-74.234346,41.126708,222.4],[-74.234466,41.126784,223.5],[-74.234639,41.126839,224.9],[-74.234787,41.126994,229.0],[-74.234849,41.126972,228.7],[-74.234911,41.126958,228.5],[-74.234967,41.126947,228.4],[-74.235023,41.126945,228.1],[-74.235088,41.126947,227.0],[-74.235147,41.126955,226.1],[-74.235208,41.126974,225.5],[-74.235262,41.126994,225.0],[-74.235308,41.127018,225.0],[-74.235356,41.127049,225.3],[-74.235407,41.127069,225.2],[-74.235455,41.127089,225.2],[-74.235506,41.127109,225.1],[-74.235568,41.127133,224.8],[-74.235613,41.127158,224.6],[-74.235664,41.127184,224.2],[-74.235715,41.127208,223.8],[-74.235763,41.127236,223.6],[-74.235809,41.127261,223.3],[-74.235855,41.127289,223.1],[-74.235898,41.127319,222.9],[-74.235949,41.127341,222.5],[-74.235997,41.127364,222.1],[-74.236053,41.127392,222.0],[-74.236104,41.127412,221.6],[-74.236158,41.12742,220.9],[-74.236228,41.12743,220.0],[-74.236284,41.127438,219.2],[-74.236343,41.127442,218.3],[-74.236399,41.127446,217.4],[-74.236461,41.127459,216.7],[-74.23652,41.127459,215.8],[-74.236852,41.127493,213.6],[-74.236885,41.127493,213.6],[-74.236921,41.127493,213.5],[-74.236962,41.127493,213.5],[-74.236993,41.127493,213.5],[-74.237031,41.127489,213.5],[-74.237063,41.127482,213.4],[-74.237148,41.127529,213.6],[-74.237212,41.127586,213.8],[-74.237221,41.127594,213.8],[-74.237295,41.127632,214.0],[-74.237343,41.127657,214.2],[-74.237413,41.127703,214.8],[-74.237459,41.127729,215.0],[-74.23751,41.127783,215.5],[-74.23761,41.127926,216.3],[-74.237608,41.127924,216.3],[-74.23769,41.128042,217.0],[-74.237714,41.128174,218.2],[-74.237858,41.128309,218.3],[-74.238001,41.128443,217.6],[-74.238106,41.128524,216.8],[-74.238458,41.128784,213.9],[-74.238546,41.128905,213.2],[-74.238545,41.129097,213.8],[-74.238567,41.129183,213.3],[-74.238557,41.129285,213.2],[-74.238598,41.129332,212.2],[-74.238698,41.129344,210.9],[-74.238743,41.129305,210.6],[-74.238789,41.129211,210.2],[-74.238866,41.129178,209.3],[-74.238943,41.129199,208.3],[-74.23897,41.129283,207.9],[-74.238768,41.129634,208.0],[-74.238585,41.129909,207.7],[-74.238349,41.130168,208.2],[-74.238074,41.130458,209.2],[-74.238081,41.130572,207.9],[-74.238137,41.130599,206.8],[-74.238194,41.130573,206.1],[-74.238248,41.130456,206.2],[-74.23835,41.130423,204.7],[-74.238403,41.130456,203.5],[-74.238374,41.130588,203.0],[-74.238295,41.130685,203.6],[-74.238246,41.130825,202.4],[-74.238284,41.130906,200.7],[-74.238397,41.130964,198.2],[-74.23838,41.131055,198.0],[-74.238355,41.131196,197.9],[-74.23833,41.131319,198.1],[-74.238403,41.131362,197.0],[-74.238442,41.131553,196.2],[-74.238387,41.131629,196.2],[-74.238445,41.131673,195.0],[-74.238532,41.131645,194.2],[-74.2386,41.131605,193.6],[-74.238667,41.131407,193.2],[-74.238727,41.131389,192.3],[-74.238791,41.131435,191.2],[-74.238864,41.131572,189.4],[-74.238945,41.131726,188.0],[-74.23902,41.13172,186.6],[-74.239074,41.131653,185.7],[-74.239128,41.131663,184.7],[-74.239214,41.13175,183.2],[-74.239242,41.13185,182.5],[-74.239277,41.13199,181.3],[-74.239244,41.132078,181.6],[-74.23933,41.132189,179.5],[-74.239373,41.132295,178.3],[-74.239457,41.132319,176.9],[-74.239538,41.132277,175.4],[-74.239698,41.132054,173.5],[-74.23982,41.131999,171.7],[-74.239895,41.132027,170.5],[-74.239921,41.132236,169.0],[-74.239874,41.132332,169.0],[-74.239821,41.13245,168.8],[-74.239818,41.132532,168.2],[-74.239778,41.132672,167.7],[-74.239748,41.132761,167.6],[-74.239793,41.132761,166.6],[-74.239845,41.132686,166.3],[-74.239848,41.132688,166.2],[-74.23985,41.132685,166.2],[-74.239884,41.132699,165.4],[-74.239895,41.132786,164.2],[-74.239823,41.132909,164.5],[-74.239704,41.13308,166.1],[-74.239133,41.133778,168.3],[-74.238882,41.133919,169.8],[-74.2387,41.13397,170.8],[-74.238537,41.13402,171.3],[-74.238079,41.134168,171.8],[-74.237683,41.134304,174.0],[-74.237212,41.134551,176.5],[-74.236878,41.134742,177.8],[-74.236567,41.135017,180.3],[-74.236294,41.135353,182.8],[-74.236296,41.135352,182.7],[-74.236247,41.135412,183.6],[-74.23602,41.135895,184.9],[-74.235891,41.136066,185.9],[-74.235532,41.136449,187.0],[-74.235354,41.136518,186.9],[-74.235094,41.136547,188.1],[-74.234798,41.136496,190.1],[-74.234615,41.13639,190.5],[-74.234284,41.136214,190.4],[-74.23404,41.136082,192.0],[-74.233851,41.136057,192.6],[-74.233661,41.136063,192.9],[-74.23344,41.136146,193.7],[-74.233106,41.136219,194.2],[-74.233058,41.135997,195.8],[-74.232972,41.135999,195.8],[-74.232875,41.135993,195.9],[-74.232539,41.13596,196.2],[-74.232536,41.13596,196.2],[-74.23242,41.135949,196.3],[-74.232129,41.13649,196.7],[-74.232056,41.136626,197.6],[-74.232035,41.136668,197.8],[-74.231919,41.136898,198.3],[-74.231931,41.137015,198.7],[-74.231882,41.137026,198.6],[-74.231769,41.137039,198.3],[-74.231736,41.137325,198.5],[-74.231721,41.137378,198.5],[-74.231653,41.137462,198.4],[-74.231596,41.13749,198.5],[-74.231644,41.137566,198.7],[-74.23167,41.137663,199.1],[-74.231721,41.138009,201.0],[-74.231731,41.138059,201.4]]}}]}