{"type": "FeatureCollection", "features": [{"type": "Feature", "geometry": {"type": "Point", "coordinates": [-74.429383, 41.190633]}, "properties": {"id": "turn_000", "course_mi": 0.02, "ele_m": 350.73046875, "direction": "right", "intensity": "normal", "label": "Wawayanda Lake Loop Trail", "label_type": "trail", "section": "Start \u2192 Finish", "snap_method": "geometry_only", "context": "", "jurisdiction": "", "jurisdiction_unit": ""}}, {"type": "Feature", "geometry": {"type": "Point", "coordinates": [-74.431755, 41.192205]}, "properties": {"id": "turn_001", "course_mi": 0.37, "ele_m": 368.3046875, "direction": "left", "intensity": "normal", "label": "Wawayanda Lake Loop Trail", "label_type": "trail", "section": "Start \u2192 Finish", "snap_method": "geometry_only", "context": "", "jurisdiction": "", "jurisdiction_unit": ""}}, {"type": "Feature", "geometry": {"type": "Point", "coordinates": [-74.431686, 41.191722]}, "properties": {"id": "turn_002", "course_mi": 0.42, "ele_m": 367.83984375, "direction": "right", "intensity": "normal", "label": "Wawayanda Lake Loop Trail", "label_type": "trail", "section": "Start \u2192 Finish", "snap_method": "geometry_only", "context": "", "jurisdiction": "", "jurisdiction_unit": ""}}, {"type": "Feature", "geometry": {"type": "Point", "coordinates": [-74.438589, 41.187483]}, "properties": {"id": "turn_003", "course_mi": 0.91, "ele_m": 370.4921875, "direction": "right", "intensity": "normal", "label": "Wawayanda Lake Loop", "label_type": "trail", "section": "Start \u2192 Finish", "snap_method": "geometry_only", "context": "", "jurisdiction": "", "jurisdiction_unit": ""}}, {"type": "Feature", "geometry": {"type": "Point", "coordinates": [-74.43951, 41.187711]}, "properties": {"id": "turn_004", "course_mi": 0.97, "ele_m": 379.0625, "direction": "left", "intensity": "normal", "label": "Wawayanda Lake Loop", "label_type": "trail", "section": "Start \u2192 Finish", "snap_method": "geometry_only", "context": "", "jurisdiction": "", "jurisdiction_unit": ""}}, {"type": "Feature", "geometry": {"type": "Point", "coordinates": [-74.441308, 41.1846]}, "properties": {"id": "turn_005", "course_mi": 1.22, "ele_m": 362.63671875, "direction": "left", "intensity": "normal", "label": "Wawayanda Rd/Lake Loop Connector", "label_type": "trail", "section": "Start \u2192 Finish", "snap_method": "geometry_only", "context": "", "jurisdiction": "", "jurisdiction_unit": ""}}, {"type": "Feature", "geometry": {"type": "Point", "coordinates": [-74.428748, 41.190044]}, "properties": {"id": "turn_006", "course_mi": 6.23, "ele_m": 351.7109375, "direction": "left", "intensity": "normal", "label": "Wawayanda Lake Loop Trail", "label_type": "trail", "section": "Start \u2192 Finish", "snap_method": "geometry_only", "context": "", "jurisdiction": "", "jurisdiction_unit": ""}}]}