{"type": "FeatureCollection", "features": [{"type": "Feature", "geometry": {"type": "Point", "coordinates": [-74.232213, 41.136401]}, "properties": {"id": "turn_000", "course_mi": 0.13, "ele_m": 194.0, "direction": "right", "intensity": "normal", "label": "", "label_type": "", "section": "Start \u2192 Finish", "snap_method": "geometry_only", "context": "", "jurisdiction": "", "jurisdiction_unit": ""}}, {"type": "Feature", "geometry": {"type": "Point", "coordinates": [-74.234087, 41.136066]}, "properties": {"id": "turn_001", "course_mi": 0.24, "ele_m": 195.0, "direction": "right", "intensity": "normal", "label": "Ringwood-Ramapo Trail", "label_type": "trail", "section": "Start \u2192 Finish", "snap_method": "geometry_only", "context": "", "jurisdiction": "", "jurisdiction_unit": ""}}, {"type": "Feature", "geometry": {"type": "Point", "coordinates": [-74.235477, 41.136669]}, "properties": {"id": "turn_002", "course_mi": 0.34, "ele_m": 186.0, "direction": "left", "intensity": "normal", "label": "Shepard Pond Trail", "label_type": "trail", "section": "Start \u2192 Finish", "snap_method": "geometry_only", "context": "", "jurisdiction": "", "jurisdiction_unit": ""}}, {"type": "Feature", "geometry": {"type": "Point", "coordinates": [-74.237271, 41.13583]}, "properties": {"id": "turn_003", "course_mi": 0.48, "ele_m": 164.0, "direction": "right", "intensity": "normal", "label": "Alligator", "label_type": "trail", "section": "Start \u2192 Finish", "snap_method": "geometry_only", "context": "", "jurisdiction": "", "jurisdiction_unit": ""}}, {"type": "Feature", "geometry": {"type": "Point", "coordinates": [-74.238101, 41.136096]}, "properties": {"id": "turn_004", "course_mi": 0.54, "ele_m": 156.0, "direction": "left", "intensity": "normal", "label": "Alligator", "label_type": "trail", "section": "Start \u2192 Finish", "snap_method": "geometry_only", "context": "", "jurisdiction": "", "jurisdiction_unit": ""}}, {"type": "Feature", "geometry": {"type": "Point", "coordinates": [-74.242993, 41.135833]}, "properties": {"id": "turn_005", "course_mi": 0.88, "ele_m": 151.0, "direction": "left", "intensity": "normal", "label": "Crossover Trail", "label_type": "trail", "section": "Start \u2192 Finish", "snap_method": "geometry_only", "context": "", "jurisdiction": "", "jurisdiction_unit": ""}}, {"type": "Feature", "geometry": {"type": "Point", "coordinates": [-74.243404, 41.134785]}, "properties": {"id": "turn_006", "course_mi": 0.97, "ele_m": 152.0, "direction": "right", "intensity": "normal", "label": "Crossover Trail", "label_type": "trail", "section": "Start \u2192 Finish", "snap_method": "geometry_only", "context": "", "jurisdiction": "", "jurisdiction_unit": ""}}, {"type": "Feature", "geometry": {"type": "Point", "coordinates": [-74.244084, 41.134674]}, "properties": {"id": "turn_007", "course_mi": 1.03, "ele_m": 159.0, "direction": "left", "intensity": "normal", "label": "Crossover Trail", "label_type": "trail", "section": "Start \u2192 Finish", "snap_method": "geometry_only", "context": "", "jurisdiction": "", "jurisdiction_unit": ""}}, {"type": "Feature", "geometry": {"type": "Point", "coordinates": [-74.244899, 41.13353]}, "properties": {"id": "turn_008", "course_mi": 1.14, "ele_m": 154.0, "direction": "right", "intensity": "sharp", "label": "Crossover Trail", "label_type": "trail", "section": "Start \u2192 Finish", "snap_method": "geometry_only", "context": "", "jurisdiction": "", "jurisdiction_unit": ""}}, {"type": "Feature", "geometry": {"type": "Point", "coordinates": [-74.248449, 41.135226]}, "properties": {"id": "turn_009", "course_mi": 1.39, "ele_m": 156.0, "direction": "left", "intensity": "normal", "label": "Crossover Trail", "label_type": "trail", "section": "Start \u2192 Finish", "snap_method": "geometry_only", "context": "", "jurisdiction": "", "jurisdiction_unit": ""}}, {"type": "Feature", "geometry": {"type": "Point", "coordinates": [-74.248955, 41.135365]}, "properties": {"id": "turn_010", "course_mi": 1.45, "ele_m": 149.0, "direction": "right", "intensity": "sharp", "label": "Crossover Trail", "label_type": "trail", "section": "Start \u2192 Finish", "snap_method": "geometry_only", "context": "", "jurisdiction": "", "jurisdiction_unit": ""}}, {"type": "Feature", "geometry": {"type": "Point", "coordinates": [-74.242834, 41.145223]}, "properties": {"id": "turn_011", "course_mi": 2.32, "ele_m": 141.0, "direction": "left", "intensity": "normal", "label": "Cooper Union Trail", "label_type": "trail", "section": "Start \u2192 Finish", "snap_method": "geometry_only", "context": "", "jurisdiction": "", "jurisdiction_unit": ""}}, {"type": "Feature", "geometry": {"type": "Point", "coordinates": [-74.24259, 41.145519]}, "properties": {"id": "turn_012", "course_mi": 2.38, "ele_m": 136.0, "direction": "right", "intensity": "sharp", "label": "Cooper Union Trail", "label_type": "trail", "section": "Start \u2192 Finish", "snap_method": "geometry_only", "context": "", "jurisdiction": "", "jurisdiction_unit": ""}}, {"type": "Feature", "geometry": {"type": "Point", "coordinates": [-74.241273, 41.145172]}, "properties": {"id": "turn_013", "course_mi": 2.46, "ele_m": 149.0, "direction": "right", "intensity": "sharp", "label": "Cooper Union Trail", "label_type": "trail", "section": "Start \u2192 Finish", "snap_method": "geometry_only", "context": "", "jurisdiction": "", "jurisdiction_unit": ""}}, {"type": "Feature", "geometry": {"type": "Point", "coordinates": [-74.242339, 41.145012]}, "properties": {"id": "turn_014", "course_mi": 2.52, "ele_m": 152.0, "direction": "left", "intensity": "normal", "label": "Cooper Union Trail", "label_type": "trail", "section": "Start \u2192 Finish", "snap_method": "geometry_only", "context": "", "jurisdiction": "", "jurisdiction_unit": ""}}, {"type": "Feature", "geometry": {"type": "Point", "coordinates": [-74.244551, 41.14247]}, "properties": {"id": "turn_015", "course_mi": 2.76, "ele_m": 183.0, "direction": "left", "intensity": "sharp", "label": "Cooper Union Trail", "label_type": "trail", "section": "Start \u2192 Finish", "snap_method": "geometry_only", "context": "", "jurisdiction": "", "jurisdiction_unit": ""}}, {"type": "Feature", "geometry": {"type": "Point", "coordinates": [-74.243076, 41.143239]}, "properties": {"id": "turn_016", "course_mi": 2.85, "ele_m": 189.0, "direction": "right", "intensity": "normal", "label": "Cooper Union Trail", "label_type": "trail", "section": "Start \u2192 Finish", "snap_method": "geometry_only", "context": "", "jurisdiction": "", "jurisdiction_unit": ""}}, {"type": "Feature", "geometry": {"type": "Point", "coordinates": [-74.242795, 41.14287]}, "properties": {"id": "turn_017", "course_mi": 2.93, "ele_m": 202.0, "direction": "right", "intensity": "normal", "label": "Cooper Union Trail", "label_type": "trail", "section": "Start \u2192 Finish", "snap_method": "geometry_only", "context": "", "jurisdiction": "", "jurisdiction_unit": ""}}, {"type": "Feature", "geometry": {"type": "Point", "coordinates": [-74.246802, 41.134948]}, "properties": {"id": "turn_018", "course_mi": 3.64, "ele_m": 164.0, "direction": "left", "intensity": "sharp", "label": "Cooper Union Trail", "label_type": "trail", "section": "Start \u2192 Finish", "snap_method": "geometry_only", "context": "", "jurisdiction": "", "jurisdiction_unit": ""}}, {"type": "Feature", "geometry": {"type": "Point", "coordinates": [-74.238991, 41.135586]}, "properties": {"id": "turn_019", "course_mi": 4.16, "ele_m": 158.0, "direction": "right", "intensity": "normal", "label": "Crossover Trail", "label_type": "trail", "section": "Start \u2192 Finish", "snap_method": "geometry_only", "context": "", "jurisdiction": "", "jurisdiction_unit": ""}}, {"type": "Feature", "geometry": {"type": "Point", "coordinates": [-74.238378, 41.134104]}, "properties": {"id": "turn_020", "course_mi": 4.35, "ele_m": 172.0, "direction": "left", "intensity": "sharp", "label": "Crossover Trail", "label_type": "trail", "section": "Start \u2192 Finish", "snap_method": "geometry_only", "context": "", "jurisdiction": "", "jurisdiction_unit": ""}}, {"type": "Feature", "geometry": {"type": "Point", "coordinates": [-74.232216, 41.136455]}, "properties": {"id": "turn_021", "course_mi": 4.8, "ele_m": 196.0, "direction": "left", "intensity": "normal", "label": "", "label_type": "", "section": "Start \u2192 Finish", "snap_method": "geometry_only", "context": "", "jurisdiction": "", "jurisdiction_unit": ""}}]}