{"type":"FeatureCollection","features":[{"type":"Feature","properties":{"name":"Pink Loop","loop":"pink","color":"#E7338C","nominal_miles":7.8,"distance_mi":7.8,"gain_ft":700,"loss_ft":800,"min_ele_ft":514,"max_ele_ft":789},"geometry":{"type":"LineString","coordinates":[[-74.231717,41.138099,204.8],[-74.231739,41.138096,204.8],[-74.231722,41.138009,204.6],[-74.231671,41.137663,203.2],[-74.231645,41.137566,203.0],[-74.231597,41.13749,202.6],[-74.231654,41.137462,202.6],[-74.231722,41.137378,202.8],[-74.231737,41.137325,202.6],[-74.23177,41.137039,202.0],[-74.231883,41.137026,202.6],[-74.231932,41.137015,202.6],[-74.23192,41.136898,202.2],[-74.232036,41.136668,201.2],[-74.232057,41.136626,200.2],[-74.23213,41.13649,195.6],[-74.232012,41.136375,193.6],[-74.232048,41.13624,193.8],[-74.232049,41.136147,194.4],[-74.232041,41.136053,195.8],[-74.231975,41.135866,195.6],[-74.231946,41.135647,194.6],[-74.231913,41.13557,195.0],[-74.231861,41.135534,194.6],[-74.231951,41.13551,195.6],[-74.231922,41.135483,196.6],[-74.231799,41.135374,197.0],[-74.231589,41.135267,198.0],[-74.231356,41.135228,197.4],[-74.231036,41.135245,197.6],[-74.230665,41.135389,196.8],[-74.23001,41.135623,195.6],[-74.229773,41.135688,196.4],[-74.229599,41.135704,199.2],[-74.229386,41.135647,201.2],[-74.229258,41.13557,202.0],[-74.229163,41.135476,203.8],[-74.228998,41.135321,204.6],[-74.228826,41.135219,205.2],[-74.228603,41.135161,204.4],[-74.228394,41.135121,203.6],[-74.227713,41.13508,202.8],[-74.227371,41.134963,203.2],[-74.227026,41.13464,204.2],[-74.226765,41.134467,204.0],[-74.226631,41.134413,204.4],[-74.226497,41.134418,204.4],[-74.226363,41.134452,203.4],[-74.225941,41.134623,205.0],[-74.225539,41.134778,204.2],[-74.22526,41.134829,204.8],[-74.225003,41.134839,205.0],[-74.224615,41.13481,204.8],[-74.224279,41.134709,205.4],[-74.224012,41.134608,205.0],[-74.223693,41.134558,205.4],[-74.22347,41.134589,204.2],[-74.222901,41.134799,203.8],[-74.222481,41.135036,204.4],[-74.222061,41.135316,204.8],[-74.221767,41.135423,206.8],[-74.221341,41.135522,209.6],[-74.221184,41.135599,210.4],[-74.221027,41.135722,210.8],[-74.220639,41.136142,209.4],[-74.220088,41.136311,218.6],[-74.220088,41.136311,218.6],[-74.220088,41.136311,218.6],[-74.219863,41.136336,221.2],[-74.219863,41.136336,221.2],[-74.219863,41.136336,223.2],[-74.219767,41.136346,224.6],[-74.219417,41.136306,228.9],[-74.219203,41.136235,231.7],[-74.218712,41.135914,232.6],[-74.218302,41.135598,234.7],[-74.217923,41.135283,233.3],[-74.217875,41.135046,232.7],[-74.217937,41.134604,230.7],[-74.218141,41.134373,233.2],[-74.218523,41.133967,239.7],[-74.21878,41.13362,238.3],[-74.219185,41.133405,240.6],[-74.219446,41.132745,237.6],[-74.219446,41.132745,237.6],[-74.219446,41.132745,237.6],[-74.219552,41.132328,232.0],[-74.219552,41.132328,232.0],[-74.219552,41.132328,235.4],[-74.219568,41.132266,233.2],[-74.219807,41.131833,225.6],[-74.22008,41.131377,221.0],[-74.220251,41.130886,216.0],[-74.220467,41.130528,214.4],[-74.22063,41.13,210.4],[-74.220721,41.129599,204.8],[-74.220722,41.129227,203.4],[-74.220888,41.128443,199.4],[-74.221885,41.127534,198.6],[-74.222475,41.126935,198.8],[-74.222819,41.126517,198.8],[-74.222885,41.126357,199.0],[-74.222905,41.126236,199.0],[-74.222963,41.126172,200.0],[-74.22313,41.126111,202.4],[-74.223121,41.125955,202.8],[-74.223452,41.125521,207.8],[-74.223741,41.124891,210.2],[-74.223827,41.124602,212.0],[-74.223902,41.124349,212.6],[-74.223963,41.123858,211.6],[-74.22396,41.123552,211.0],[-74.22396,41.123552,211.0],[-74.22396,41.123552,211.0],[-74.223967,41.123299,211.4],[-74.223967,41.123299,211.4],[-74.223967,41.123299,211.4],[-74.223971,41.123128,211.4],[-74.223976,41.12296,211.4],[-74.224025,41.12256,210.6],[-74.224095,41.122347,210.6],[-74.224289,41.122126,208.4],[-74.224648,41.121992,208.2],[-74.224985,41.121901,208.2],[-74.22533,41.121802,208.8],[-74.227187,41.120174,199.6],[-74.2271,41.120111,199.0],[-74.22686,41.11992,198.2],[-74.226799,41.119845,198.4],[-74.226756,41.119724,198.4],[-74.226747,41.119443,199.2],[-74.226873,41.119137,200.4],[-74.226943,41.119008,201.6],[-74.22698,41.118931,202.2],[-74.22705,41.118806,202.2],[-74.227085,41.118724,202.4],[-74.227085,41.118724,202.4],[-74.227085,41.118724,202.4],[-74.227089,41.118725,203.6],[-74.227089,41.118725,203.6],[-74.227089,41.118725,203.6],[-74.227204,41.118457,203.5],[-74.227236,41.118372,204.0],[-74.227252,41.118328,204.2],[-74.227279,41.118195,205.0],[-74.227285,41.118146,205.3],[-74.227459,41.117626,206.9],[-74.227767,41.117128,208.8],[-74.227816,41.117055,209.3],[-74.227864,41.116974,210.3],[-74.227902,41.116889,211.1],[-74.227939,41.116796,211.8],[-74.227971,41.116711,212.2],[-74.227998,41.116623,212.6],[-74.228009,41.116542,213.0],[-74.228057,41.116267,212.9],[-74.228095,41.11619,213.3],[-74.228138,41.116109,213.8],[-74.228181,41.116032,214.4],[-74.228272,41.115543,218.1],[-74.228299,41.115442,218.3],[-74.22832,41.115321,219.6],[-74.228427,41.114852,223.1],[-74.228438,41.114771,223.7],[-74.228449,41.114687,224.2],[-74.228459,41.114606,224.7],[-74.228481,41.114525,225.1],[-74.228513,41.114444,225.6],[-74.228567,41.114343,226.2],[-74.228604,41.114266,227.0],[-74.228647,41.114185,227.8],[-74.228704,41.114128,227.7],[-74.228704,41.114128,227.7],[-74.228704,41.114128,227.7],[-74.228703,41.114129,227.7],[-74.228703,41.114129,227.7],[-74.228703,41.114129,227.7],[-74.228764,41.114069,227.7],[-74.229226,41.113605,232.7],[-74.229495,41.113619,228.6],[-74.229899,41.113561,226.8],[-74.231003,41.113327,221.2],[-74.231201,41.113249,220.7],[-74.231421,41.113084,219.8],[-74.232425,41.11228,212.1],[-74.232857,41.111983,211.8],[-74.233032,41.111827,210.5],[-74.233706,41.111019,208.8],[-74.23399,41.110721,205.8],[-74.234031,41.110612,204.9],[-74.23402,41.109909,204.2],[-74.234019,41.109753,203.1],[-74.234049,41.109587,201.3],[-74.233991,41.109541,201.4],[-74.233943,41.10946,201.1],[-74.233795,41.109444,202.0],[-74.233636,41.109503,203.7],[-74.23362,41.109556,204.5],[-74.233639,41.109649,205.9],[-74.233602,41.109729,207.7],[-74.233521,41.109809,209.4],[-74.233402,41.109826,210.2],[-74.233305,41.109749,209.8],[-74.233237,41.109646,209.0],[-74.233032,41.109511,209.3],[-74.232935,41.109486,209.2],[-74.232691,41.109317,206.9],[-74.232569,41.109443,208.6],[-74.232473,41.10949,209.3],[-74.232243,41.109512,209.7],[-74.231922,41.109457,212.0],[-74.231727,41.109312,212.0],[-74.231543,41.109099,217.4],[-74.231683,41.108808,218.3],[-74.231752,41.108664,217.3],[-74.231752,41.108664,217.3],[-74.231752,41.108664,217.3],[-74.231748,41.108663,217.4],[-74.231748,41.108663,217.4],[-74.231748,41.108663,217.4],[-74.231749,41.108663,218.4],[-74.231959,41.108226,225.0],[-74.232109,41.107997,229.4],[-74.232363,41.107648,232.4],[-74.232463,41.107494,233.6],[-74.232509,41.107288,234.4],[-74.232584,41.107069,235.2],[-74.232564,41.107003,235.6],[-74.232438,41.106902,236.2],[-74.23229,41.106765,237.2],[-74.232257,41.106753,237.2],[-74.232409,41.106671,235.8],[-74.232447,41.106642,235.6],[-74.232484,41.10661,234.8],[-74.232527,41.106582,234.8],[-74.232573,41.106558,234.2],[-74.232613,41.106531,234.2],[-74.232661,41.106495,233.8],[-74.232699,41.106465,233.8],[-74.232736,41.106436,233.6],[-74.232774,41.106402,233.6],[-74.232913,41.106127,233.2],[-74.233066,41.105816,233.0],[-74.233066,41.105816,233.0],[-74.233066,41.105816,233.0],[-74.233094,41.105768,233.0],[-74.233094,41.105768,233.0],[-74.233094,41.105768,233.0],[-74.233224,41.105543,232.6],[-74.233321,41.105375,232.4],[-74.233372,41.105286,232.4],[-74.23342,41.105205,232.8],[-74.233564,41.105027,232.4],[-74.23368,41.10492,232.4],[-74.233779,41.104866,232.4],[-74.233938,41.104821,232.6],[-74.234131,41.104818,233.4],[-74.234223,41.104821,233.8],[-74.234415,41.104805,234.2],[-74.234474,41.104797,234.4],[-74.234619,41.104725,235.0],[-74.234705,41.104668,235.2],[-74.234769,41.104599,235.4],[-74.234834,41.10453,235.4],[-74.234898,41.10445,235.2],[-74.234946,41.104369,236.0],[-74.234946,41.104369,236.0],[-74.234946,41.104369,236.0],[-74.234989,41.104288,236.0],[-74.234989,41.104288,236.0],[-74.234989,41.104288,236.0],[-74.234989,41.104288,236.0],[-74.234989,41.104288,236.0],[-74.234992,41.104288,236.2],[-74.234992,41.104288,236.2],[-74.235134,41.104031,237.5],[-74.235134,41.104031,237.5],[-74.235175,41.104056,236.9],[-74.235338,41.104165,235.1],[-74.235394,41.104258,234.1],[-74.235344,41.104349,233.8],[-74.235273,41.104423,233.8],[-74.235205,41.104499,233.5],[-74.235146,41.10459,233.3],[-74.235086,41.104721,231.9],[-74.235033,41.104834,230.9],[-74.234993,41.104946,229.8],[-74.234934,41.105043,228.9],[-74.234857,41.105096,228.6],[-74.234667,41.105267,227.4],[-74.234627,41.105396,225.7],[-74.234584,41.105503,224.4],[-74.234482,41.105621,223.2],[-74.234357,41.105696,223.9],[-74.234251,41.105872,222.3],[-74.234208,41.105976,220.5],[-74.234216,41.105997,220.0],[-74.234165,41.106053,219.6],[-74.234107,41.106187,218.4],[-74.234074,41.106259,217.8],[-74.233967,41.106407,217.1],[-74.233923,41.106483,216.3],[-74.233814,41.106619,216.1],[-74.233756,41.106718,214.9],[-74.233623,41.106944,212.3],[-74.233563,41.107016,212.4],[-74.233508,41.10714,211.8],[-74.233461,41.107207,211.7],[-74.233421,41.107265,211.5],[-74.233406,41.107363,209.9],[-74.23339,41.107597,206.8],[-74.23341,41.107703,205.4],[-74.233416,41.10784,204.4],[-74.233407,41.107931,203.8],[-74.233432,41.108019,202.5],[-74.23345,41.108036,202.0],[-74.233474,41.108049,201.5],[-74.23344,41.108103,201.5],[-74.233424,41.108142,201.3],[-74.233418,41.108338,199.5],[-74.233431,41.108477,198.3],[-74.233465,41.10858,198.1],[-74.233526,41.108684,197.6],[-74.233601,41.108825,197.6],[-74.233712,41.108881,196.7],[-74.233811,41.108888,195.5],[-74.23433,41.108809,192.7],[-74.234485,41.108757,191.7],[-74.234524,41.108702,190.8],[-74.234524,41.108702,190.8],[-74.23452,41.108704,190.9],[-74.234554,41.108655,190.1],[-74.234575,41.108607,189.5],[-74.2347,41.108312,186.3],[-74.234945,41.107996,184.7],[-74.235026,41.10794,184.3],[-74.235101,41.107879,183.7],[-74.235176,41.107811,183.2],[-74.23524,41.107738,182.7],[-74.235518,41.107406,181.9],[-74.235597,41.107325,181.9],[-74.236066,41.107061,180.2],[-74.236378,41.106942,180.9],[-74.236382,41.106941,180.9],[-74.236382,41.106938,180.9],[-74.236416,41.106928,180.4],[-74.236416,41.106928,180.4],[-74.236416,41.106928,180.4],[-74.236413,41.106932,180.5],[-74.236481,41.106913,179.5],[-74.236593,41.106897,178.3],[-74.236701,41.106901,177.4],[-74.236803,41.106913,176.4],[-74.23691,41.106934,175.4],[-74.237017,41.106954,174.6],[-74.23713,41.10697,174.1],[-74.237242,41.10697,173.5],[-74.237355,41.106974,173.1],[-74.237462,41.106978,172.8],[-74.237586,41.106978,172.2],[-74.237704,41.106974,171.7],[-74.237822,41.106962,171.4],[-74.237929,41.106962,171.4],[-74.238315,41.106982,170.1],[-74.238428,41.106982,170.0],[-74.238535,41.10699,169.7],[-74.238643,41.107006,169.1],[-74.23875,41.10703,168.5],[-74.238857,41.107067,167.5],[-74.238954,41.107099,166.7],[-74.239758,41.107267,166.0],[-74.240005,41.107324,164.8],[-74.240164,41.107375,163.9],[-74.240292,41.1075,163.5],[-74.240327,41.10756,163.4],[-74.24034,41.1076,163.3],[-74.240354,41.107641,163.3],[-74.240364,41.107681,163.5],[-74.240378,41.107722,163.7],[-74.240424,41.107888,164.4],[-74.240424,41.107888,164.4],[-74.240424,41.107888,164.4],[-74.240428,41.107888,164.4],[-74.240428,41.107888,164.4],[-74.240428,41.107888,164.4],[-74.240485,41.108097,164.3],[-74.240635,41.108574,163.1],[-74.240753,41.108946,162.1],[-74.240794,41.1092,160.4],[-74.240848,41.109304,160.1],[-74.240848,41.109304,160.1],[-74.240848,41.109304,160.1],[-74.240956,41.109269,161.1],[-74.240956,41.109269,161.1],[-74.240956,41.109269,161.1],[-74.241005,41.109402,160.7],[-74.241101,41.109662,159.7],[-74.241197,41.109922,159.5],[-74.241293,41.110181,158.0],[-74.241389,41.110441,158.0],[-74.241389,41.110441,158.0],[-74.241389,41.110441,158.0],[-74.241485,41.110701,158.0],[-74.241485,41.110701,158.0],[-74.241485,41.110701,158.0],[-74.241485,41.110701,158.0],[-74.24142,41.110753,157.6],[-74.241175,41.110949,158.4],[-74.240929,41.111145,159.1],[-74.240929,41.111145,159.1],[-74.240929,41.111145,159.1],[-74.240684,41.111342,161.5],[-74.240684,41.111342,161.5],[-74.240763,41.11135,159.8],[-74.240761,41.111362,159.8],[-74.240794,41.111482,159.6],[-74.240855,41.111581,159.0],[-74.24102,41.111591,158.2],[-74.241248,41.111672,157.4],[-74.241373,41.111739,157.0],[-74.241472,41.11181,156.6],[-74.241519,41.11193,156.6],[-74.241554,41.112028,157.2],[-74.24161,41.112233,158.2],[-74.241545,41.112332,158.4],[-74.241518,41.112425,158.8],[-74.241496,41.112557,159.2],[-74.241431,41.1128,159.6],[-74.241367,41.113026,160.0],[-74.241303,41.11322,160.2],[-74.241269,41.11326,160.2],[-74.241269,41.11326,160.2],[-74.241179,41.113366,160.6],[-74.241276,41.113531,160.4],[-74.241439,41.113679,160.4],[-74.241447,41.113798,160.4],[-74.241388,41.113932,160.8],[-74.241185,41.114077,161.4],[-74.241024,41.114311,164.0],[-74.240867,41.114558,165.0],[-74.24086,41.114845,165.4],[-74.24083,41.115055,166.0],[-74.240788,41.115273,168.6],[-74.240809,41.115576,169.0],[-74.240751,41.115889,169.4],[-74.240691,41.116098,169.6],[-74.240739,41.116184,169.0],[-74.240691,41.116441,169.2],[-74.240525,41.116651,169.8],[-74.240538,41.116831,168.8],[-74.240401,41.11689,168.8],[-74.24024,41.117084,168.2],[-74.240167,41.117259,168.2],[-74.240194,41.11731,168.2],[-74.240207,41.117361,168.0],[-74.240237,41.11744,168.8],[-74.24026,41.11749,169.4],[-74.240254,41.117539,170.4],[-74.240264,41.117563,170.4],[-74.240268,41.117589,170.6],[-74.240294,41.117635,170.6],[-74.240304,41.117673,170.6],[-74.240331,41.117705,170.6],[-74.240359,41.117759,170.8],[-74.240398,41.117809,170.8],[-74.240414,41.117857,170.8],[-74.240432,41.117895,170.8],[-74.240453,41.117933,171.0],[-74.240453,41.117993,171.0],[-74.240442,41.118015,171.0],[-74.24042,41.118047,171.2],[-74.240412,41.118094,171.2],[-74.240385,41.118156,171.6],[-74.240367,41.118238,172.8],[-74.240324,41.118355,173.2],[-74.240288,41.11844,173.2],[-74.240239,41.118515,173.6],[-74.24017,41.118584,173.8],[-74.240091,41.118676,173.8],[-74.240018,41.118768,173.6],[-74.239942,41.118874,173.6],[-74.239861,41.118952,172.6],[-74.239749,41.119051,171.4],[-74.239664,41.119119,171.0],[-74.239613,41.119175,170.6],[-74.239493,41.119235,170.4],[-74.239443,41.119266,169.8],[-74.23945,41.11931,169.8],[-74.239483,41.11939,168.0],[-74.239429,41.119401,168.0],[-74.23931,41.11948,168.6],[-74.239176,41.119606,169.4],[-74.23906,41.119865,173.4],[-74.239014,41.120034,174.0],[-74.239001,41.120082,174.0],[-74.238148,41.120127,180.2],[-74.237943,41.120164,181.2],[-74.237479,41.120288,184.6],[-74.237,41.120408,188.6],[-74.236166,41.12054,190.2],[-74.235585,41.120596,192.0],[-74.235458,41.120608,192.2],[-74.234676,41.120688,195.4],[-74.234198,41.120787,195.8],[-74.234032,41.120851,196.0],[-74.234031,41.120851,196.0],[-74.234031,41.120851,196.0],[-74.234029,41.120849,195.9],[-74.234029,41.120849,195.9],[-74.234029,41.120849,195.9],[-74.23374,41.121016,197.2],[-74.233567,41.121239,196.6],[-74.233507,41.121488,196.5],[-74.233541,41.121831,196.6],[-74.23362,41.122106,196.0],[-74.233767,41.122544,196.5],[-74.233853,41.122693,194.8],[-74.233902,41.12297,193.9],[-74.233902,41.123041,193.9],[-74.233852,41.123207,194.6],[-74.233763,41.123482,194.3],[-74.2337,41.123672,194.1],[-74.233595,41.124059,194.4],[-74.233535,41.124388,195.4],[-74.233486,41.124578,194.9],[-74.23347,41.12466,195.3],[-74.233477,41.124754,195.6],[-74.233488,41.1249,196.4],[-74.233751,41.125403,202.3],[-74.233945,41.125626,204.8],[-74.234129,41.125811,205.3],[-74.234129,41.125811,205.3],[-74.234129,41.125811,205.3],[-74.234168,41.125832,205.0],[-74.234168,41.125832,205.0],[-74.234168,41.125832,205.0],[-74.234167,41.125836,205.1],[-74.234128,41.125815,205.4],[-74.233944,41.12563,204.8],[-74.23375,41.125407,202.4],[-74.23379,41.125565,205.1],[-74.233993,41.125867,209.2],[-74.234182,41.126146,211.6],[-74.234305,41.126641,221.2],[-74.234343,41.126709,222.4],[-74.234463,41.126785,223.5],[-74.234636,41.12684,224.9],[-74.234784,41.126995,229.0],[-74.234846,41.126973,228.7],[-74.234908,41.126959,228.5],[-74.234964,41.126948,228.5],[-74.23502,41.126946,228.2],[-74.235085,41.126948,227.1],[-74.235144,41.126956,226.2],[-74.235205,41.126975,225.6],[-74.235259,41.126995,225.1],[-74.235305,41.127019,225.1],[-74.235353,41.12705,225.3],[-74.235404,41.12707,225.3],[-74.235404,41.12707,225.3],[-74.235404,41.12707,225.3],[-74.235408,41.127072,225.3],[-74.235408,41.127072,225.3],[-74.235408,41.127072,225.3],[-74.235414,41.12707,225.2],[-74.235458,41.127088,225.1],[-74.235509,41.127108,225.0],[-74.235571,41.127132,224.8],[-74.235616,41.127157,224.5],[-74.235667,41.127183,224.1],[-74.235718,41.127207,223.7],[-74.235766,41.127235,223.5],[-74.235812,41.12726,223.2],[-74.235858,41.127288,223.0],[-74.235901,41.127318,222.9],[-74.235952,41.12734,222.4],[-74.236,41.127363,222.1],[-74.236056,41.127391,221.9],[-74.236107,41.127411,221.5],[-74.236161,41.127419,220.8],[-74.236231,41.127429,219.9],[-74.236287,41.127437,219.1],[-74.236346,41.127441,218.2],[-74.236402,41.127445,217.3],[-74.236464,41.127458,216.6],[-74.236523,41.127458,215.8],[-74.236855,41.127492,213.6],[-74.236888,41.127492,213.6],[-74.236924,41.127492,213.5],[-74.236965,41.127492,213.5],[-74.236996,41.127492,213.5],[-74.237034,41.127488,213.5],[-74.237066,41.127481,213.4],[-74.237151,41.127528,213.6],[-74.237215,41.127585,213.8],[-74.237224,41.127593,213.8],[-74.237298,41.127631,214.0],[-74.237346,41.127656,214.2],[-74.237416,41.127702,214.8],[-74.237462,41.127728,215.0],[-74.237513,41.127782,215.5],[-74.237695,41.128043,217.0],[-74.237719,41.128175,218.2],[-74.237863,41.12831,218.2],[-74.238006,41.128444,217.5],[-74.238111,41.128525,216.8],[-74.238111,41.128525,216.8],[-74.238111,41.128525,216.8],[-74.238152,41.128556,216.5],[-74.238152,41.128556,216.5],[-74.238152,41.128556,216.5],[-74.238147,41.128557,216.6],[-74.238458,41.128786,213.9],[-74.238546,41.128907,213.2],[-74.238545,41.129099,213.8],[-74.238567,41.129185,213.2],[-74.238557,41.129287,213.2],[-74.238598,41.129334,212.2],[-74.238698,41.129346,210.9],[-74.238743,41.129307,210.6],[-74.238789,41.129213,210.2],[-74.238866,41.12918,209.3],[-74.238943,41.129201,208.3],[-74.23897,41.129285,207.9],[-74.238768,41.129636,208.0],[-74.238585,41.129911,207.7],[-74.238349,41.13017,208.2],[-74.238074,41.13046,209.2],[-74.238081,41.130574,207.9],[-74.238137,41.130601,206.7],[-74.238194,41.130575,206.1],[-74.238248,41.130458,206.2],[-74.23835,41.130425,204.6],[-74.238403,41.130458,203.4],[-74.238374,41.13059,203.0],[-74.238295,41.130687,203.6],[-74.238246,41.130827,202.3],[-74.238284,41.130908,200.6],[-74.238397,41.130966,198.2],[-74.23838,41.131057,198.0],[-74.238355,41.131198,197.9],[-74.23833,41.131321,198.1],[-74.238403,41.131364,197.0],[-74.238442,41.131555,196.2],[-74.238387,41.131631,196.2],[-74.238445,41.131675,195.0],[-74.238532,41.131647,194.2],[-74.2386,41.131607,193.6],[-74.238667,41.131409,193.2],[-74.238727,41.131391,192.3],[-74.238791,41.131437,191.2],[-74.238864,41.131574,189.4],[-74.238945,41.131728,188.0],[-74.23902,41.131722,186.6],[-74.239074,41.131655,185.7],[-74.239128,41.131665,184.7],[-74.239214,41.131752,183.2],[-74.239242,41.131852,182.5],[-74.239277,41.131992,181.3],[-74.239244,41.13208,181.6],[-74.23933,41.132191,179.5],[-74.239373,41.132297,178.3],[-74.239457,41.132321,176.9],[-74.239538,41.132279,175.4],[-74.239698,41.132056,173.5],[-74.23982,41.132001,171.7],[-74.239895,41.132029,170.5],[-74.239921,41.132238,169.0],[-74.239874,41.132334,169.0],[-74.239821,41.132452,168.8],[-74.239818,41.132534,168.2],[-74.239818,41.132534,168.2],[-74.239818,41.132534,168.2],[-74.239808,41.132568,168.0],[-74.239808,41.132568,168.0],[-74.239808,41.132568,168.0],[-74.239811,41.132568,169.8],[-74.239781,41.132673,168.8],[-74.239751,41.132762,169.6],[-74.239796,41.132762,168.2],[-74.23985,41.132684,168.8],[-74.239884,41.132698,167.4],[-74.239895,41.132785,166.2],[-74.239823,41.132908,166.4],[-74.239704,41.133079,166.6],[-74.239133,41.133777,171.4],[-74.238882,41.133918,172.6],[-74.2387,41.133969,173.2],[-74.238537,41.134019,173.8],[-74.238079,41.134167,175.0],[-74.237683,41.134303,177.6],[-74.237212,41.13455,178.8],[-74.236878,41.134741,180.0],[-74.236567,41.135016,180.6],[-74.236245,41.135412,185.4],[-74.236018,41.135895,184.8],[-74.235889,41.136066,186.6],[-74.23553,41.136449,189.0],[-74.235352,41.136518,189.6],[-74.235092,41.136547,190.2],[-74.234796,41.136496,191.0],[-74.234613,41.13639,192.2],[-74.234282,41.136214,192.8],[-74.234038,41.136082,193.4],[-74.233849,41.136057,193.8],[-74.233659,41.136063,194.0],[-74.233438,41.136146,193.6],[-74.233104,41.136219,193.8],[-74.233056,41.135997,197.4],[-74.23297,41.135999,197.8],[-74.232873,41.135993,198.0],[-74.232421,41.135949,197.6],[-74.232421,41.135949,197.6],[-74.232421,41.135949,197.6],[-74.232395,41.135998,197.6],[-74.232395,41.135998,197.6],[-74.232395,41.135998,197.6],[-74.23213,41.13649,195.6],[-74.232057,41.136626,200.2],[-74.232036,41.136668,201.2],[-74.23192,41.136898,202.2],[-74.231932,41.137015,202.6],[-74.231883,41.137026,202.6],[-74.23177,41.137039,202.0],[-74.231737,41.137325,202.6],[-74.231722,41.137378,202.8],[-74.231654,41.137462,202.6],[-74.231597,41.13749,202.6],[-74.231645,41.137566,203.0],[-74.231671,41.137663,203.2]]}}]}