{"type": "FeatureCollection", "features": [{"type": "Feature", "geometry": {"type": "Point", "coordinates": [-74.233943, 41.10946]}, "properties": {"id": "turn_000", "course_mi": 3.18, "ele_m": 201.1, "direction": "left", "intensity": "sharp", "label": "Boulder Way South", "label_type": "trail", "section": "Start \u2192 Finish", "snap_method": "geometry_only", "context": "", "jurisdiction": "", "jurisdiction_unit": ""}}, {"type": "Feature", "geometry": {"type": "Point", "coordinates": [-74.233305, 41.109749]}, "properties": {"id": "turn_001", "course_mi": 3.23, "ele_m": 209.8, "direction": "right", "intensity": "normal", "label": "Crossover/Five Ponds Loop Trail", "label_type": "trail", "section": "Start \u2192 Finish", "snap_method": "geometry_only", "context": "", "jurisdiction": "", "jurisdiction_unit": ""}}, {"type": "Feature", "geometry": {"type": "Point", "coordinates": [-74.231543, 41.109099]}, "properties": {"id": "turn_002", "course_mi": 3.35, "ele_m": 217.4, "direction": "right", "intensity": "normal", "label": "Five Ponds Loop Trail", "label_type": "trail", "section": "Start \u2192 Finish", "snap_method": "geometry_only", "context": "", "jurisdiction": "", "jurisdiction_unit": ""}}, {"type": "Feature", "geometry": {"type": "Point", "coordinates": [-74.232409, 41.106671]}, "properties": {"id": "turn_003", "course_mi": 3.54, "ele_m": 235.8, "direction": "right", "intensity": "normal", "label": "Gatun Pond Road", "label_type": "trail", "section": "Start \u2192 Finish", "snap_method": "geometry_only", "context": "", "jurisdiction": "", "jurisdiction_unit": ""}}, {"type": "Feature", "geometry": {"type": "Point", "coordinates": [-74.235175, 41.104056]}, "properties": {"id": "turn_004", "course_mi": 3.79, "ele_m": 236.9, "direction": "right", "intensity": "sharp", "label": "Ice Pond Road", "label_type": "trail", "section": "Start \u2192 Finish", "snap_method": "geometry_only", "context": "", "jurisdiction": "", "jurisdiction_unit": ""}}, {"type": "Feature", "geometry": {"type": "Point", "coordinates": [-74.240761, 41.111362]}, "properties": {"id": "turn_005", "course_mi": 4.89, "ele_m": 159.8000000000011, "direction": "left", "intensity": "normal", "label": "White's Road", "label_type": "trail", "section": "Start \u2192 Finish", "snap_method": "geometry_only", "context": "", "jurisdiction": "", "jurisdiction_unit": ""}}, {"type": "Feature", "geometry": {"type": "Point", "coordinates": [-74.241519, 41.11193]}, "properties": {"id": "turn_006", "course_mi": 4.95, "ele_m": 156.60000000000036, "direction": "right", "intensity": "normal", "label": "White's Road", "label_type": "trail", "section": "Start \u2192 Finish", "snap_method": "geometry_only", "context": "", "jurisdiction": "", "jurisdiction_unit": ""}}, {"type": "Feature", "geometry": {"type": "Point", "coordinates": [-74.23374, 41.121016]}, "properties": {"id": "turn_007", "course_mi": 5.85, "ele_m": 197.2, "direction": "left", "intensity": "normal", "label": "Swan Pond Road/Crossover/Five Ponds Loop Trail", "label_type": "trail", "section": "Start \u2192 Finish", "snap_method": "geometry_only", "context": "", "jurisdiction": "", "jurisdiction_unit": ""}}, {"type": "Feature", "geometry": {"type": "Point", "coordinates": [-74.238598, 41.129334]}, "properties": {"id": "turn_008", "course_mi": 6.66, "ele_m": 212.2, "direction": "left", "intensity": "normal", "label": "Crossover Trail", "label_type": "trail", "section": "Start \u2192 Finish", "snap_method": "geometry_only", "context": "", "jurisdiction": "", "jurisdiction_unit": ""}}, {"type": "Feature", "geometry": {"type": "Point", "coordinates": [-74.239895, 41.132029]}, "properties": {"id": "turn_009", "course_mi": 7.06, "ele_m": 170.5, "direction": "right", "intensity": "sharp", "label": "Crossover Trail", "label_type": "trail", "section": "Start \u2192 Finish", "snap_method": "geometry_only", "context": "", "jurisdiction": "", "jurisdiction_unit": ""}}, {"type": "Feature", "geometry": {"type": "Point", "coordinates": [-74.239823, 41.132908]}, "properties": {"id": "turn_010", "course_mi": 7.14, "ele_m": 166.4, "direction": "right", "intensity": "normal", "label": "Crossover Trail", "label_type": "trail", "section": "Start \u2192 Finish", "snap_method": "geometry_only", "context": "", "jurisdiction": "", "jurisdiction_unit": ""}}]}