{"type":"FeatureCollection","features":[{"type":"Feature","properties":{"name":"Pocantico Hills Half Marathon","loop":"half-marathon","color":"#c19434","distance_km":21.4,"distance_mi":13.3,"gain_m":450,"gain_ft":1477,"loss_m":450,"loss_ft":1477,"min_ele_m":2,"max_ele_m":114,"min_ele_ft":7,"max_ele_ft":375},"geometry":{"type":"LineString","coordinates":[[-73.865676,41.112501,162],[-73.86553,41.11209,157],[-73.86548,41.11208,154],[-73.86494,41.11236,155],[-73.86434,41.11247,159],[-73.86375,41.112833,165],[-73.86385,41.11296,173],[-73.86399,41.11343,182],[-73.86446,41.11375,183],[-73.86484,41.11383,184],[-73.86549,41.11381,182],[-73.86519,41.11428,181],[-73.86508,41.11464,177],[-73.86495,41.11602,174],[-73.86501,41.11642,167],[-73.86498,41.11668,161],[-73.86511,41.11702,157],[-73.86524,41.1172,156],[-73.86582,41.11758,148],[-73.8658,41.11803,145],[-73.86587,41.11804,134],[-73.86592,41.11821,119],[-73.86588,41.11865,115],[-73.86614,41.11928,119],[-73.86538,41.11931,121],[-73.86505,41.11915,132],[-73.86538,41.11931,145],[-73.86505,41.11915,152],[-73.86501,41.11901,157],[-73.86478,41.11889,163],[-73.86459,41.11863,172],[-73.8643,41.11855,180],[-73.86403,41.11829,183],[-73.86383,41.11818,186],[-73.863329,41.118141,189],[-73.86347,41.11815,188],[-73.86353,41.11842,188],[-73.86367,41.11861,194],[-73.86365,41.11871,199],[-73.8631,41.1187,205],[-73.8629,41.11881,207],[-73.86316,41.11907,210],[-73.86321,41.11922,210],[-73.86316,41.11928,209],[-73.86281,41.11902,207],[-73.86248,41.11889,203],[-73.86198,41.1188,199],[-73.86031,41.11903,192],[-73.85961,41.11893,179],[-73.85921,41.11876,167],[-73.85872,41.11826,161],[-73.85858,41.11804,157],[-73.85852,41.11751,154],[-73.85867,41.11613,167],[-73.85876,41.11586,180],[-73.85876,41.11546,192],[-73.85871,41.11523,203],[-73.85839,41.11463,215],[-73.85738,41.11188,232],[-73.85723,41.11169,230],[-73.85572,41.11088,230],[-73.85473,41.10978,222],[-73.85425,41.10959,217],[-73.85498,41.10844,188],[-73.85556,41.10848,192],[-73.85596,41.10834,195],[-73.85618,41.10815,199],[-73.85636,41.10788,202],[-73.85675,41.1077,217],[-73.85685,41.10755,219],[-73.85675,41.10737,226],[-73.85675,41.10726,236],[-73.85647,41.10715,247],[-73.85623,41.10691,257],[-73.85629,41.10674,268],[-73.85628,41.10605,274],[-73.85635,41.10582,279],[-73.8566,41.10545,284],[-73.85687,41.10468,281],[-73.8569,41.10448,280],[-73.85727,41.10359,279],[-73.85726,41.10316,274],[-73.85739,41.10276,267],[-73.85751,41.10254,262],[-73.85791,41.10228,253],[-73.85796,41.1022,243],[-73.85784,41.10165,238],[-73.85773,41.10156,236],[-73.85754,41.10127,228],[-73.85762,41.10108,224],[-73.85751,41.10055,220],[-73.8574,41.10049,226],[-73.8572,41.10053,227],[-73.85679,41.10087,233],[-73.85641,41.10133,238],[-73.85638,41.1017,242],[-73.85623,41.10215,239],[-73.85617,41.10219,241],[-73.85634,41.1026,244],[-73.85631,41.10281,241],[-73.85616,41.10299,249],[-73.85557,41.10316,253],[-73.85545,41.10335,259],[-73.85525,41.10387,265],[-73.85501,41.10476,276],[-73.85512,41.10569,273],[-73.8551,41.10615,274],[-73.85498,41.10652,274],[-73.85467,41.10687,272],[-73.85413,41.10704,264],[-73.85346,41.10748,260],[-73.85321,41.10779,252],[-73.85319,41.10795,244],[-73.85313,41.10795,236],[-73.85303,41.10782,240],[-73.85294,41.10752,243],[-73.85275,41.1066,246],[-73.85278,41.10612,245],[-73.85274,41.10588,241],[-73.85339,41.10525,233],[-73.85365,41.10485,229],[-73.8539,41.10459,223],[-73.8546,41.10355,221],[-73.85502,41.10262,223],[-73.85532,41.10272,228],[-73.8555,41.10268,228],[-73.85595,41.10244,231],[-73.85617,41.10219,234],[-73.85611,41.10206,236],[-73.8561,41.10137,232],[-73.85637,41.10083,219],[-73.85649,41.10048,205],[-73.85615,41.09984,201],[-73.85604,41.09995,188],[-73.85586,41.10001,180],[-73.85565,41.10023,184],[-73.8555,41.10057,186],[-73.85524,41.10097,178],[-73.85483,41.1014,178],[-73.85451,41.10186,176],[-73.85424,41.10248,171],[-73.8536,41.10261,169],[-73.85345,41.10259,167],[-73.8531,41.10231,165],[-73.8525,41.10193,165],[-73.85223,41.10212,169],[-73.85194,41.10223,177],[-73.85113,41.10199,179],[-73.85072,41.10178,171],[-73.85046,41.10151,162],[-73.84997,41.1008,152],[-73.84982,41.1007,135],[-73.84908,41.10045,124],[-73.848974,41.100488,124],[-73.8494,41.10034,129],[-73.84944,41.10028,136],[-73.84941,41.099865,144],[-73.85029,41.09992,152],[-73.85054,41.10005,173],[-73.8508,41.09999,191],[-73.85154,41.09898,206],[-73.85154,41.0979,218],[-73.85167,41.09769,230],[-73.852206,41.097089,234],[-73.85238,41.09707,230],[-73.853369,41.09727,230],[-73.853091,41.096704,230],[-73.853367,41.097264,230],[-73.85238,41.09707,230],[-73.852206,41.097089,230],[-73.851631,41.097753,226],[-73.852159,41.097157,226],[-73.852281,41.096911,235],[-73.853104,41.096711,241],[-73.85249,41.09581,244],[-73.85206,41.09542,247],[-73.85164,41.09486,251],[-73.85145,41.09471,237],[-73.8512,41.0943,222],[-73.85076,41.09406,214],[-73.85069,41.09398,219],[-73.85069,41.0938,224],[-73.85113,41.09344,229],[-73.85117,41.09333,234],[-73.85114,41.09324,238],[-73.85097,41.09315,221],[-73.85085,41.09315,203],[-73.85037,41.09331,194],[-73.84964,41.09374,195],[-73.84937,41.0937,188],[-73.84892,41.09332,188],[-73.84921,41.09308,196],[-73.85035,41.09257,203],[-73.85044,41.09239,195],[-73.85034,41.09224,215],[-73.84933,41.09253,236],[-73.84828,41.09268,251],[-73.848,41.09288,265],[-73.84792,41.09305,281],[-73.84785,41.09379,274],[-73.84765,41.09465,268],[-73.84761,41.09525,263],[-73.84726,41.09591,251],[-73.84712,41.0963,251],[-73.84671,41.09674,252],[-73.84539,41.09741,242],[-73.84523,41.09754,232],[-73.84625,41.09775,228],[-73.84662,41.09773,220],[-73.84691,41.09763,203],[-73.84715,41.09746,203],[-73.84774,41.09667,211],[-73.84786,41.09641,214],[-73.84822,41.09502,215],[-73.84878,41.09348,215],[-73.84892,41.09332,209],[-73.84937,41.0937,194],[-73.84946,41.09383,181],[-73.84951,41.0941,167],[-73.84964,41.09435,165],[-73.84998,41.094735,158],[-73.85005,41.09571,155],[-73.84975,41.0965,155],[-73.84915,41.09775,153],[-73.8488,41.09831,147],[-73.84857,41.09878,146],[-73.84848,41.09928,142],[-73.84844,41.09937,137],[-73.84836,41.09941,135],[-73.848456,41.099473,138],[-73.848366,41.099404,138],[-73.84833,41.09944,138],[-73.84835,41.09968,136],[-73.84841,41.0998,135],[-73.84908,41.10045,135],[-73.84855,41.10064,144],[-73.8478,41.10112,153],[-73.84737,41.10162,163],[-73.84686,41.10202,178],[-73.84673,41.10218,192],[-73.84662,41.10244,199],[-73.8461,41.10266,210],[-73.84591,41.10303,221],[-73.84587,41.10344,227],[-73.84599,41.10377,230],[-73.84637,41.10424,242],[-73.84647,41.10445,251],[-73.8467,41.10468,251],[-73.84675,41.10488,260],[-73.84666,41.1056,271],[-73.84693,41.10555,272],[-73.84774,41.10618,265],[-73.8481,41.10661,274],[-73.84819,41.10666,281],[-73.84832,41.10665,285],[-73.84853,41.10647,280],[-73.84867,41.10643,283],[-73.84941,41.10669,272],[-73.84988,41.10698,258],[-73.85001,41.10691,250],[-73.85005,41.10675,259],[-73.85002,41.10663,267],[-73.84978,41.10637,281],[-73.84957,41.10627,296],[-73.84884,41.10611,313],[-73.84871,41.10602,315],[-73.84849,41.10548,317],[-73.84831,41.1052,329],[-73.84829,41.10505,342],[-73.84834,41.10492,345],[-73.84894,41.10439,354],[-73.84902,41.10425,364],[-73.8492,41.10409,362],[-73.84941,41.10374,351],[-73.84983,41.10351,341],[-73.84986,41.10326,329],[-73.84997,41.10325,318],[-73.85022,41.10338,307],[-73.85043,41.10363,302],[-73.85059,41.10401,298],[-73.85051,41.10426,292],[-73.85012,41.10477,300],[-73.85004,41.10522,308],[-73.84981,41.10552,318],[-73.84948,41.1057,329],[-73.84919,41.10563,345],[-73.84912,41.10551,350],[-73.84906,41.10529,356],[-73.8491,41.10482,361],[-73.849036,41.104457,364],[-73.849111,41.104579,367],[-73.84894,41.10439,356],[-73.84834,41.10492,345],[-73.84829,41.10505,342],[-73.84831,41.1052,329],[-73.84849,41.10548,317],[-73.84871,41.10602,315],[-73.84884,41.10611,313],[-73.84957,41.10627,296],[-73.84978,41.10637,281],[-73.85002,41.10663,267],[-73.85005,41.10675,259],[-73.85001,41.10691,250],[-73.8498,41.107,244],[-73.84952,41.10736,254],[-73.84936,41.10839,262],[-73.8489,41.10886,264],[-73.84906,41.10922,265],[-73.84888,41.10984,278],[-73.84876,41.11014,279],[-73.84825,41.11082,282],[-73.84797,41.1113,282],[-73.84763,41.11155,284],[-73.84759,41.11195,288],[-73.8475,41.11219,293],[-73.84729,41.11234,304],[-73.84679,41.11257,318],[-73.84645,41.11261,333],[-73.84591,41.11309,337],[-73.84544,41.11326,343],[-73.84538,41.11338,344],[-73.84544,41.1135,345],[-73.84611,41.11429,347],[-73.84613,41.1145,351],[-73.84569,41.11488,362],[-73.84537,41.11495,367],[-73.84511,41.11511,373],[-73.84471,41.11553,372],[-73.84422,41.1157,375],[-73.84406,41.11581,371],[-73.84393,41.11599,364],[-73.84375,41.11653,358],[-73.84377,41.11673,357],[-73.84399,41.11722,351],[-73.84413,41.11737,346],[-73.84425,41.11736,345],[-73.84413,41.11737,344],[-73.84425,41.11736,341],[-73.84484,41.11704,340],[-73.84516,41.117,337],[-73.84541,41.11707,332],[-73.84544,41.11725,327],[-73.84538,41.11754,316],[-73.84544,41.11765,306],[-73.84593,41.11779,289],[-73.84608,41.1183,283],[-73.84621,41.11844,276],[-73.84655,41.11772,274],[-73.84708,41.11708,278],[-73.84733,41.11644,284],[-73.84765,41.11592,284],[-73.84772,41.11544,281],[-73.84784,41.11515,281],[-73.84826,41.11472,273],[-73.84822,41.1142,276],[-73.84829,41.11399,278],[-73.8485,41.11375,280],[-73.84848,41.11338,276],[-73.84871,41.11278,278],[-73.84906,41.11232,272],[-73.84921,41.11157,263],[-73.84947,41.11119,257],[-73.8497,41.11066,257],[-73.85,41.11021,253],[-73.85008,41.10966,249],[-73.85013,41.10958,252],[-73.85056,41.10962,258],[-73.85181,41.1095,264],[-73.85266,41.10956,268],[-73.85324,41.10969,260],[-73.85365,41.10959,249],[-73.85417,41.10963,234],[-73.85425,41.10959,238],[-73.85473,41.10978,228],[-73.85572,41.11088,230],[-73.85723,41.11169,230],[-73.85738,41.11188,232],[-73.85839,41.11463,215],[-73.85871,41.11523,203],[-73.85876,41.11546,192],[-73.85876,41.11586,180],[-73.85867,41.11613,167],[-73.85852,41.11772,154],[-73.85858,41.11804,157],[-73.85872,41.11826,161],[-73.85921,41.11876,167],[-73.85961,41.11893,179],[-73.86031,41.11903,192],[-73.86198,41.1188,199],[-73.86248,41.11889,203],[-73.86281,41.11902,207],[-73.86316,41.11928,209],[-73.86321,41.11922,210],[-73.86316,41.11907,210],[-73.8629,41.11881,207],[-73.8631,41.1187,205],[-73.86365,41.11871,199],[-73.86367,41.11861,194],[-73.86353,41.11842,188],[-73.86347,41.11815,189],[-73.86383,41.11818,186],[-73.86403,41.11829,184],[-73.8643,41.11855,180],[-73.86459,41.11863,172],[-73.86478,41.11889,163],[-73.86501,41.11901,163],[-73.86505,41.11915,157],[-73.865,41.11955,150],[-73.86508,41.1197,150],[-73.86527,41.11989,149],[-73.86543,41.12028,121],[-73.86565,41.12042,100],[-73.86675,41.12086,79],[-73.86709,41.12096,58],[-73.86726,41.12096,29],[-73.86749,41.12088,22],[-73.86759,41.12069,16],[-73.8676,41.12032,11],[-73.86777,41.11905,7],[-73.8677,41.11869,12],[-73.86787,41.11776,16],[-73.86804,41.11737,22],[-73.86804,41.11675,20],[-73.8681,41.11636,16],[-73.86835,41.11587,12],[-73.86836,41.11574,16],[-73.86835,41.11561,14],[-73.86808,41.11501,21],[-73.86815,41.11427,28],[-73.8681,41.11405,34],[-73.86795,41.11381,30],[-73.868,41.11345,26],[-73.86791,41.11316,22],[-73.86799,41.1121,17],[-73.86795,41.11168,12],[-73.86788,41.11146,10],[-73.86789,41.11114,10],[-73.86778,41.111,20],[-73.86753,41.11087,29],[-73.86728,41.11085,37],[-73.8671,41.1106,51],[-73.86691,41.11064,71],[-73.86632,41.11057,80],[-73.86565,41.11058,94],[-73.86558,41.11076,106],[-73.86532,41.11083,112],[-73.86521,41.1108,121],[-73.86507,41.11061,131],[-73.86488,41.11055,138],[-73.86464,41.1106,152],[-73.86446,41.11071,167],[-73.86428,41.11107,171],[-73.86451,41.11121,165],[-73.86489,41.11119,158],[-73.86511,41.11123,147],[-73.86532,41.11137,142],[-73.86546,41.11158,138],[-73.86555,41.11223,141],[-73.86567,41.11247,147]]}}]}