{"type": "FeatureCollection", "features": [{"type": "Feature", "geometry": {"type": "Point", "coordinates": [-73.86529000000002, 41.11216]}, "properties": {"id": "turn_000", "course_mi": 0.04, "ele_m": null, "direction": "left", "intensity": "normal", "label": "Foundation Loop", "label_type": "trail", "section": "Start \u2192 Finish", "snap_method": "geometry_only", "context": "", "jurisdiction": "", "jurisdiction_unit": ""}}, {"type": "Feature", "geometry": {"type": "Point", "coordinates": [-73.86527999999998, 41.11411]}, "properties": {"id": "turn_001", "course_mi": 0.29, "ele_m": null, "direction": "right", "intensity": "sharp", "label": "Upper Trail", "label_type": "trail", "section": "Start \u2192 Finish", "snap_method": "geometry_only", "context": "", "jurisdiction": "", "jurisdiction_unit": ""}}, {"type": "Feature", "geometry": {"type": "Point", "coordinates": [-73.86613999999997, 41.11928]}, "properties": {"id": "turn_002", "course_mi": 0.68, "ele_m": null, "direction": "right", "intensity": "normal", "label": "", "label_type": "", "section": "Start \u2192 Finish", "snap_method": "geometry_only", "context": "", "jurisdiction": "", "jurisdiction_unit": ""}}, {"type": "Feature", "geometry": {"type": "Point", "coordinates": [-73.86505, 41.11915]}, "properties": {"id": "turn_003", "course_mi": 0.78, "ele_m": null, "direction": "left", "intensity": "sharp", "label": "Rockwood Hall Brook Trail", "label_type": "trail", "section": "Start \u2192 Finish", "snap_method": "geometry_only", "context": "", "jurisdiction": "", "jurisdiction_unit": ""}}, {"type": "Feature", "geometry": {"type": "Point", "coordinates": [-73.86383000000001, 41.11818]}, "properties": {"id": "turn_004", "course_mi": 0.88, "ele_m": null, "direction": "left", "intensity": "normal", "label": "Rockwood Hall Brook Trail", "label_type": "trail", "section": "Start \u2192 Finish", "snap_method": "geometry_only", "context": "", "jurisdiction": "", "jurisdiction_unit": ""}}, {"type": "Feature", "geometry": {"type": "Point", "coordinates": [-73.86365, 41.11871]}, "properties": {"id": "turn_005", "course_mi": 0.95, "ele_m": null, "direction": "right", "intensity": "normal", "label": "Rockwood Hall Brook Trail", "label_type": "trail", "section": "Start \u2192 Finish", "snap_method": "geometry_only", "context": "", "jurisdiction": "", "jurisdiction_unit": ""}}, {"type": "Feature", "geometry": {"type": "Point", "coordinates": [-73.86307256012674, 41.11921504476209]}, "properties": {"id": "turn_006", "course_mi": 1.04, "ele_m": null, "direction": "right", "intensity": "sharp", "label": "Rockwood Hall Brook Trail", "label_type": "trail", "section": "Start \u2192 Finish", "snap_method": "geometry_only", "context": "", "jurisdiction": "", "jurisdiction_unit": ""}}, {"type": "Feature", "geometry": {"type": "Point", "coordinates": [-73.85685000000001, 41.10755]}, "properties": {"id": "turn_007", "course_mi": 2.2, "ele_m": null, "direction": "left", "intensity": "normal", "label": "Big Tree Loop", "label_type": "trail", "section": "Start \u2192 Finish", "snap_method": "geometry_only", "context": "", "jurisdiction": "", "jurisdiction_unit": ""}}, {"type": "Feature", "geometry": {"type": "Point", "coordinates": [-73.8575065641698, 41.100548125911615]}, "properties": {"id": "turn_008", "course_mi": 2.72, "ele_m": null, "direction": "left", "intensity": "normal", "label": "Big Tree Loop", "label_type": "trail", "section": "Start \u2192 Finish", "snap_method": "geometry_only", "context": "", "jurisdiction": "", "jurisdiction_unit": ""}}, {"type": "Feature", "geometry": {"type": "Point", "coordinates": [-73.85615999999999, 41.10299]}, "properties": {"id": "turn_009", "course_mi": 2.93, "ele_m": null, "direction": "right", "intensity": "normal", "label": "Witch's Spring Trail", "label_type": "trail", "section": "Start \u2192 Finish", "snap_method": "geometry_only", "context": "", "jurisdiction": "", "jurisdiction_unit": ""}}, {"type": "Feature", "geometry": {"type": "Point", "coordinates": [-73.85302999999999, 41.10782]}, "properties": {"id": "turn_010", "course_mi": 3.36, "ele_m": null, "direction": "right", "intensity": "sharp", "label": "Spook Rock Trail", "label_type": "trail", "section": "Start \u2192 Finish", "snap_method": "geometry_only", "context": "", "jurisdiction": "", "jurisdiction_unit": ""}}, {"type": "Feature", "geometry": {"type": "Point", "coordinates": [-73.85250000000002, 41.10193]}, "properties": {"id": "turn_011", "course_mi": 4.32, "ele_m": null, "direction": "left", "intensity": "normal", "label": "Pocantico River Trail", "label_type": "trail", "section": "Start \u2192 Finish", "snap_method": "geometry_only", "context": "", "jurisdiction": "", "jurisdiction_unit": ""}}, {"type": "Feature", "geometry": {"type": "Point", "coordinates": [-73.84908000000001, 41.10045]}, "properties": {"id": "turn_012", "course_mi": 4.56, "ele_m": null, "direction": "right", "intensity": "sharp", "label": "Canter Alley", "label_type": "trail", "section": "Start \u2192 Finish", "snap_method": "geometry_only", "context": "", "jurisdiction": "", "jurisdiction_unit": ""}}, {"type": "Feature", "geometry": {"type": "Point", "coordinates": [-73.84980000000002, 41.09987]}, "properties": {"id": "turn_013", "course_mi": 4.64, "ele_m": null, "direction": "right", "intensity": "normal", "label": "Spring Trail", "label_type": "trail", "section": "Start \u2192 Finish", "snap_method": "geometry_only", "context": "", "jurisdiction": "", "jurisdiction_unit": ""}}, {"type": "Feature", "geometry": {"type": "Point", "coordinates": [-73.8517607, 41.0975863]}, "properties": {"id": "turn_014", "course_mi": 5.19, "ele_m": null, "direction": "right", "intensity": "normal", "label": "Shady Lane", "label_type": "trail", "section": "Start \u2192 Finish", "snap_method": "geometry_only", "context": "", "jurisdiction": "", "jurisdiction_unit": ""}}, {"type": "Feature", "geometry": {"type": "Point", "coordinates": [-73.85117, 41.09333]}, "properties": {"id": "turn_015", "course_mi": 5.58, "ele_m": null, "direction": "left", "intensity": "normal", "label": "Douglas Hill Loop", "label_type": "trail", "section": "Start \u2192 Finish", "snap_method": "geometry_only", "context": "", "jurisdiction": "", "jurisdiction_unit": ""}}, {"type": "Feature", "geometry": {"type": "Point", "coordinates": [-73.85042, 41.09249]}, "properties": {"id": "turn_016", "course_mi": 5.83, "ele_m": null, "direction": "left", "intensity": "sharp", "label": "Hillside Trail", "label_type": "trail", "section": "Start \u2192 Finish", "snap_method": "geometry_only", "context": "", "jurisdiction": "", "jurisdiction_unit": ""}}, {"type": "Feature", "geometry": {"type": "Point", "coordinates": [-73.84878, 41.09348]}, "properties": {"id": "turn_017", "course_mi": 6.75, "ele_m": null, "direction": "right", "intensity": "normal", "label": "Sleepy Hollow Road", "label_type": "road", "section": "Start \u2192 Finish", "snap_method": "geometry_only", "context": "", "jurisdiction": "", "jurisdiction_unit": ""}}, {"type": "Feature", "geometry": {"type": "Point", "coordinates": [-73.84666, 41.1056]}, "properties": {"id": "turn_018", "course_mi": 7.76, "ele_m": null, "direction": "left", "intensity": "normal", "label": "Old Sleepy Hollow Road Trail", "label_type": "trail", "section": "Start \u2192 Finish", "snap_method": "geometry_only", "context": "", "jurisdiction": "", "jurisdiction_unit": ""}}, {"type": "Feature", "geometry": {"type": "Point", "coordinates": [-73.85002, 41.10663]}, "properties": {"id": "turn_019", "course_mi": 8.01, "ele_m": null, "direction": "left", "intensity": "normal", "label": "Eagle Hill", "label_type": "trail", "section": "Start \u2192 Finish", "snap_method": "geometry_only", "context": "", "jurisdiction": "", "jurisdiction_unit": ""}}, {"type": "Feature", "geometry": {"type": "Point", "coordinates": [-73.85022, 41.10338]}, "properties": {"id": "turn_020", "course_mi": 8.34, "ele_m": null, "direction": "right", "intensity": "normal", "label": "Eagle Hill", "label_type": "trail", "section": "Start \u2192 Finish", "snap_method": "geometry_only", "context": "", "jurisdiction": "", "jurisdiction_unit": ""}}, {"type": "Feature", "geometry": {"type": "Point", "coordinates": [-73.84919, 41.10563]}, "properties": {"id": "turn_021", "course_mi": 8.54, "ele_m": null, "direction": "right", "intensity": "sharp", "label": "Eagle Hill", "label_type": "trail", "section": "Start \u2192 Finish", "snap_method": "geometry_only", "context": "", "jurisdiction": "", "jurisdiction_unit": ""}}, {"type": "Feature", "geometry": {"type": "Point", "coordinates": [-73.85002, 41.10663]}, "properties": {"id": "turn_022", "course_mi": 8.86, "ele_m": null, "direction": "right", "intensity": "normal", "label": "Eagle Hill", "label_type": "trail", "section": "Start \u2192 Finish", "snap_method": "geometry_only", "context": "", "jurisdiction": "", "jurisdiction_unit": ""}}, {"type": "Feature", "geometry": {"type": "Point", "coordinates": [-73.84413, 41.11737]}, "properties": {"id": "turn_023", "course_mi": 9.79, "ele_m": null, "direction": "left", "intensity": "normal", "label": "Thirteen Bridges Loop", "label_type": "trail", "section": "Start \u2192 Finish", "snap_method": "geometry_only", "context": "", "jurisdiction": "", "jurisdiction_unit": ""}}, {"type": "Feature", "geometry": {"type": "Point", "coordinates": [-73.8453, 41.11701]}, "properties": {"id": "turn_024", "course_mi": 9.86, "ele_m": null, "direction": "right", "intensity": "normal", "label": "Thirteen Bridges Loop", "label_type": "trail", "section": "Start \u2192 Finish", "snap_method": "geometry_only", "context": "", "jurisdiction": "", "jurisdiction_unit": ""}}, {"type": "Feature", "geometry": {"type": "Point", "coordinates": [-73.85013, 41.10958]}, "properties": {"id": "turn_025", "course_mi": 10.64, "ele_m": null, "direction": "right", "intensity": "normal", "label": "Thirteen Bridges Loop", "label_type": "trail", "section": "Start \u2192 Finish", "snap_method": "geometry_only", "context": "", "jurisdiction": "", "jurisdiction_unit": ""}}, {"type": "Feature", "geometry": {"type": "Point", "coordinates": [-73.86365, 41.11871]}, "properties": {"id": "turn_026", "course_mi": 11.89, "ele_m": null, "direction": "left", "intensity": "normal", "label": "Rockwood Hall Brook Trail", "label_type": "trail", "section": "Start \u2192 Finish", "snap_method": "geometry_only", "context": "", "jurisdiction": "", "jurisdiction_unit": ""}}, {"type": "Feature", "geometry": {"type": "Point", "coordinates": [-73.86393, 41.11822]}, "properties": {"id": "turn_027", "course_mi": 11.96, "ele_m": null, "direction": "right", "intensity": "sharp", "label": "Rockwood Hall Brook Trail", "label_type": "trail", "section": "Start \u2192 Finish", "snap_method": "geometry_only", "context": "", "jurisdiction": "", "jurisdiction_unit": ""}}, {"type": "Feature", "geometry": {"type": "Point", "coordinates": [-73.86739590624059, 41.120912728264145]}, "properties": {"id": "turn_028", "course_mi": 12.25, "ele_m": null, "direction": "left", "intensity": "normal", "label": "Rockwood Hall Brook Trail", "label_type": "trail", "section": "Start \u2192 Finish", "snap_method": "geometry_only", "context": "", "jurisdiction": "", "jurisdiction_unit": ""}}]}