<?xml version="1.0" encoding="UTF-8"?>
<gpx version="1.1" creator="false-summit-studio" xmlns="http://www.topografix.com/GPX/1/1" xmlns:xsi="http://www.w3.org/2001/XMLSchema-instance" xsi:schemaLocation="http://www.topografix.com/GPX/1/1 http://www.topografix.com/GPX/1/1/gpx.xsd">
  <metadata>
    <name>Pocantico Hills Half Marathon</name>
  </metadata>
  <trk>
    <name>Pocantico Hills Half Marathon</name>
    <trkseg>
      <trkpt lat="41.1125011224651" lon="-73.8656759262085"></trkpt>
      <trkpt lat="41.11247000000001" lon="-73.86567000000002"></trkpt>
      <trkpt lat="41.11223" lon="-73.86554999999998"></trkpt>
      <trkpt lat="41.11209" lon="-73.86553000000004"></trkpt>
      <trkpt lat="41.11209" lon="-73.86553000000004"></trkpt>
      <trkpt lat="41.11209" lon="-73.86553000000004"></trkpt>
      <trkpt lat="41.11209000000001" lon="-73.86553000000004"></trkpt>
      <trkpt lat="41.11209" lon="-73.86553000000004"></trkpt>
      <trkpt lat="41.11209" lon="-73.86553000000004"></trkpt>
      <trkpt lat="41.11208" lon="-73.86547999999999"></trkpt>
      <trkpt lat="41.11216" lon="-73.86529000000002"></trkpt>
      <trkpt lat="41.11231" lon="-73.86505"></trkpt>
      <trkpt lat="41.11236" lon="-73.86493999999999"></trkpt>
      <trkpt lat="41.11242" lon="-73.86451"></trkpt>
      <trkpt lat="41.11242" lon="-73.86451"></trkpt>
      <trkpt lat="41.11247" lon="-73.86433999999997"></trkpt>
      <trkpt lat="41.11247" lon="-73.86433999999997"></trkpt>
      <trkpt lat="41.11274" lon="-73.86394999999999"></trkpt>
      <trkpt lat="41.11283" lon="-73.86376000000001"></trkpt>
      <trkpt lat="41.11283" lon="-73.86376000000001"></trkpt>
      <trkpt lat="41.11283343381079" lon="-73.86375038532981"></trkpt>
      <trkpt lat="41.11283343381201" lon="-73.86375038532981"></trkpt>
      <trkpt lat="41.11283" lon="-73.86376000000001"></trkpt>
      <trkpt lat="41.11283000000001" lon="-73.86376000000001"></trkpt>
      <trkpt lat="41.11283" lon="-73.86376000000001"></trkpt>
      <trkpt lat="41.11283" lon="-73.86376000000001"></trkpt>
      <trkpt lat="41.11296" lon="-73.86385000000001"></trkpt>
      <trkpt lat="41.11322" lon="-73.86394000000001"></trkpt>
      <trkpt lat="41.11322" lon="-73.86394000000001"></trkpt>
      <trkpt lat="41.11343" lon="-73.86399"></trkpt>
      <trkpt lat="41.11352" lon="-73.86408"></trkpt>
      <trkpt lat="41.11375" lon="-73.86446000000001"></trkpt>
      <trkpt lat="41.1138" lon="-73.8646"></trkpt>
      <trkpt lat="41.11383" lon="-73.86484000000002"></trkpt>
      <trkpt lat="41.11383" lon="-73.86484000000002"></trkpt>
      <trkpt lat="41.113830000000014" lon="-73.86484000000002"></trkpt>
      <trkpt lat="41.113811620834156" lon="-73.86548939256204"></trkpt>
      <trkpt lat="41.11381" lon="-73.86549000000002"></trkpt>
      <trkpt lat="41.11389" lon="-73.86545999999998"></trkpt>
      <trkpt lat="41.11411" lon="-73.86527999999998"></trkpt>
      <trkpt lat="41.11428" lon="-73.86518999999998"></trkpt>
      <trkpt lat="41.11464" lon="-73.86508000000003"></trkpt>
      <trkpt lat="41.11567" lon="-73.86496999999997"></trkpt>
      <trkpt lat="41.11602" lon="-73.86495000000002"></trkpt>
      <trkpt lat="41.11602" lon="-73.86495000000002"></trkpt>
      <trkpt lat="41.11642" lon="-73.86500999999998"></trkpt>
      <trkpt lat="41.11642" lon="-73.86500999999998"></trkpt>
      <trkpt lat="41.11668" lon="-73.86498"></trkpt>
      <trkpt lat="41.11702" lon="-73.86511000000002"></trkpt>
      <trkpt lat="41.1172" lon="-73.86523999999997"></trkpt>
      <trkpt lat="41.11735" lon="-73.86543"></trkpt>
      <trkpt lat="41.11756" lon="-73.86574999999999"></trkpt>
      <trkpt lat="41.11758" lon="-73.86581999999999"></trkpt>
      <trkpt lat="41.11758" lon="-73.86581999999999"></trkpt>
      <trkpt lat="41.11803" lon="-73.86579999999998"></trkpt>
      <trkpt lat="41.11803" lon="-73.86579999999998"></trkpt>
      <trkpt lat="41.11803176233444" lon="-73.8658123363411"></trkpt>
      <trkpt lat="41.11803176233457" lon="-73.8658123363411"></trkpt>
      <trkpt lat="41.11804" lon="-73.86586999999997"></trkpt>
      <trkpt lat="41.11821" lon="-73.86592000000002"></trkpt>
      <trkpt lat="41.11865" lon="-73.86588"></trkpt>
      <trkpt lat="41.11881" lon="-73.86592999999999"></trkpt>
      <trkpt lat="41.11909" lon="-73.86608999999999"></trkpt>
      <trkpt lat="41.11928" lon="-73.86613999999997"></trkpt>
      <trkpt lat="41.11928" lon="-73.86613999999997"></trkpt>
      <trkpt lat="41.11929" lon="-73.86592000000002"></trkpt>
      <trkpt lat="41.11932" lon="-73.86581999999999"></trkpt>
      <trkpt lat="41.11931" lon="-73.86576000000002"></trkpt>
      <trkpt lat="41.11933" lon="-73.86554000000001"></trkpt>
      <trkpt lat="41.11931" lon="-73.86538000000002"></trkpt>
      <trkpt lat="41.11915" lon="-73.86505"></trkpt>
      <trkpt lat="41.11915" lon="-73.86505"></trkpt>
      <trkpt lat="41.11915" lon="-73.86505"></trkpt>
      <trkpt lat="41.11931" lon="-73.86538000000002"></trkpt>
      <trkpt lat="41.11915" lon="-73.86505"></trkpt>
      <trkpt lat="41.11915" lon="-73.86505"></trkpt>
      <trkpt lat="41.11901" lon="-73.86500999999998"></trkpt>
      <trkpt lat="41.11892" lon="-73.86490000000003"></trkpt>
      <trkpt lat="41.11892" lon="-73.86490000000003"></trkpt>
      <trkpt lat="41.11889" lon="-73.86478"></trkpt>
      <trkpt lat="41.11889" lon="-73.86478"></trkpt>
      <trkpt lat="41.11881" lon="-73.86471"></trkpt>
      <trkpt lat="41.11881" lon="-73.86471"></trkpt>
      <trkpt lat="41.11874" lon="-73.86469"></trkpt>
      <trkpt lat="41.11874" lon="-73.86469"></trkpt>
      <trkpt lat="41.11863" lon="-73.86459000000002"></trkpt>
      <trkpt lat="41.11861" lon="-73.86453"></trkpt>
      <trkpt lat="41.11861" lon="-73.86453"></trkpt>
      <trkpt lat="41.11859" lon="-73.86445000000003"></trkpt>
      <trkpt lat="41.11859" lon="-73.86445000000003"></trkpt>
      <trkpt lat="41.11855" lon="-73.86430000000001"></trkpt>
      <trkpt lat="41.1185" lon="-73.86421999999999"></trkpt>
      <trkpt lat="41.1185" lon="-73.86421999999999"></trkpt>
      <trkpt lat="41.11845" lon="-73.86418000000003"></trkpt>
      <trkpt lat="41.11845" lon="-73.86418000000003"></trkpt>
      <trkpt lat="41.11829" lon="-73.86403000000001"></trkpt>
      <trkpt lat="41.11822" lon="-73.86392999999998"></trkpt>
      <trkpt lat="41.11822" lon="-73.86392999999998"></trkpt>
      <trkpt lat="41.11818" lon="-73.86383000000001"></trkpt>
      <trkpt lat="41.11818" lon="-73.86383000000001"></trkpt>
      <trkpt lat="41.11815" lon="-73.86347"></trkpt>
      <trkpt lat="41.11815" lon="-73.86347"></trkpt>
      <trkpt lat="41.11814088324372" lon="-73.86332869027763"></trkpt>
      <trkpt lat="41.11814088324447" lon="-73.86332869027763"></trkpt>
      <trkpt lat="41.11815" lon="-73.86347"></trkpt>
      <trkpt lat="41.11815" lon="-73.86347"></trkpt>
      <trkpt lat="41.11842" lon="-73.86352999999997"></trkpt>
      <trkpt lat="41.11861" lon="-73.86367000000001"></trkpt>
      <trkpt lat="41.11867" lon="-73.86367999999999"></trkpt>
      <trkpt lat="41.11871" lon="-73.86365"></trkpt>
      <trkpt lat="41.11873" lon="-73.86354"></trkpt>
      <trkpt lat="41.1187" lon="-73.86322000000001"></trkpt>
      <trkpt lat="41.1187" lon="-73.86310000000003"></trkpt>
      <trkpt lat="41.11876" lon="-73.86295000000001"></trkpt>
      <trkpt lat="41.11881" lon="-73.86289999999997"></trkpt>
      <trkpt lat="41.11886" lon="-73.86291"></trkpt>
      <trkpt lat="41.11907" lon="-73.86316"></trkpt>
      <trkpt lat="41.11913" lon="-73.86319000000003"></trkpt>
      <trkpt lat="41.11922" lon="-73.86320999999998"></trkpt>
      <trkpt lat="41.11928" lon="-73.86316"></trkpt>
      <trkpt lat="41.11928" lon="-73.86316"></trkpt>
      <trkpt lat="41.119215044665594" lon="-73.86307256012674"></trkpt>
      <trkpt lat="41.11921504476209" lon="-73.86307256012674"></trkpt>
      <trkpt lat="41.11902" lon="-73.86280999999997"></trkpt>
      <trkpt lat="41.11889" lon="-73.86248"></trkpt>
      <trkpt lat="41.1188" lon="-73.86198000000002"></trkpt>
      <trkpt lat="41.11895" lon="-73.86091999999996"></trkpt>
      <trkpt lat="41.11895" lon="-73.86091999999996"></trkpt>
      <trkpt lat="41.11903" lon="-73.86031000000003"></trkpt>
      <trkpt lat="41.11903" lon="-73.86031000000003"></trkpt>
      <trkpt lat="41.11902" lon="-73.86003"></trkpt>
      <trkpt lat="41.11898921711625" lon="-73.85988634654245"></trkpt>
      <trkpt lat="41.11898921713014" lon="-73.85988634654245"></trkpt>
      <trkpt lat="41.11893" lon="-73.85960999999998"></trkpt>
      <trkpt lat="41.11886" lon="-73.8594"></trkpt>
      <trkpt lat="41.11876" lon="-73.85921000000002"></trkpt>
      <trkpt lat="41.11874100589503" lon="-73.8591891067274"></trkpt>
      <trkpt lat="41.11856" lon="-73.85899"></trkpt>
      <trkpt lat="41.11826" lon="-73.85872"></trkpt>
      <trkpt lat="41.11804" lon="-73.85858000000002"></trkpt>
      <trkpt lat="41.11772" lon="-73.85852"></trkpt>
      <trkpt lat="41.11751" lon="-73.85852"></trkpt>
      <trkpt lat="41.11613" lon="-73.85867000000002"></trkpt>
      <trkpt lat="41.11586" lon="-73.85876000000002"></trkpt>
      <trkpt lat="41.11546" lon="-73.85876000000002"></trkpt>
      <trkpt lat="41.11523" lon="-73.85870999999997"></trkpt>
      <trkpt lat="41.11463" lon="-73.85838999999999"></trkpt>
      <trkpt lat="41.11405102884901" lon="-73.85817556624039"></trkpt>
      <trkpt lat="41.11405103582083" lon="-73.85817556624039"></trkpt>
      <trkpt lat="41.11247" lon="-73.85759000000002"></trkpt>
      <trkpt lat="41.11247" lon="-73.85759000000002"></trkpt>
      <trkpt lat="41.11233" lon="-73.85753999999997"></trkpt>
      <trkpt lat="41.11233" lon="-73.85753999999997"></trkpt>
      <trkpt lat="41.11188" lon="-73.85738000000003"></trkpt>
      <trkpt lat="41.11169" lon="-73.85723000000002"></trkpt>
      <trkpt lat="41.11144" lon="-73.85680000000002"></trkpt>
      <trkpt lat="41.11101" lon="-73.85591999999997"></trkpt>
      <trkpt lat="41.11088" lon="-73.85572000000002"></trkpt>
      <trkpt lat="41.11034" lon="-73.85521"></trkpt>
      <trkpt lat="41.10978" lon="-73.85473000000002"></trkpt>
      <trkpt lat="41.1097" lon="-73.85458"></trkpt>
      <trkpt lat="41.10959" lon="-73.85424999999998"></trkpt>
      <trkpt lat="41.10959" lon="-73.85424999999998"></trkpt>
      <trkpt lat="41.10959" lon="-73.85424999999998"></trkpt>
      <trkpt lat="41.10946" lon="-73.85435000000001"></trkpt>
      <trkpt lat="41.10946" lon="-73.85435000000001"></trkpt>
      <trkpt lat="41.10936482006224" lon="-73.85441040150005"></trkpt>
      <trkpt lat="41.10936482006224" lon="-73.85441040150005"></trkpt>
      <trkpt lat="41.1091308704231" lon="-73.85455887077683"></trkpt>
      <trkpt lat="41.1091308704231" lon="-73.85455887077683"></trkpt>
      <trkpt lat="41.10905615567824" lon="-73.85460628551772"></trkpt>
      <trkpt lat="41.10905615567824" lon="-73.85460628551772"></trkpt>
      <trkpt lat="41.10894" lon="-73.85468000000003"></trkpt>
      <trkpt lat="41.10894" lon="-73.85468000000003"></trkpt>
      <trkpt lat="41.10891920887675" lon="-73.85469247467393"></trkpt>
      <trkpt lat="41.10891920889719" lon="-73.85469247467393"></trkpt>
      <trkpt lat="41.10879" lon="-73.85477000000003"></trkpt>
      <trkpt lat="41.10879" lon="-73.85477000000003"></trkpt>
      <trkpt lat="41.10844" lon="-73.85498000000001"></trkpt>
      <trkpt lat="41.10844" lon="-73.85498000000001"></trkpt>
      <trkpt lat="41.10844" lon="-73.85498000000001"></trkpt>
      <trkpt lat="41.10847" lon="-73.85528999999997"></trkpt>
      <trkpt lat="41.10848" lon="-73.85555999999997"></trkpt>
      <trkpt lat="41.10841" lon="-73.85579999999999"></trkpt>
      <trkpt lat="41.10834" lon="-73.85595999999998"></trkpt>
      <trkpt lat="41.10815" lon="-73.85618"></trkpt>
      <trkpt lat="41.10799" lon="-73.85631000000001"></trkpt>
      <trkpt lat="41.10788" lon="-73.85636"></trkpt>
      <trkpt lat="41.10788" lon="-73.85636"></trkpt>
      <trkpt lat="41.10788" lon="-73.85636"></trkpt>
      <trkpt lat="41.1077" lon="-73.85675000000003"></trkpt>
      <trkpt lat="41.10755" lon="-73.85685000000001"></trkpt>
      <trkpt lat="41.10737" lon="-73.85675000000003"></trkpt>
      <trkpt lat="41.10726" lon="-73.85675000000003"></trkpt>
      <trkpt lat="41.10719" lon="-73.85662000000002"></trkpt>
      <trkpt lat="41.10715" lon="-73.85647"></trkpt>
      <trkpt lat="41.10704" lon="-73.85633000000001"></trkpt>
      <trkpt lat="41.10691" lon="-73.85622999999998"></trkpt>
      <trkpt lat="41.10674" lon="-73.85629"></trkpt>
      <trkpt lat="41.10605" lon="-73.85627999999997"></trkpt>
      <trkpt lat="41.10582" lon="-73.85635000000002"></trkpt>
      <trkpt lat="41.10561" lon="-73.85651000000001"></trkpt>
      <trkpt lat="41.10545" lon="-73.85660000000001"></trkpt>
      <trkpt lat="41.10468" lon="-73.85687000000001"></trkpt>
      <trkpt lat="41.10448" lon="-73.8569"></trkpt>
      <trkpt lat="41.10434" lon="-73.85699"></trkpt>
      <trkpt lat="41.10415" lon="-73.85705000000002"></trkpt>
      <trkpt lat="41.10373" lon="-73.85721999999998"></trkpt>
      <trkpt lat="41.10359" lon="-73.85726999999997"></trkpt>
      <trkpt lat="41.10347576189149" lon="-73.85728087981988"></trkpt>
      <trkpt lat="41.103475761974785" lon="-73.85728087981988"></trkpt>
      <trkpt lat="41.10338" lon="-73.85729000000003"></trkpt>
      <trkpt lat="41.10316" lon="-73.85726"></trkpt>
      <trkpt lat="41.10276" lon="-73.85739000000001"></trkpt>
      <trkpt lat="41.10254" lon="-73.85750999999999"></trkpt>
      <trkpt lat="41.10228" lon="-73.85791"></trkpt>
      <trkpt lat="41.1022" lon="-73.85795999999999"></trkpt>
      <trkpt lat="41.10165" lon="-73.85784000000001"></trkpt>
      <trkpt lat="41.10156" lon="-73.85773"></trkpt>
      <trkpt lat="41.10127" lon="-73.85753999999997"></trkpt>
      <trkpt lat="41.10118" lon="-73.85755"></trkpt>
      <trkpt lat="41.10108" lon="-73.85762"></trkpt>
      <trkpt lat="41.10108" lon="-73.85762"></trkpt>
      <trkpt lat="41.10108" lon="-73.85762"></trkpt>
      <trkpt lat="41.10083" lon="-73.85759000000002"></trkpt>
      <trkpt lat="41.10055" lon="-73.85750999999999"></trkpt>
      <trkpt lat="41.10055" lon="-73.85750999999999"></trkpt>
      <trkpt lat="41.100548125910784" lon="-73.8575065641698"></trkpt>
      <trkpt lat="41.100548125911615" lon="-73.8575065641698"></trkpt>
      <trkpt lat="41.10049" lon="-73.85739999999998"></trkpt>
      <trkpt lat="41.10049" lon="-73.85730999999998"></trkpt>
      <trkpt lat="41.10053" lon="-73.85720000000003"></trkpt>
      <trkpt lat="41.10087" lon="-73.85678999999999"></trkpt>
      <trkpt lat="41.10133" lon="-73.85640999999998"></trkpt>
      <trkpt lat="41.10141" lon="-73.85638"></trkpt>
      <trkpt lat="41.1017" lon="-73.85638"></trkpt>
      <trkpt lat="41.10189" lon="-73.85631000000001"></trkpt>
      <trkpt lat="41.10189" lon="-73.85631000000001"></trkpt>
      <trkpt lat="41.10215" lon="-73.85622999999998"></trkpt>
      <trkpt lat="41.10219" lon="-73.85617000000002"></trkpt>
      <trkpt lat="41.10219" lon="-73.85617000000002"></trkpt>
      <trkpt lat="41.10219" lon="-73.85617000000002"></trkpt>
      <trkpt lat="41.10243" lon="-73.85624999999999"></trkpt>
      <trkpt lat="41.1026" lon="-73.85633999999999"></trkpt>
      <trkpt lat="41.10269" lon="-73.85635000000002"></trkpt>
      <trkpt lat="41.10281" lon="-73.85631000000001"></trkpt>
      <trkpt lat="41.10299" lon="-73.85615999999999"></trkpt>
      <trkpt lat="41.10306" lon="-73.85595999999998"></trkpt>
      <trkpt lat="41.10308" lon="-73.85579999999999"></trkpt>
      <trkpt lat="41.10316" lon="-73.85557"></trkpt>
      <trkpt lat="41.10335" lon="-73.85545000000002"></trkpt>
      <trkpt lat="41.10387" lon="-73.85525000000001"></trkpt>
      <trkpt lat="41.10476" lon="-73.85501"></trkpt>
      <trkpt lat="41.10569" lon="-73.85512"></trkpt>
      <trkpt lat="41.10615" lon="-73.8551"></trkpt>
      <trkpt lat="41.10652" lon="-73.85498000000001"></trkpt>
      <trkpt lat="41.10652" lon="-73.85498000000001"></trkpt>
      <trkpt lat="41.10667" lon="-73.85487"></trkpt>
      <trkpt lat="41.10687" lon="-73.85467"></trkpt>
      <trkpt lat="41.10704" lon="-73.85413"></trkpt>
      <trkpt lat="41.10726" lon="-73.85375999999997"></trkpt>
      <trkpt lat="41.10726" lon="-73.85375999999997"></trkpt>
      <trkpt lat="41.10748" lon="-73.85345999999998"></trkpt>
      <trkpt lat="41.10761" lon="-73.85333000000003"></trkpt>
      <trkpt lat="41.10779" lon="-73.85320999999999"></trkpt>
      <trkpt lat="41.10795" lon="-73.85318999999998"></trkpt>
      <trkpt lat="41.10795" lon="-73.85318756103516"></trkpt>
      <trkpt lat="41.107950000000024" lon="-73.85318756103516"></trkpt>
      <trkpt lat="41.10795" lon="-73.85312999999996"></trkpt>
      <trkpt lat="41.10782" lon="-73.85302999999999"></trkpt>
      <trkpt lat="41.10752" lon="-73.85293999999999"></trkpt>
      <trkpt lat="41.10707033577745" lon="-73.85284713456275"></trkpt>
      <trkpt lat="41.10707033577745" lon="-73.85284713456275"></trkpt>
      <trkpt lat="41.1066" lon="-73.85275000000001"></trkpt>
      <trkpt lat="41.10646" lon="-73.85273000000001"></trkpt>
      <trkpt lat="41.10612" lon="-73.85278"></trkpt>
      <trkpt lat="41.10588" lon="-73.85273999999998"></trkpt>
      <trkpt lat="41.10588449419339" lon="-73.85274074995203"></trkpt>
      <trkpt lat="41.10525" lon="-73.85338999999999"></trkpt>
      <trkpt lat="41.10485" lon="-73.85365000000002"></trkpt>
      <trkpt lat="41.10459" lon="-73.85390000000001"></trkpt>
      <trkpt lat="41.10355" lon="-73.8546"></trkpt>
      <trkpt lat="41.10311" lon="-73.85482999999999"></trkpt>
      <trkpt lat="41.10286931530426" lon="-73.85492332671879"></trkpt>
      <trkpt lat="41.102869315761126" lon="-73.85492332671879"></trkpt>
      <trkpt lat="41.10262" lon="-73.85501999999997"></trkpt>
      <trkpt lat="41.10262" lon="-73.85501999999997"></trkpt>
      <trkpt lat="41.10272" lon="-73.85532"></trkpt>
      <trkpt lat="41.10268" lon="-73.8555"></trkpt>
      <trkpt lat="41.10244" lon="-73.85595"></trkpt>
      <trkpt lat="41.10219" lon="-73.85617000000002"></trkpt>
      <trkpt lat="41.10219" lon="-73.85617000000002"></trkpt>
      <trkpt lat="41.10206" lon="-73.85611"></trkpt>
      <trkpt lat="41.10175" lon="-73.85613000000001"></trkpt>
      <trkpt lat="41.10148" lon="-73.85608000000002"></trkpt>
      <trkpt lat="41.10137" lon="-73.85609999999997"></trkpt>
      <trkpt lat="41.10114" lon="-73.85618999999997"></trkpt>
      <trkpt lat="41.10083" lon="-73.85636999999997"></trkpt>
      <trkpt lat="41.10048" lon="-73.85649000000001"></trkpt>
      <trkpt lat="41.10048" lon="-73.85649000000001"></trkpt>
      <trkpt lat="41.10001" lon="-73.85624999999999"></trkpt>
      <trkpt lat="41.10001" lon="-73.85624999999999"></trkpt>
      <trkpt lat="41.10001" lon="-73.85624999999999"></trkpt>
      <trkpt lat="41.100010000000005" lon="-73.85624999999999"></trkpt>
      <trkpt lat="41.09984" lon="-73.85615000000001"></trkpt>
      <trkpt lat="41.09984" lon="-73.85615000000001"></trkpt>
      <trkpt lat="41.0999" lon="-73.85612000000003"></trkpt>
      <trkpt lat="41.09995" lon="-73.85604000000001"></trkpt>
      <trkpt lat="41.10001" lon="-73.85586"></trkpt>
      <trkpt lat="41.10023" lon="-73.85564999999997"></trkpt>
      <trkpt lat="41.10037" lon="-73.85555999999997"></trkpt>
      <trkpt lat="41.10057" lon="-73.8555"></trkpt>
      <trkpt lat="41.10079" lon="-73.85537"></trkpt>
      <trkpt lat="41.10097" lon="-73.85523999999998"></trkpt>
      <trkpt lat="41.10112" lon="-73.85507000000001"></trkpt>
      <trkpt lat="41.1014" lon="-73.85482999999999"></trkpt>
      <trkpt lat="41.10186" lon="-73.85451"></trkpt>
      <trkpt lat="41.10248" lon="-73.85424"></trkpt>
      <trkpt lat="41.10248" lon="-73.85424"></trkpt>
      <trkpt lat="41.10261" lon="-73.85360000000003"></trkpt>
      <trkpt lat="41.10260390004828" lon="-73.8535542503621"></trkpt>
      <trkpt lat="41.10260390004893" lon="-73.8535542503621"></trkpt>
      <trkpt lat="41.10259" lon="-73.85345000000001"></trkpt>
      <trkpt lat="41.10231" lon="-73.85309999999998"></trkpt>
      <trkpt lat="41.10193" lon="-73.85250000000002"></trkpt>
      <trkpt lat="41.10193" lon="-73.85250000000002"></trkpt>
      <trkpt lat="41.10212" lon="-73.85223000000002"></trkpt>
      <trkpt lat="41.10212" lon="-73.85223000000002"></trkpt>
      <trkpt lat="41.10217" lon="-73.85212999999999"></trkpt>
      <trkpt lat="41.10217" lon="-73.85212999999999"></trkpt>
      <trkpt lat="41.10223" lon="-73.85194000000001"></trkpt>
      <trkpt lat="41.10223" lon="-73.85194000000001"></trkpt>
      <trkpt lat="41.10217451791358" lon="-73.85175274795836"></trkpt>
      <trkpt lat="41.10217451791358" lon="-73.85175274795836"></trkpt>
      <trkpt lat="41.10199" lon="-73.85113000000001"></trkpt>
      <trkpt lat="41.10178" lon="-73.85072000000002"></trkpt>
      <trkpt lat="41.10151" lon="-73.85046"></trkpt>
      <trkpt lat="41.10097" lon="-73.8501"></trkpt>
      <trkpt lat="41.10097" lon="-73.8501"></trkpt>
      <trkpt lat="41.1008" lon="-73.84996999999998"></trkpt>
      <trkpt lat="41.1007" lon="-73.84982000000002"></trkpt>
      <trkpt lat="41.10045" lon="-73.84908000000001"></trkpt>
      <trkpt lat="41.10045" lon="-73.84908000000001"></trkpt>
      <trkpt lat="41.10048811729577" lon="-73.84897367280655"></trkpt>
      <trkpt lat="41.10048811733983" lon="-73.84897367280655"></trkpt>
      <trkpt lat="41.10045" lon="-73.84908000000001"></trkpt>
      <trkpt lat="41.10045" lon="-73.84908000000001"></trkpt>
      <trkpt lat="41.10039" lon="-73.84929"></trkpt>
      <trkpt lat="41.10034" lon="-73.8494"></trkpt>
      <trkpt lat="41.10028" lon="-73.84944000000002"></trkpt>
      <trkpt lat="41.10021" lon="-73.84944000000002"></trkpt>
      <trkpt lat="41.10021" lon="-73.84944000000002"></trkpt>
      <trkpt lat="41.09994" lon="-73.84941000000003"></trkpt>
      <trkpt lat="41.09994" lon="-73.84941000000003"></trkpt>
      <trkpt lat="41.09987" lon="-73.84941000000003"></trkpt>
      <trkpt lat="41.099864659428306" lon="-73.84941013826608"></trkpt>
      <trkpt lat="41.09987" lon="-73.84980000000002"></trkpt>
      <trkpt lat="41.09989" lon="-73.8501"></trkpt>
      <trkpt lat="41.09989" lon="-73.8501"></trkpt>
      <trkpt lat="41.09992" lon="-73.85028999999997"></trkpt>
      <trkpt lat="41.10005" lon="-73.85054000000002"></trkpt>
      <trkpt lat="41.10005" lon="-73.85054000000002"></trkpt>
      <trkpt lat="41.10005" lon="-73.85054000000002"></trkpt>
      <trkpt lat="41.10003" lon="-73.85075999999998"></trkpt>
      <trkpt lat="41.10003" lon="-73.85075999999998"></trkpt>
      <trkpt lat="41.10003" lon="-73.85075999999998"></trkpt>
      <trkpt lat="41.09999" lon="-73.85079999999999"></trkpt>
      <trkpt lat="41.09905" lon="-73.85149999999999"></trkpt>
      <trkpt lat="41.09898" lon="-73.85154"></trkpt>
      <trkpt lat="41.09886" lon="-73.85154999999997"></trkpt>
      <trkpt lat="41.09842" lon="-73.85151000000002"></trkpt>
      <trkpt lat="41.0979" lon="-73.85154"></trkpt>
      <trkpt lat="41.09769" lon="-73.85167000000001"></trkpt>
      <trkpt lat="41.09716" lon="-73.85216000000003"></trkpt>
      <trkpt lat="41.09708852437795" lon="-73.85220594861414"></trkpt>
      <trkpt lat="41.09709" lon="-73.85221000000001"></trkpt>
      <trkpt lat="41.09707" lon="-73.85237999999998"></trkpt>
      <trkpt lat="41.09707" lon="-73.85237999999998"></trkpt>
      <trkpt lat="41.09707" lon="-73.85237999999998"></trkpt>
      <trkpt lat="41.09717" lon="-73.85275999999999"></trkpt>
      <trkpt lat="41.09726993602251" lon="-73.85336870122802"></trkpt>
      <trkpt lat="41.09670441702246" lon="-73.85309100151063"></trkpt>
      <trkpt lat="41.097264319151265" lon="-73.85336726903917"></trkpt>
      <trkpt lat="41.09717" lon="-73.85275999999999"></trkpt>
      <trkpt lat="41.09707" lon="-73.85237999999998"></trkpt>
      <trkpt lat="41.09707" lon="-73.85237999999998"></trkpt>
      <trkpt lat="41.09707" lon="-73.85237999999998"></trkpt>
      <trkpt lat="41.09709" lon="-73.85221000000001"></trkpt>
      <trkpt lat="41.09708852437795" lon="-73.85220594861414"></trkpt>
      <trkpt lat="41.09716" lon="-73.85216000000003"></trkpt>
      <trkpt lat="41.09769" lon="-73.85167000000001"></trkpt>
      <trkpt lat="41.09775347477583" lon="-73.85163070609116"></trkpt>
      <trkpt lat="41.0976944" lon="-73.8516708"></trkpt>
      <trkpt lat="41.0975863" lon="-73.8517607"></trkpt>
      <trkpt lat="41.0973253" lon="-73.852018"></trkpt>
      <trkpt lat="41.097157" lon="-73.852159"></trkpt>
      <trkpt lat="41.0970876" lon="-73.8522076"></trkpt>
      <trkpt lat="41.0970214" lon="-73.852254"></trkpt>
      <trkpt lat="41.0969107" lon="-73.8522812"></trkpt>
      <trkpt lat="41.096720587547956" lon="-73.85308027267457"></trkpt>
      <trkpt lat="41.09671124835856" lon="-73.85310405413085"></trkpt>
      <trkpt lat="41.09591" lon="-73.85255"></trkpt>
      <trkpt lat="41.09591" lon="-73.85255"></trkpt>
      <trkpt lat="41.09581" lon="-73.85249"></trkpt>
      <trkpt lat="41.09542" lon="-73.85206"></trkpt>
      <trkpt lat="41.09486" lon="-73.85164"></trkpt>
      <trkpt lat="41.09471" lon="-73.85145"></trkpt>
      <trkpt lat="41.0943" lon="-73.8512"></trkpt>
      <trkpt lat="41.09417" lon="-73.851"></trkpt>
      <trkpt lat="41.09406" lon="-73.85076"></trkpt>
      <trkpt lat="41.09398" lon="-73.85069"></trkpt>
      <trkpt lat="41.0939" lon="-73.85067"></trkpt>
      <trkpt lat="41.0938" lon="-73.85069"></trkpt>
      <trkpt lat="41.09344" lon="-73.85113"></trkpt>
      <trkpt lat="41.09333" lon="-73.85117"></trkpt>
      <trkpt lat="41.09324" lon="-73.85114"></trkpt>
      <trkpt lat="41.09315" lon="-73.85097"></trkpt>
      <trkpt lat="41.09315" lon="-73.85097"></trkpt>
      <trkpt lat="41.09315" lon="-73.85097"></trkpt>
      <trkpt lat="41.09315" lon="-73.85085"></trkpt>
      <trkpt lat="41.09331" lon="-73.85037"></trkpt>
      <trkpt lat="41.09345" lon="-73.8501"></trkpt>
      <trkpt lat="41.09345" lon="-73.8501"></trkpt>
      <trkpt lat="41.09368" lon="-73.84978"></trkpt>
      <trkpt lat="41.09368" lon="-73.84978"></trkpt>
      <trkpt lat="41.09368" lon="-73.84978"></trkpt>
      <trkpt lat="41.09374" lon="-73.84964"></trkpt>
      <trkpt lat="41.09374" lon="-73.84953"></trkpt>
      <trkpt lat="41.0937" lon="-73.84937"></trkpt>
      <trkpt lat="41.0937" lon="-73.84937"></trkpt>
      <trkpt lat="41.09332" lon="-73.84892"></trkpt>
      <trkpt lat="41.09332" lon="-73.84892"></trkpt>
      <trkpt lat="41.09314" lon="-73.8491"></trkpt>
      <trkpt lat="41.09308" lon="-73.84921"></trkpt>
      <trkpt lat="41.0929" lon="-73.84957"></trkpt>
      <trkpt lat="41.09268" lon="-73.8501"></trkpt>
      <trkpt lat="41.09268" lon="-73.8501"></trkpt>
      <trkpt lat="41.09257" lon="-73.85035"></trkpt>
      <trkpt lat="41.09249" lon="-73.85042"></trkpt>
      <trkpt lat="41.09239" lon="-73.85044"></trkpt>
      <trkpt lat="41.09224" lon="-73.85034"></trkpt>
      <trkpt lat="41.09224" lon="-73.85034"></trkpt>
      <trkpt lat="41.09226450356708" lon="-73.85026648929875"></trkpt>
      <trkpt lat="41.09226450357743" lon="-73.85026648929875"></trkpt>
      <trkpt lat="41.09232" lon="-73.8501"></trkpt>
      <trkpt lat="41.09232" lon="-73.8501"></trkpt>
      <trkpt lat="41.09253" lon="-73.84933"></trkpt>
      <trkpt lat="41.09268" lon="-73.84828"></trkpt>
      <trkpt lat="41.09276" lon="-73.84812"></trkpt>
      <trkpt lat="41.09288" lon="-73.848"></trkpt>
      <trkpt lat="41.09305" lon="-73.84792"></trkpt>
      <trkpt lat="41.09379" lon="-73.84785"></trkpt>
      <trkpt lat="41.09465" lon="-73.84765"></trkpt>
      <trkpt lat="41.09525" lon="-73.84761"></trkpt>
      <trkpt lat="41.09591" lon="-73.84726"></trkpt>
      <trkpt lat="41.09591" lon="-73.84726"></trkpt>
      <trkpt lat="41.09606" lon="-73.84723"></trkpt>
      <trkpt lat="41.0963" lon="-73.84712"></trkpt>
      <trkpt lat="41.09659" lon="-73.84688"></trkpt>
      <trkpt lat="41.09674" lon="-73.84671"></trkpt>
      <trkpt lat="41.09689" lon="-73.84647"></trkpt>
      <trkpt lat="41.09741" lon="-73.84539"></trkpt>
      <trkpt lat="41.09747" lon="-73.8453"></trkpt>
      <trkpt lat="41.09754" lon="-73.84523"></trkpt>
      <trkpt lat="41.09754" lon="-73.84523"></trkpt>
      <trkpt lat="41.09754" lon="-73.84523"></trkpt>
      <trkpt lat="41.09754000000001" lon="-73.84523"></trkpt>
      <trkpt lat="41.09754" lon="-73.84523"></trkpt>
      <trkpt lat="41.09754" lon="-73.84523"></trkpt>
      <trkpt lat="41.0975546569167" lon="-73.84529380181243"></trkpt>
      <trkpt lat="41.0975546569167" lon="-73.84529380181243"></trkpt>
      <trkpt lat="41.09771" lon="-73.84597"></trkpt>
      <trkpt lat="41.09775" lon="-73.84625"></trkpt>
      <trkpt lat="41.09773" lon="-73.84662"></trkpt>
      <trkpt lat="41.09763" lon="-73.84691"></trkpt>
      <trkpt lat="41.09746" lon="-73.84715"></trkpt>
      <trkpt lat="41.09667" lon="-73.84774"></trkpt>
      <trkpt lat="41.09641" lon="-73.84786"></trkpt>
      <trkpt lat="41.09591" lon="-73.84799"></trkpt>
      <trkpt lat="41.09591" lon="-73.84799"></trkpt>
      <trkpt lat="41.09502" lon="-73.84822"></trkpt>
      <trkpt lat="41.09416" lon="-73.84856"></trkpt>
      <trkpt lat="41.09368" lon="-73.84869"></trkpt>
      <trkpt lat="41.09348" lon="-73.84878"></trkpt>
      <trkpt lat="41.09332" lon="-73.84892"></trkpt>
      <trkpt lat="41.09332" lon="-73.84892"></trkpt>
      <trkpt lat="41.09335060939425" lon="-73.84895624796688"></trkpt>
      <trkpt lat="41.09335060947565" lon="-73.84895624796688"></trkpt>
      <trkpt lat="41.0937" lon="-73.84937"></trkpt>
      <trkpt lat="41.0937" lon="-73.84937"></trkpt>
      <trkpt lat="41.0937" lon="-73.84937"></trkpt>
      <trkpt lat="41.09383" lon="-73.84946"></trkpt>
      <trkpt lat="41.09402" lon="-73.84952"></trkpt>
      <trkpt lat="41.09402" lon="-73.84952"></trkpt>
      <trkpt lat="41.0941" lon="-73.84951"></trkpt>
      <trkpt lat="41.09435" lon="-73.84964"></trkpt>
      <trkpt lat="41.09473463605833" lon="-73.84998025497467"></trkpt>
      <trkpt lat="41.09474" lon="-73.84997"></trkpt>
      <trkpt lat="41.09504" lon="-73.84998"></trkpt>
      <trkpt lat="41.09571" lon="-73.85005"></trkpt>
      <trkpt lat="41.09591" lon="-73.84999"></trkpt>
      <trkpt lat="41.09591" lon="-73.84999"></trkpt>
      <trkpt lat="41.0965" lon="-73.84975"></trkpt>
      <trkpt lat="41.09775" lon="-73.84915"></trkpt>
      <trkpt lat="41.09775" lon="-73.84915"></trkpt>
      <trkpt lat="41.09831" lon="-73.8488"></trkpt>
      <trkpt lat="41.09872" lon="-73.8486"></trkpt>
      <trkpt lat="41.09872" lon="-73.8486"></trkpt>
      <trkpt lat="41.09878" lon="-73.84857"></trkpt>
      <trkpt lat="41.09878" lon="-73.84857"></trkpt>
      <trkpt lat="41.09891" lon="-73.84853"></trkpt>
      <trkpt lat="41.09891" lon="-73.84853"></trkpt>
      <trkpt lat="41.09897" lon="-73.84852"></trkpt>
      <trkpt lat="41.09897" lon="-73.84852"></trkpt>
      <trkpt lat="41.09928" lon="-73.84848"></trkpt>
      <trkpt lat="41.09937" lon="-73.84844"></trkpt>
      <trkpt lat="41.09941" lon="-73.84836"></trkpt>
      <trkpt lat="41.09940403617925" lon="-73.84836645788681"></trkpt>
      <trkpt lat="41.09945" lon="-73.84844"></trkpt>
      <trkpt lat="41.099473024302675" lon="-73.84845601690621"></trkpt>
      <trkpt lat="41.09947302433892" lon="-73.84845601690621"></trkpt>
      <trkpt lat="41.09945" lon="-73.84844"></trkpt>
      <trkpt lat="41.09940403617925" lon="-73.84836645788681"></trkpt>
      <trkpt lat="41.09941" lon="-73.84836"></trkpt>
      <trkpt lat="41.09944" lon="-73.84833"></trkpt>
      <trkpt lat="41.09968" lon="-73.84835"></trkpt>
      <trkpt lat="41.0998" lon="-73.84841"></trkpt>
      <trkpt lat="41.09994" lon="-73.84857"></trkpt>
      <trkpt lat="41.10019" lon="-73.84878"></trkpt>
      <trkpt lat="41.10019" lon="-73.84878"></trkpt>
      <trkpt lat="41.10025" lon="-73.84885"></trkpt>
      <trkpt lat="41.10025" lon="-73.84885"></trkpt>
      <trkpt lat="41.10045" lon="-73.84908"></trkpt>
      <trkpt lat="41.10045" lon="-73.84908"></trkpt>
      <trkpt lat="41.10064" lon="-73.84855"></trkpt>
      <trkpt lat="41.10112" lon="-73.8478"></trkpt>
      <trkpt lat="41.10162" lon="-73.84737"></trkpt>
      <trkpt lat="41.10187" lon="-73.84701"></trkpt>
      <trkpt lat="41.10202" lon="-73.84686"></trkpt>
      <trkpt lat="41.10218" lon="-73.84673"></trkpt>
      <trkpt lat="41.10244" lon="-73.84662"></trkpt>
      <trkpt lat="41.10262" lon="-73.84617"></trkpt>
      <trkpt lat="41.10266" lon="-73.8461"></trkpt>
      <trkpt lat="41.10279" lon="-73.846"></trkpt>
      <trkpt lat="41.102833979853784" lon="-73.84598350755483"></trkpt>
      <trkpt lat="41.102833979919424" lon="-73.84598350755483"></trkpt>
      <trkpt lat="41.10303" lon="-73.84591"></trkpt>
      <trkpt lat="41.10344" lon="-73.84587"></trkpt>
      <trkpt lat="41.10377" lon="-73.84599"></trkpt>
      <trkpt lat="41.10424" lon="-73.84637"></trkpt>
      <trkpt lat="41.10445" lon="-73.84647"></trkpt>
      <trkpt lat="41.10468" lon="-73.8467"></trkpt>
      <trkpt lat="41.10488" lon="-73.84675"></trkpt>
      <trkpt lat="41.10548" lon="-73.84669"></trkpt>
      <trkpt lat="41.1056" lon="-73.84666"></trkpt>
      <trkpt lat="41.1056" lon="-73.84666"></trkpt>
      <trkpt lat="41.1056" lon="-73.84666"></trkpt>
      <trkpt lat="41.10554" lon="-73.84684"></trkpt>
      <trkpt lat="41.10555" lon="-73.84693"></trkpt>
      <trkpt lat="41.1056" lon="-73.847"></trkpt>
      <trkpt lat="41.10576" lon="-73.84716"></trkpt>
      <trkpt lat="41.10598" lon="-73.8475"></trkpt>
      <trkpt lat="41.10618" lon="-73.84774"></trkpt>
      <trkpt lat="41.106281692199794" lon="-73.84782513765563"></trkpt>
      <trkpt lat="41.10628169245402" lon="-73.84782513765565"></trkpt>
      <trkpt lat="41.10661" lon="-73.8481"></trkpt>
      <trkpt lat="41.10666" lon="-73.84819"></trkpt>
      <trkpt lat="41.10667" lon="-73.84826"></trkpt>
      <trkpt lat="41.10665" lon="-73.84832"></trkpt>
      <trkpt lat="41.10647" lon="-73.84853"></trkpt>
      <trkpt lat="41.10643" lon="-73.84867"></trkpt>
      <trkpt lat="41.10669" lon="-73.84941"></trkpt>
      <trkpt lat="41.10698" lon="-73.84988"></trkpt>
      <trkpt lat="41.10698" lon="-73.84988"></trkpt>
      <trkpt lat="41.10691" lon="-73.85001"></trkpt>
      <trkpt lat="41.10691" lon="-73.85001"></trkpt>
      <trkpt lat="41.10675" lon="-73.85005"></trkpt>
      <trkpt lat="41.10663" lon="-73.85002"></trkpt>
      <trkpt lat="41.10637" lon="-73.84978"></trkpt>
      <trkpt lat="41.10627" lon="-73.84957"></trkpt>
      <trkpt lat="41.10611" lon="-73.84884"></trkpt>
      <trkpt lat="41.10602" lon="-73.84871"></trkpt>
      <trkpt lat="41.10593" lon="-73.84865"></trkpt>
      <trkpt lat="41.10548" lon="-73.84849"></trkpt>
      <trkpt lat="41.1052" lon="-73.84831"></trkpt>
      <trkpt lat="41.10505" lon="-73.84829"></trkpt>
      <trkpt lat="41.10492" lon="-73.84834"></trkpt>
      <trkpt lat="41.10439" lon="-73.84894"></trkpt>
      <trkpt lat="41.10439" lon="-73.84894"></trkpt>
      <trkpt lat="41.10439" lon="-73.84894"></trkpt>
      <trkpt lat="41.10435" lon="-73.84896"></trkpt>
      <trkpt lat="41.10425" lon="-73.84902"></trkpt>
      <trkpt lat="41.10409" lon="-73.8492"></trkpt>
      <trkpt lat="41.10374" lon="-73.84941"></trkpt>
      <trkpt lat="41.10369" lon="-73.84947"></trkpt>
      <trkpt lat="41.10359" lon="-73.8497"></trkpt>
      <trkpt lat="41.10351" lon="-73.84983"></trkpt>
      <trkpt lat="41.10343" lon="-73.84986"></trkpt>
      <trkpt lat="41.10331" lon="-73.84983"></trkpt>
      <trkpt lat="41.10326" lon="-73.84986"></trkpt>
      <trkpt lat="41.103254452255925" lon="-73.8499210251849"></trkpt>
      <trkpt lat="41.10325445225613" lon="-73.8499210251849"></trkpt>
      <trkpt lat="41.10325" lon="-73.84997"></trkpt>
      <trkpt lat="41.10331" lon="-73.8501"></trkpt>
      <trkpt lat="41.10331" lon="-73.8501"></trkpt>
      <trkpt lat="41.10338" lon="-73.85022"></trkpt>
      <trkpt lat="41.10338" lon="-73.85022"></trkpt>
      <trkpt lat="41.10363" lon="-73.85043"></trkpt>
      <trkpt lat="41.10384" lon="-73.85054"></trkpt>
      <trkpt lat="41.10401" lon="-73.85059"></trkpt>
      <trkpt lat="41.10426" lon="-73.85051"></trkpt>
      <trkpt lat="41.10477" lon="-73.85012"></trkpt>
      <trkpt lat="41.10488" lon="-73.8501"></trkpt>
      <trkpt lat="41.10488" lon="-73.8501"></trkpt>
      <trkpt lat="41.10522" lon="-73.85004"></trkpt>
      <trkpt lat="41.1054" lon="-73.84992"></trkpt>
      <trkpt lat="41.10552" lon="-73.84981"></trkpt>
      <trkpt lat="41.10562088974088" lon="-73.84964185043188"></trkpt>
      <trkpt lat="41.105620889755535" lon="-73.84964185043188"></trkpt>
      <trkpt lat="41.10564" lon="-73.84961"></trkpt>
      <trkpt lat="41.1057" lon="-73.84948"></trkpt>
      <trkpt lat="41.10569" lon="-73.84934"></trkpt>
      <trkpt lat="41.10563" lon="-73.84919"></trkpt>
      <trkpt lat="41.10551" lon="-73.84912"></trkpt>
      <trkpt lat="41.10529" lon="-73.84906"></trkpt>
      <trkpt lat="41.10482" lon="-73.8491"></trkpt>
      <trkpt lat="41.10459" lon="-73.84908"></trkpt>
      <trkpt lat="41.10446" lon="-73.84904"></trkpt>
      <trkpt lat="41.10445697067602" lon="-73.84903567239431"></trkpt>
      <trkpt lat="41.104578991854936" lon="-73.84911060333253"></trkpt>
      <trkpt lat="41.10458462711103" lon="-73.84907834680183"></trkpt>
      <trkpt lat="41.10446" lon="-73.84904"></trkpt>
      <trkpt lat="41.10439" lon="-73.84894"></trkpt>
      <trkpt lat="41.10439" lon="-73.84894"></trkpt>
      <trkpt lat="41.10492" lon="-73.84834"></trkpt>
      <trkpt lat="41.10505" lon="-73.84829"></trkpt>
      <trkpt lat="41.1052" lon="-73.84831"></trkpt>
      <trkpt lat="41.10548" lon="-73.84849"></trkpt>
      <trkpt lat="41.10593" lon="-73.84865"></trkpt>
      <trkpt lat="41.10602" lon="-73.84871"></trkpt>
      <trkpt lat="41.10611" lon="-73.84884"></trkpt>
      <trkpt lat="41.10627" lon="-73.84957"></trkpt>
      <trkpt lat="41.10637" lon="-73.84978"></trkpt>
      <trkpt lat="41.10663" lon="-73.85002"></trkpt>
      <trkpt lat="41.10675" lon="-73.85005"></trkpt>
      <trkpt lat="41.10691" lon="-73.85001"></trkpt>
      <trkpt lat="41.10691" lon="-73.85001"></trkpt>
      <trkpt lat="41.10698" lon="-73.84988"></trkpt>
      <trkpt lat="41.10698" lon="-73.84988"></trkpt>
      <trkpt lat="41.107" lon="-73.8498"></trkpt>
      <trkpt lat="41.10736" lon="-73.84952"></trkpt>
      <trkpt lat="41.10761" lon="-73.84948"></trkpt>
      <trkpt lat="41.10761" lon="-73.84948"></trkpt>
      <trkpt lat="41.10796879587415" lon="-73.84944013360942"></trkpt>
      <trkpt lat="41.10796879587415" lon="-73.84944013360942"></trkpt>
      <trkpt lat="41.10815" lon="-73.84942"></trkpt>
      <trkpt lat="41.10815" lon="-73.84942"></trkpt>
      <trkpt lat="41.10839" lon="-73.84936"></trkpt>
      <trkpt lat="41.10869" lon="-73.84903"></trkpt>
      <trkpt lat="41.10886" lon="-73.8489"></trkpt>
      <trkpt lat="41.10903" lon="-73.849"></trkpt>
      <trkpt lat="41.10922" lon="-73.84906"></trkpt>
      <trkpt lat="41.10951" lon="-73.84896"></trkpt>
      <trkpt lat="41.10984" lon="-73.84888"></trkpt>
      <trkpt lat="41.11014" lon="-73.84876"></trkpt>
      <trkpt lat="41.11046320803234" lon="-73.84851759397574"></trkpt>
      <trkpt lat="41.110463208910545" lon="-73.84851759397574"></trkpt>
      <trkpt lat="41.11082" lon="-73.84825"></trkpt>
      <trkpt lat="41.11106" lon="-73.84814"></trkpt>
      <trkpt lat="41.1113" lon="-73.84797"></trkpt>
      <trkpt lat="41.11142" lon="-73.84776"></trkpt>
      <trkpt lat="41.11155" lon="-73.84763"></trkpt>
      <trkpt lat="41.11167" lon="-73.8476"></trkpt>
      <trkpt lat="41.11195" lon="-73.84759"></trkpt>
      <trkpt lat="41.11219" lon="-73.8475"></trkpt>
      <trkpt lat="41.11234" lon="-73.84729"></trkpt>
      <trkpt lat="41.11247" lon="-73.84702"></trkpt>
      <trkpt lat="41.11247" lon="-73.84702"></trkpt>
      <trkpt lat="41.11257" lon="-73.84679"></trkpt>
      <trkpt lat="41.11261" lon="-73.84645"></trkpt>
      <trkpt lat="41.113" lon="-73.84604"></trkpt>
      <trkpt lat="41.11309" lon="-73.84591"></trkpt>
      <trkpt lat="41.11319" lon="-73.84566"></trkpt>
      <trkpt lat="41.11326" lon="-73.84544"></trkpt>
      <trkpt lat="41.11338" lon="-73.84538"></trkpt>
      <trkpt lat="41.1135" lon="-73.84544"></trkpt>
      <trkpt lat="41.11394" lon="-73.8458"></trkpt>
      <trkpt lat="41.11409" lon="-73.84596"></trkpt>
      <trkpt lat="41.11409" lon="-73.84596"></trkpt>
      <trkpt lat="41.11409" lon="-73.84596"></trkpt>
      <trkpt lat="41.11429" lon="-73.84611"></trkpt>
      <trkpt lat="41.1145" lon="-73.84613"></trkpt>
      <trkpt lat="41.1146" lon="-73.84605"></trkpt>
      <trkpt lat="41.11488" lon="-73.84569"></trkpt>
      <trkpt lat="41.11495" lon="-73.84537"></trkpt>
      <trkpt lat="41.11499" lon="-73.84528"></trkpt>
      <trkpt lat="41.11511" lon="-73.84511"></trkpt>
      <trkpt lat="41.11553" lon="-73.84471"></trkpt>
      <trkpt lat="41.1157" lon="-73.84422"></trkpt>
      <trkpt lat="41.11581" lon="-73.84406"></trkpt>
      <trkpt lat="41.11599" lon="-73.84393"></trkpt>
      <trkpt lat="41.11653" lon="-73.84375"></trkpt>
      <trkpt lat="41.11673" lon="-73.84377"></trkpt>
      <trkpt lat="41.11722" lon="-73.84399"></trkpt>
      <trkpt lat="41.11733" lon="-73.84407"></trkpt>
      <trkpt lat="41.11737" lon="-73.84413"></trkpt>
      <trkpt lat="41.11736" lon="-73.84425"></trkpt>
      <trkpt lat="41.11737" lon="-73.84413"></trkpt>
      <trkpt lat="41.11736" lon="-73.84425"></trkpt>
      <trkpt lat="41.11708" lon="-73.84472"></trkpt>
      <trkpt lat="41.11704" lon="-73.84484"></trkpt>
      <trkpt lat="41.117" lon="-73.84516"></trkpt>
      <trkpt lat="41.11701" lon="-73.8453"></trkpt>
      <trkpt lat="41.11707" lon="-73.84541"></trkpt>
      <trkpt lat="41.11715" lon="-73.84544"></trkpt>
      <trkpt lat="41.11725" lon="-73.84544"></trkpt>
      <trkpt lat="41.11754" lon="-73.84538"></trkpt>
      <trkpt lat="41.11765" lon="-73.84544"></trkpt>
      <trkpt lat="41.11772" lon="-73.84559"></trkpt>
      <trkpt lat="41.11779" lon="-73.84593"></trkpt>
      <trkpt lat="41.11789" lon="-73.84599"></trkpt>
      <trkpt lat="41.1183" lon="-73.84608"></trkpt>
      <trkpt lat="41.11844" lon="-73.84621"></trkpt>
      <trkpt lat="41.11772" lon="-73.84655"></trkpt>
      <trkpt lat="41.11708" lon="-73.84708"></trkpt>
      <trkpt lat="41.11644" lon="-73.84733"></trkpt>
      <trkpt lat="41.11644" lon="-73.84733"></trkpt>
      <trkpt lat="41.11644" lon="-73.84733"></trkpt>
      <trkpt lat="41.1162" lon="-73.8475"></trkpt>
      <trkpt lat="41.11592" lon="-73.84765"></trkpt>
      <trkpt lat="41.11579" lon="-73.84769"></trkpt>
      <trkpt lat="41.11544" lon="-73.84772"></trkpt>
      <trkpt lat="41.11515" lon="-73.84784"></trkpt>
      <trkpt lat="41.11504" lon="-73.84793"></trkpt>
      <trkpt lat="41.11504" lon="-73.84793"></trkpt>
      <trkpt lat="41.11495" lon="-73.84803"></trkpt>
      <trkpt lat="41.11495" lon="-73.84803"></trkpt>
      <trkpt lat="41.11472" lon="-73.84826"></trkpt>
      <trkpt lat="41.11439" lon="-73.84825"></trkpt>
      <trkpt lat="41.11439" lon="-73.84825"></trkpt>
      <trkpt lat="41.11431" lon="-73.84823"></trkpt>
      <trkpt lat="41.11431" lon="-73.84823"></trkpt>
      <trkpt lat="41.1142" lon="-73.84822"></trkpt>
      <trkpt lat="41.11399" lon="-73.84829"></trkpt>
      <trkpt lat="41.11392" lon="-73.84835"></trkpt>
      <trkpt lat="41.11392" lon="-73.84835"></trkpt>
      <trkpt lat="41.11384" lon="-73.84842"></trkpt>
      <trkpt lat="41.11384" lon="-73.84842"></trkpt>
      <trkpt lat="41.11375" lon="-73.8485"></trkpt>
      <trkpt lat="41.11364" lon="-73.84851"></trkpt>
      <trkpt lat="41.11364" lon="-73.84851"></trkpt>
      <trkpt lat="41.11357" lon="-73.84848"></trkpt>
      <trkpt lat="41.11357" lon="-73.84848"></trkpt>
      <trkpt lat="41.11338" lon="-73.84848"></trkpt>
      <trkpt lat="41.11309" lon="-73.84861"></trkpt>
      <trkpt lat="41.11278" lon="-73.84871"></trkpt>
      <trkpt lat="41.11271" lon="-73.84877"></trkpt>
      <trkpt lat="41.11271" lon="-73.84877"></trkpt>
      <trkpt lat="41.11266" lon="-73.84881"></trkpt>
      <trkpt lat="41.11266" lon="-73.84881"></trkpt>
      <trkpt lat="41.11247" lon="-73.84896"></trkpt>
      <trkpt lat="41.11247" lon="-73.84896"></trkpt>
      <trkpt lat="41.11232" lon="-73.84906"></trkpt>
      <trkpt lat="41.11205" lon="-73.84913"></trkpt>
      <trkpt lat="41.11205" lon="-73.84913"></trkpt>
      <trkpt lat="41.11198" lon="-73.84913"></trkpt>
      <trkpt lat="41.11198" lon="-73.84913"></trkpt>
      <trkpt lat="41.11157" lon="-73.84921"></trkpt>
      <trkpt lat="41.11157" lon="-73.84921"></trkpt>
      <trkpt lat="41.1115" lon="-73.84926"></trkpt>
      <trkpt lat="41.1115" lon="-73.84926"></trkpt>
      <trkpt lat="41.11119" lon="-73.84947"></trkpt>
      <trkpt lat="41.11119" lon="-73.84947"></trkpt>
      <trkpt lat="41.11113" lon="-73.8495"></trkpt>
      <trkpt lat="41.11113" lon="-73.8495"></trkpt>
      <trkpt lat="41.11107" lon="-73.84952"></trkpt>
      <trkpt lat="41.11107" lon="-73.84952"></trkpt>
      <trkpt lat="41.11103" lon="-73.84954"></trkpt>
      <trkpt lat="41.11103" lon="-73.84954"></trkpt>
      <trkpt lat="41.11100624322633" lon="-73.84954950270946"></trkpt>
      <trkpt lat="41.11100624323108" lon="-73.84954950270946"></trkpt>
      <trkpt lat="41.11098" lon="-73.84956"></trkpt>
      <trkpt lat="41.11098" lon="-73.84956"></trkpt>
      <trkpt lat="41.11094" lon="-73.84958"></trkpt>
      <trkpt lat="41.11094" lon="-73.84958"></trkpt>
      <trkpt lat="41.11066" lon="-73.8497"></trkpt>
      <trkpt lat="41.11021" lon="-73.85"></trkpt>
      <trkpt lat="41.10995" lon="-73.85006"></trkpt>
      <trkpt lat="41.10973" lon="-73.85007"></trkpt>
      <trkpt lat="41.10973" lon="-73.85007"></trkpt>
      <trkpt lat="41.10966" lon="-73.85008"></trkpt>
      <trkpt lat="41.10964" lon="-73.8501"></trkpt>
      <trkpt lat="41.10958" lon="-73.85013"></trkpt>
      <trkpt lat="41.10958" lon="-73.85013"></trkpt>
      <trkpt lat="41.10962" lon="-73.85056"></trkpt>
      <trkpt lat="41.1096" lon="-73.85097"></trkpt>
      <trkpt lat="41.1095" lon="-73.85181"></trkpt>
      <trkpt lat="41.10956" lon="-73.85266"></trkpt>
      <trkpt lat="41.10968" lon="-73.85315"></trkpt>
      <trkpt lat="41.10969" lon="-73.85324"></trkpt>
      <trkpt lat="41.10959" lon="-73.85365"></trkpt>
      <trkpt lat="41.10963" lon="-73.85417"></trkpt>
      <trkpt lat="41.10959" lon="-73.85425"></trkpt>
      <trkpt lat="41.10959" lon="-73.85425"></trkpt>
      <trkpt lat="41.10959" lon="-73.85425"></trkpt>
      <trkpt lat="41.10962622030703" lon="-73.8543586609211"></trkpt>
      <trkpt lat="41.109626220327385" lon="-73.85435866092108"></trkpt>
      <trkpt lat="41.1097" lon="-73.85458"></trkpt>
      <trkpt lat="41.10978" lon="-73.85473"></trkpt>
      <trkpt lat="41.11034" lon="-73.85521"></trkpt>
      <trkpt lat="41.11088" lon="-73.85572"></trkpt>
      <trkpt lat="41.11101" lon="-73.85592"></trkpt>
      <trkpt lat="41.11144" lon="-73.8568"></trkpt>
      <trkpt lat="41.11169" lon="-73.85723"></trkpt>
      <trkpt lat="41.11188" lon="-73.85738"></trkpt>
      <trkpt lat="41.11233" lon="-73.85754"></trkpt>
      <trkpt lat="41.11233" lon="-73.85754"></trkpt>
      <trkpt lat="41.11247" lon="-73.85759"></trkpt>
      <trkpt lat="41.11247" lon="-73.85759"></trkpt>
      <trkpt lat="41.11463" lon="-73.85839"></trkpt>
      <trkpt lat="41.11523" lon="-73.85871"></trkpt>
      <trkpt lat="41.11546" lon="-73.85876"></trkpt>
      <trkpt lat="41.11586" lon="-73.85876"></trkpt>
      <trkpt lat="41.11613" lon="-73.85867"></trkpt>
      <trkpt lat="41.11751" lon="-73.85852"></trkpt>
      <trkpt lat="41.11772" lon="-73.85852"></trkpt>
      <trkpt lat="41.11804" lon="-73.85858"></trkpt>
      <trkpt lat="41.11826" lon="-73.85872"></trkpt>
      <trkpt lat="41.11856" lon="-73.85899"></trkpt>
      <trkpt lat="41.11874100589503" lon="-73.85918910672743"></trkpt>
      <trkpt lat="41.11876" lon="-73.85921"></trkpt>
      <trkpt lat="41.11886" lon="-73.8594"></trkpt>
      <trkpt lat="41.11893" lon="-73.85961"></trkpt>
      <trkpt lat="41.11902" lon="-73.86003"></trkpt>
      <trkpt lat="41.11903" lon="-73.86031"></trkpt>
      <trkpt lat="41.11903" lon="-73.86031"></trkpt>
      <trkpt lat="41.11895" lon="-73.86092"></trkpt>
      <trkpt lat="41.11895" lon="-73.86092"></trkpt>
      <trkpt lat="41.118917550547664" lon="-73.86114930946317"></trkpt>
      <trkpt lat="41.11891755057672" lon="-73.86114930946317"></trkpt>
      <trkpt lat="41.1188" lon="-73.86198"></trkpt>
      <trkpt lat="41.11889" lon="-73.86248"></trkpt>
      <trkpt lat="41.11902" lon="-73.86281"></trkpt>
      <trkpt lat="41.11928" lon="-73.86316"></trkpt>
      <trkpt lat="41.11928" lon="-73.86316"></trkpt>
      <trkpt lat="41.11922" lon="-73.86321"></trkpt>
      <trkpt lat="41.11913" lon="-73.86319"></trkpt>
      <trkpt lat="41.11907" lon="-73.86316"></trkpt>
      <trkpt lat="41.11886" lon="-73.86291"></trkpt>
      <trkpt lat="41.11881" lon="-73.8629"></trkpt>
      <trkpt lat="41.11876" lon="-73.86295"></trkpt>
      <trkpt lat="41.1187" lon="-73.8631"></trkpt>
      <trkpt lat="41.1187" lon="-73.86322"></trkpt>
      <trkpt lat="41.11873" lon="-73.86354"></trkpt>
      <trkpt lat="41.11871" lon="-73.86365"></trkpt>
      <trkpt lat="41.11867" lon="-73.86368"></trkpt>
      <trkpt lat="41.11861" lon="-73.86367"></trkpt>
      <trkpt lat="41.11842" lon="-73.86353"></trkpt>
      <trkpt lat="41.11815" lon="-73.86347"></trkpt>
      <trkpt lat="41.11815" lon="-73.86347"></trkpt>
      <trkpt lat="41.11818" lon="-73.86383"></trkpt>
      <trkpt lat="41.11818" lon="-73.86383"></trkpt>
      <trkpt lat="41.11822" lon="-73.86393"></trkpt>
      <trkpt lat="41.11822" lon="-73.86393"></trkpt>
      <trkpt lat="41.11829" lon="-73.86403"></trkpt>
      <trkpt lat="41.11845" lon="-73.86418"></trkpt>
      <trkpt lat="41.11845" lon="-73.86418"></trkpt>
      <trkpt lat="41.1185" lon="-73.86422"></trkpt>
      <trkpt lat="41.1185" lon="-73.86422"></trkpt>
      <trkpt lat="41.11855" lon="-73.8643"></trkpt>
      <trkpt lat="41.11859" lon="-73.86445"></trkpt>
      <trkpt lat="41.11859" lon="-73.86445"></trkpt>
      <trkpt lat="41.11861" lon="-73.86453"></trkpt>
      <trkpt lat="41.11861" lon="-73.86453"></trkpt>
      <trkpt lat="41.11863" lon="-73.86459"></trkpt>
      <trkpt lat="41.11874" lon="-73.86469"></trkpt>
      <trkpt lat="41.11874" lon="-73.86469"></trkpt>
      <trkpt lat="41.11881" lon="-73.86471"></trkpt>
      <trkpt lat="41.11881" lon="-73.86471"></trkpt>
      <trkpt lat="41.11889" lon="-73.86478"></trkpt>
      <trkpt lat="41.11889" lon="-73.86478"></trkpt>
      <trkpt lat="41.11892" lon="-73.8649"></trkpt>
      <trkpt lat="41.11892" lon="-73.8649"></trkpt>
      <trkpt lat="41.11901" lon="-73.86501"></trkpt>
      <trkpt lat="41.11915" lon="-73.86505"></trkpt>
      <trkpt lat="41.11915" lon="-73.86505"></trkpt>
      <trkpt lat="41.11935" lon="-73.86501"></trkpt>
      <trkpt lat="41.11955" lon="-73.865"></trkpt>
      <trkpt lat="41.1197" lon="-73.86508"></trkpt>
      <trkpt lat="41.11989" lon="-73.86527"></trkpt>
      <trkpt lat="41.12015" lon="-73.86535"></trkpt>
      <trkpt lat="41.12028" lon="-73.86543"></trkpt>
      <trkpt lat="41.12042" lon="-73.86565"></trkpt>
      <trkpt lat="41.12056" lon="-73.86605"></trkpt>
      <trkpt lat="41.12086" lon="-73.86675"></trkpt>
      <trkpt lat="41.12086" lon="-73.86675"></trkpt>
      <trkpt lat="41.12096" lon="-73.86709"></trkpt>
      <trkpt lat="41.12096" lon="-73.86726"></trkpt>
      <trkpt lat="41.12096" lon="-73.86726"></trkpt>
      <trkpt lat="41.120912728264145" lon="-73.86739590624059"></trkpt>
      <trkpt lat="41.12091272827591" lon="-73.86739590624059"></trkpt>
      <trkpt lat="41.12088" lon="-73.86749"></trkpt>
      <trkpt lat="41.12079" lon="-73.86756"></trkpt>
      <trkpt lat="41.12069" lon="-73.86759"></trkpt>
      <trkpt lat="41.12032" lon="-73.8676"></trkpt>
      <trkpt lat="41.11945" lon="-73.86774"></trkpt>
      <trkpt lat="41.11905" lon="-73.86777"></trkpt>
      <trkpt lat="41.11869" lon="-73.8677"></trkpt>
      <trkpt lat="41.11819" lon="-73.86782"></trkpt>
      <trkpt lat="41.11776" lon="-73.86787"></trkpt>
      <trkpt lat="41.11737" lon="-73.86804"></trkpt>
      <trkpt lat="41.11675" lon="-73.86804"></trkpt>
      <trkpt lat="41.11636" lon="-73.8681"></trkpt>
      <trkpt lat="41.11636" lon="-73.8681"></trkpt>
      <trkpt lat="41.11615" lon="-73.86818"></trkpt>
      <trkpt lat="41.11615" lon="-73.86818"></trkpt>
      <trkpt lat="41.11587" lon="-73.86835"></trkpt>
      <trkpt lat="41.11574" lon="-73.86836"></trkpt>
      <trkpt lat="41.11561" lon="-73.86835"></trkpt>
      <trkpt lat="41.11522" lon="-73.86815"></trkpt>
      <trkpt lat="41.11501" lon="-73.86808"></trkpt>
      <trkpt lat="41.1146" lon="-73.8681"></trkpt>
      <trkpt lat="41.11427" lon="-73.86815"></trkpt>
      <trkpt lat="41.11405" lon="-73.8681"></trkpt>
      <trkpt lat="41.11381" lon="-73.86795"></trkpt>
      <trkpt lat="41.11345" lon="-73.868"></trkpt>
      <trkpt lat="41.11316" lon="-73.86791"></trkpt>
      <trkpt lat="41.11247" lon="-73.86796"></trkpt>
      <trkpt lat="41.11247" lon="-73.86796"></trkpt>
      <trkpt lat="41.1121" lon="-73.86799"></trkpt>
      <trkpt lat="41.11168" lon="-73.86795"></trkpt>
      <trkpt lat="41.11146" lon="-73.86788"></trkpt>
      <trkpt lat="41.11114" lon="-73.86789"></trkpt>
      <trkpt lat="41.111000027518685" lon="-73.86778002162181"></trkpt>
      <trkpt lat="41.11100002751871" lon="-73.86778002162181"></trkpt>
      <trkpt lat="41.111" lon="-73.86778"></trkpt>
      <trkpt lat="41.11087" lon="-73.86753"></trkpt>
      <trkpt lat="41.11085" lon="-73.86728"></trkpt>
      <trkpt lat="41.11085" lon="-73.86728"></trkpt>
      <trkpt lat="41.11085" lon="-73.86728"></trkpt>
      <trkpt lat="41.11075" lon="-73.86718"></trkpt>
      <trkpt lat="41.1106" lon="-73.8671"></trkpt>
      <trkpt lat="41.1106" lon="-73.8671"></trkpt>
      <trkpt lat="41.11064" lon="-73.86691"></trkpt>
      <trkpt lat="41.11062" lon="-73.86662"></trkpt>
      <trkpt lat="41.11057" lon="-73.86632"></trkpt>
      <trkpt lat="41.11058" lon="-73.86565"></trkpt>
      <trkpt lat="41.11058" lon="-73.86565"></trkpt>
      <trkpt lat="41.11058" lon="-73.86565"></trkpt>
      <trkpt lat="41.11076" lon="-73.86558"></trkpt>
      <trkpt lat="41.11076" lon="-73.86558"></trkpt>
      <trkpt lat="41.11083" lon="-73.86532"></trkpt>
      <trkpt lat="41.11082" lon="-73.86526"></trkpt>
      <trkpt lat="41.1108" lon="-73.86521"></trkpt>
      <trkpt lat="41.11061" lon="-73.86507"></trkpt>
      <trkpt lat="41.11055" lon="-73.86488"></trkpt>
      <trkpt lat="41.1106" lon="-73.86464"></trkpt>
      <trkpt lat="41.11071" lon="-73.86446"></trkpt>
      <trkpt lat="41.11071" lon="-73.86446"></trkpt>
      <trkpt lat="41.11107" lon="-73.86428"></trkpt>
      <trkpt lat="41.11107" lon="-73.86428"></trkpt>
      <trkpt lat="41.11107" lon="-73.86428"></trkpt>
      <trkpt lat="41.11118" lon="-73.86441"></trkpt>
      <trkpt lat="41.11121" lon="-73.86451"></trkpt>
      <trkpt lat="41.11119" lon="-73.86489"></trkpt>
      <trkpt lat="41.11123" lon="-73.86511"></trkpt>
      <trkpt lat="41.11137" lon="-73.86532"></trkpt>
      <trkpt lat="41.11158" lon="-73.86546"></trkpt>
      <trkpt lat="41.11183" lon="-73.86552"></trkpt>
      <trkpt lat="41.11209" lon="-73.86553"></trkpt>
      <trkpt lat="41.11209" lon="-73.86553"></trkpt>
      <trkpt lat="41.11223" lon="-73.86555"></trkpt>
      <trkpt lat="41.11247" lon="-73.86567"></trkpt>
    </trkseg>
  </trk>
</gpx>
