{"type":"FeatureCollection","features":[{"type":"Feature","properties":{"name":"Pocantico Hills Marathon","loop":"marathon","color":"#34421e","distance_km":43.15,"distance_mi":26.81,"gain_m":905,"gain_ft":2969,"loss_m":905,"loss_ft":2969,"min_ele_m":2,"max_ele_m":221,"min_ele_ft":7,"max_ele_ft":726},"geometry":{"type":"LineString","coordinates":[[-73.865676,41.112501,162],[-73.86553,41.11209,157],[-73.86548,41.11208,154],[-73.86494,41.11236,155],[-73.86434,41.11247,159],[-73.86375,41.112833,165],[-73.86385,41.11296,173],[-73.86399,41.11343,182],[-73.86446,41.11375,183],[-73.86484,41.11383,184],[-73.86549,41.11381,182],[-73.86519,41.11428,181],[-73.86508,41.11464,177],[-73.86495,41.11602,174],[-73.86501,41.11642,167],[-73.86498,41.11668,161],[-73.86511,41.11702,157],[-73.86524,41.1172,156],[-73.86582,41.11758,148],[-73.8658,41.11803,145],[-73.86587,41.11804,134],[-73.86592,41.11821,119],[-73.86588,41.11865,115],[-73.86614,41.11928,119],[-73.86538,41.11931,121],[-73.86505,41.11915,132],[-73.86538,41.11931,145],[-73.86505,41.11915,152],[-73.86501,41.11901,157],[-73.86478,41.11889,163],[-73.86459,41.11863,172],[-73.8643,41.11855,180],[-73.86403,41.11829,183],[-73.86383,41.11818,186],[-73.863329,41.118141,189],[-73.86347,41.11815,188],[-73.86353,41.11842,188],[-73.86367,41.11861,194],[-73.86365,41.11871,199],[-73.8631,41.1187,205],[-73.8629,41.11881,207],[-73.86316,41.11907,210],[-73.86321,41.11922,210],[-73.86316,41.11928,209],[-73.86281,41.11902,207],[-73.86248,41.11889,203],[-73.86198,41.1188,199],[-73.86031,41.11903,192],[-73.85961,41.11893,179],[-73.85921,41.11876,167],[-73.85872,41.11826,161],[-73.85858,41.11804,157],[-73.85852,41.11751,154],[-73.85867,41.11613,167],[-73.85876,41.11586,180],[-73.85876,41.11546,192],[-73.85871,41.11523,203],[-73.85839,41.11463,215],[-73.85738,41.11188,232],[-73.85723,41.11169,230],[-73.85572,41.11088,230],[-73.85473,41.10978,222],[-73.85425,41.10959,217],[-73.85498,41.10844,188],[-73.85556,41.10848,192],[-73.85596,41.10834,195],[-73.85618,41.10815,199],[-73.85636,41.10788,202],[-73.85675,41.1077,217],[-73.85685,41.10755,219],[-73.85675,41.10737,226],[-73.85675,41.10726,236],[-73.85647,41.10715,247],[-73.85623,41.10691,257],[-73.85629,41.10674,268],[-73.85628,41.10605,274],[-73.85635,41.10582,279],[-73.8566,41.10545,284],[-73.85687,41.10468,281],[-73.8569,41.10448,280],[-73.85727,41.10359,279],[-73.85726,41.10316,274],[-73.85739,41.10276,267],[-73.85751,41.10254,262],[-73.85791,41.10228,253],[-73.85796,41.1022,243],[-73.85784,41.10165,238],[-73.85773,41.10156,236],[-73.85754,41.10127,228],[-73.85762,41.10108,224],[-73.85751,41.10055,220],[-73.8574,41.10049,226],[-73.8572,41.10053,227],[-73.85679,41.10087,233],[-73.85641,41.10133,238],[-73.85638,41.1017,242],[-73.85623,41.10215,239],[-73.85617,41.10219,241],[-73.85634,41.1026,244],[-73.85631,41.10281,241],[-73.85616,41.10299,249],[-73.85557,41.10316,253],[-73.85545,41.10335,259],[-73.85525,41.10387,265],[-73.85501,41.10476,276],[-73.85512,41.10569,273],[-73.8551,41.10615,274],[-73.85498,41.10652,274],[-73.85467,41.10687,272],[-73.85413,41.10704,264],[-73.85346,41.10748,260],[-73.85321,41.10779,252],[-73.85319,41.10795,244],[-73.85313,41.10795,236],[-73.85303,41.10782,240],[-73.85294,41.10752,243],[-73.85275,41.1066,246],[-73.85278,41.10612,245],[-73.85274,41.10588,241],[-73.85339,41.10525,233],[-73.85365,41.10485,229],[-73.8539,41.10459,223],[-73.8546,41.10355,221],[-73.85502,41.10262,223],[-73.85532,41.10272,228],[-73.8555,41.10268,228],[-73.85595,41.10244,231],[-73.85617,41.10219,234],[-73.85611,41.10206,236],[-73.8561,41.10137,232],[-73.85637,41.10083,219],[-73.85649,41.10048,205],[-73.85615,41.09984,201],[-73.85604,41.09995,188],[-73.85586,41.10001,180],[-73.85565,41.10023,184],[-73.8555,41.10057,186],[-73.85524,41.10097,178],[-73.85483,41.1014,178],[-73.85451,41.10186,176],[-73.85424,41.10248,171],[-73.8536,41.10261,169],[-73.85345,41.10259,167],[-73.8531,41.10231,165],[-73.8525,41.10193,165],[-73.85223,41.10212,169],[-73.85194,41.10223,177],[-73.85113,41.10199,179],[-73.85072,41.10178,171],[-73.85046,41.10151,162],[-73.84997,41.1008,152],[-73.84982,41.1007,135],[-73.84908,41.10045,124],[-73.848974,41.100488,124],[-73.8494,41.10034,129],[-73.84944,41.10028,136],[-73.84941,41.099865,144],[-73.85029,41.09992,152],[-73.85054,41.10005,173],[-73.8508,41.09999,191],[-73.85154,41.09898,206],[-73.85154,41.0979,218],[-73.85167,41.09769,230],[-73.852206,41.097089,234],[-73.85238,41.09707,230],[-73.853369,41.09727,230],[-73.853091,41.096704,230],[-73.853367,41.097264,230],[-73.85238,41.09707,230],[-73.852206,41.097089,230],[-73.851631,41.097753,226],[-73.852159,41.097157,228],[-73.852281,41.096911,227],[-73.853059,41.096656,223],[-73.850956,41.093195,222],[-73.850989,41.09316,214],[-73.85085,41.09315,203],[-73.85037,41.09331,194],[-73.84964,41.09374,195],[-73.84937,41.0937,188],[-73.84892,41.09332,188],[-73.84921,41.09308,196],[-73.85035,41.09257,203],[-73.85044,41.09239,195],[-73.85034,41.09224,215],[-73.84933,41.09253,236],[-73.84828,41.09268,251],[-73.848,41.09288,265],[-73.84792,41.09305,281],[-73.84785,41.09379,274],[-73.84765,41.09465,268],[-73.84761,41.09525,263],[-73.84726,41.09591,251],[-73.84712,41.0963,251],[-73.84671,41.09674,252],[-73.84539,41.09741,262],[-73.84523,41.09754,277],[-73.84422,41.09731,292],[-73.84346,41.09728,299],[-73.84303,41.09721,310],[-73.84226,41.09685,312],[-73.84157,41.09665,325],[-73.84125,41.09662,345],[-73.83997,41.09702,370],[-73.83965,41.09703,391],[-73.83844,41.09689,413],[-73.83809,41.09671,417],[-73.83781,41.09649,423],[-73.83767,41.09617,425],[-73.8377,41.09567,427],[-73.837639,41.095357,434],[-73.837664,41.095539,438],[-73.83723,41.09561,444],[-73.83707,41.09591,449],[-73.83655,41.09662,455],[-73.83652,41.09695,454],[-73.83632,41.097,452],[-73.83652,41.09737,444],[-73.8367,41.09796,441],[-73.83673,41.09855,427],[-73.83666,41.09894,403],[-73.83646,41.09949,387],[-73.83607,41.10001,376],[-73.83544,41.10125,360],[-73.83529,41.10192,358],[-73.83541,41.10271,370],[-73.83546,41.10375,379],[-73.83538,41.1043,386],[-73.83481,41.10549,392],[-73.83462,41.1057,397],[-73.83429,41.10567,402],[-73.83418,41.1056,407],[-73.8339,41.10489,413],[-73.83362,41.10467,421],[-73.83349,41.10465,427],[-73.83329,41.1047,432],[-73.83272,41.10503,437],[-73.83244,41.10528,442],[-73.83212,41.10591,448],[-73.83184,41.1063,463],[-73.8314,41.10674,473],[-73.83079,41.10724,474],[-73.83077,41.10737,476],[-73.83106,41.10754,472],[-73.83117,41.1077,463],[-73.83117,41.10785,455],[-73.83111,41.10799,464],[-73.83068,41.1085,473],[-73.82968,41.10878,484],[-73.82932,41.10883,494],[-73.82902,41.10874,503],[-73.82893,41.10866,504],[-73.82882,41.10842,505],[-73.82852,41.10852,505],[-73.82844,41.1086,505],[-73.82837,41.10873,501],[-73.82838,41.10895,501],[-73.82833,41.10905,496],[-73.82836,41.1091,486],[-73.82916,41.10968,475],[-73.82929,41.10982,474],[-73.82932,41.10992,463],[-73.82901,41.10995,458],[-73.82812,41.11052,458],[-73.82788,41.11057,458],[-73.82663,41.11061,451],[-73.82626,41.11071,450],[-73.82579,41.11093,455],[-73.82563,41.11091,451],[-73.82499,41.11049,457],[-73.82433,41.10997,465],[-73.82372,41.10984,472],[-73.82353,41.10974,477],[-73.82338,41.10957,488],[-73.823297,41.10929,488],[-73.82343,41.10915,488],[-73.82377,41.1092,489],[-73.82398,41.10916,488],[-73.82415,41.10907,493],[-73.82458,41.10846,506],[-73.82492,41.10826,510],[-73.82588,41.10826,517],[-73.82645,41.10834,522],[-73.82675,41.10826,523],[-73.82687,41.10817,518],[-73.82688,41.10784,522],[-73.82693,41.1077,516],[-73.82708,41.10757,510],[-73.82756,41.10732,506],[-73.82774,41.10674,502],[-73.82812,41.10645,503],[-73.82778,41.10624,508],[-73.8269,41.10583,512],[-73.82608,41.10518,506],[-73.82595,41.10503,500],[-73.82615,41.10461,489],[-73.82393,41.10515,480],[-73.82355,41.10531,472],[-73.82353,41.1054,472],[-73.82376,41.10564,472],[-73.82379,41.10575,482],[-73.82381,41.10726,493],[-73.817611,41.109009,505],[-73.816452,41.108136,517],[-73.81661,41.10825,529],[-73.8167,41.1081,531],[-73.81699,41.10803,531],[-73.81715,41.10788,531],[-73.81717,41.10775,533],[-73.8171,41.10753,534],[-73.81721,41.1072,540],[-73.81716,41.10696,540],[-73.81747,41.10637,541],[-73.81754,41.10605,541],[-73.81775,41.10557,541],[-73.81772,41.1054,549],[-73.81779,41.10524,562],[-73.81773,41.10497,573],[-73.81776,41.10451,586],[-73.81793,41.1045,593],[-73.81844,41.1043,576],[-73.81972,41.10364,565],[-73.82004,41.10336,554],[-73.82052,41.10311,542],[-73.82073,41.10306,535],[-73.8207,41.10279,531],[-73.82081,41.10267,520],[-73.82096,41.10233,510],[-73.82104,41.10199,510],[-73.82124,41.10177,511],[-73.82163,41.10153,509],[-73.8218,41.1015,510],[-73.8224,41.1017,510],[-73.82269,41.10196,501],[-73.82306,41.10195,490],[-73.82313,41.10204,492],[-73.82307,41.10224,490],[-73.82322,41.10235,488],[-73.82371,41.1023,488],[-73.82401,41.10208,488],[-73.82431,41.10163,491],[-73.82451,41.10154,495],[-73.82601,41.10033,489],[-73.82637,41.1002,472],[-73.82717,41.09979,456],[-73.82705,41.09876,437],[-73.82696,41.09862,419],[-73.82685,41.09855,411],[-73.82639,41.09846,428],[-73.82607,41.09834,446],[-73.82575,41.09805,465],[-73.82533,41.09797,483],[-73.82465,41.09811,503],[-73.82441,41.09825,506],[-73.82428,41.09852,509],[-73.8243,41.09873,511],[-73.82448,41.09905,515],[-73.82456,41.09939,521],[-73.82418,41.10001,530],[-73.82365,41.10026,542],[-73.82299,41.10046,547],[-73.82218,41.10057,551],[-73.821,41.10135,556],[-73.82089,41.10132,559],[-73.82169,41.10044,559],[-73.82203,41.10019,565],[-73.82239,41.10005,571],[-73.82269,41.09984,571],[-73.82283,41.09966,572],[-73.82287,41.09948,572],[-73.8228,41.09889,578],[-73.82262,41.09873,584],[-73.82239,41.09871,593],[-73.82206,41.0988,608],[-73.82159,41.09904,622],[-73.81985,41.09976,636],[-73.8187,41.09983,646],[-73.817747,41.1,649],[-73.81774,41.09932,645],[-73.81784,41.09899,639],[-73.81793,41.09886,628],[-73.81852,41.09849,617],[-73.81886,41.09834,604],[-73.81976,41.09773,591],[-73.82004,41.09745,587],[-73.82047,41.09685,584],[-73.82054,41.09656,583],[-73.82074,41.0961,588],[-73.82042,41.09562,590],[-73.82062,41.09518,578],[-73.82073,41.09456,566],[-73.82106,41.09401,557],[-73.82133,41.09385,544],[-73.82141,41.09369,535],[-73.82172,41.09344,533],[-73.82185,41.09322,531],[-73.82192,41.09293,530],[-73.82182,41.09287,531],[-73.821846,41.092654,531],[-73.821835,41.09275,526],[-73.82171,41.09267,521],[-73.82154,41.09268,519],[-73.82107,41.09317,517],[-73.82076,41.09358,526],[-73.82014,41.09404,533],[-73.82001,41.0942,540],[-73.81991,41.09443,551],[-73.81954,41.09472,559],[-73.81937,41.09502,556],[-73.8188,41.09539,566],[-73.81856,41.09565,576],[-73.81827,41.09614,580],[-73.81783,41.09648,587],[-73.81733,41.09674,594],[-73.81702,41.09706,596],[-73.81682,41.09739,604],[-73.81626,41.09804,602],[-73.81609,41.09851,600],[-73.81546,41.09945,605],[-73.81548,41.0997,610],[-73.81647,41.10008,609],[-73.81644,41.10021,616],[-73.81625,41.10045,623],[-73.81627,41.10057,623],[-73.81645,41.10072,623],[-73.81651,41.10086,629],[-73.81649,41.10118,629],[-73.81667,41.10164,628],[-73.81679,41.10181,627],[-73.81681,41.102,627],[-73.81691,41.10215,620],[-73.81728,41.10223,619],[-73.81745,41.10219,617],[-73.8177,41.10203,616],[-73.81784,41.10181,615],[-73.817773,41.101799,619],[-73.81807,41.1018,618],[-73.81913,41.10159,610],[-73.81989,41.10125,605],[-73.82049,41.10092,600],[-73.82106,41.10046,585],[-73.82164,41.10011,578],[-73.82287,41.09948,577],[-73.82283,41.09966,574],[-73.82269,41.09984,571],[-73.82239,41.10005,571],[-73.82203,41.10019,565],[-73.82169,41.10044,564],[-73.82089,41.10132,568],[-73.81962,41.10198,573],[-73.81908,41.10245,583],[-73.81819,41.10337,598],[-73.8173,41.10335,609],[-73.81711,41.10339,612],[-73.81653,41.10386,619],[-73.81576,41.10412,633],[-73.81544,41.10429,641],[-73.81453,41.10501,649],[-73.81391,41.10604,659],[-73.81371,41.10624,665],[-73.81346,41.10634,662],[-73.81288,41.10692,663],[-73.81287,41.10731,667],[-73.81268,41.10746,671],[-73.81235,41.1076,673],[-73.81173,41.10799,681],[-73.81146,41.10825,692],[-73.81094,41.10899,701],[-73.80977,41.10989,711],[-73.80968,41.11001,722],[-73.80966,41.11013,726],[-73.80971,41.11051,721],[-73.80983,41.11081,714],[-73.81003,41.11104,707],[-73.81024,41.1111,702],[-73.81057,41.11107,698],[-73.810859,41.111121,699],[-73.81152,41.11086,705],[-73.81169,41.11082,707],[-73.81199,41.11084,702],[-73.81207,41.11074,698],[-73.812,41.10998,694],[-73.81206,41.10955,677],[-73.81235,41.10914,663],[-73.81251,41.10882,654],[-73.8128,41.10875,644],[-73.81326,41.10841,633],[-73.8136,41.10828,617],[-73.81384,41.10831,600],[-73.81392,41.10837,579],[-73.813991,41.108534,570],[-73.81469,41.10836,549],[-73.81489,41.10824,545],[-73.81542,41.10778,541],[-73.81559,41.1077,543],[-73.81585,41.10772,529],[-73.81637,41.10803,531],[-73.81753,41.10904,540],[-73.81742,41.10921,549],[-73.81731,41.1101,558],[-73.81735,41.11024,570],[-73.81729,41.11036,577],[-73.81708,41.11044,577],[-73.81678,41.11041,576],[-73.81622,41.11049,575],[-73.81597,41.11057,578],[-73.8157,41.11073,581],[-73.81541,41.11105,584],[-73.81488,41.11121,584],[-73.81442,41.11165,584],[-73.81436,41.11177,575],[-73.81431,41.11216,562],[-73.81393,41.11289,550],[-73.81379,41.11334,541],[-73.81377,41.11367,524],[-73.81351,41.11399,508],[-73.81327,41.11498,495],[-73.81308,41.1152,485],[-73.81309,41.11534,475],[-73.8141,41.11637,473],[-73.81443,41.11651,475],[-73.81472,41.11657,473],[-73.81556,41.11663,469],[-73.81599,41.1166,467],[-73.81629,41.11649,465],[-73.81677,41.11612,463],[-73.81691,41.11592,465],[-73.81695,41.11576,467],[-73.8169,41.11558,472],[-73.8168,41.11547,478],[-73.81637,41.11535,482],[-73.81625,41.11522,497],[-73.81629,41.11455,512],[-73.81577,41.11402,522],[-73.8156,41.11375,533],[-73.81567,41.11298,550],[-73.8156,41.11282,556],[-73.81512,41.11241,563],[-73.81499,41.11218,572],[-73.81496,41.11199,580],[-73.81505,41.11164,584],[-73.81521,41.11145,584],[-73.815446,41.11101,584],[-73.8157,41.11073,581],[-73.81597,41.11057,578],[-73.81622,41.11049,575],[-73.81678,41.11041,576],[-73.81708,41.11044,577],[-73.81729,41.11036,577],[-73.81735,41.11024,570],[-73.81731,41.1101,558],[-73.81742,41.10921,547],[-73.81753,41.10904,535],[-73.81786,41.10913,523],[-73.81812,41.10911,514],[-73.81827,41.10904,508],[-73.8188,41.10861,501],[-73.81926,41.10856,495],[-73.8195,41.10864,491],[-73.81968,41.10887,491],[-73.81974,41.10926,497],[-73.81987,41.10938,507],[-73.82091,41.10936,518],[-73.82102,41.11031,526],[-73.82116,41.11042,533],[-73.82132,41.11051,533],[-73.82163,41.11057,529],[-73.82178,41.11049,524],[-73.82218,41.11058,518],[-73.8231,41.11117,513],[-73.8232,41.11128,512],[-73.82328,41.11142,509],[-73.82329,41.11157,505],[-73.82323,41.11168,502],[-73.82302,41.11178,499],[-73.82299,41.11192,495],[-73.82301,41.11203,495],[-73.82318,41.1122,494],[-73.82324,41.11247,487],[-73.82306,41.11284,480],[-73.8234,41.11344,478],[-73.82339,41.11362,472],[-73.82327,41.11396,464],[-73.82332,41.11442,463],[-73.82362,41.11475,461],[-73.82429,41.11504,455],[-73.82449,41.11526,458],[-73.82459,41.11575,465],[-73.82434,41.11605,470],[-73.82431,41.11615,476],[-73.82431,41.1163,482],[-73.82449,41.11677,470],[-73.82499,41.11687,457],[-73.82526,41.11686,452],[-73.82533,41.11678,447],[-73.8254,41.11624,439],[-73.82569,41.11587,445],[-73.8261,41.1151,440],[-73.8266,41.11467,428],[-73.82675,41.11427,423],[-73.82672,41.11418,421],[-73.82659,41.11409,416],[-73.8263,41.11354,422],[-73.82622,41.11331,419],[-73.82627,41.11297,405],[-73.82725,41.11242,391],[-73.82794,41.11235,373],[-73.82812,41.11209,364],[-73.82876,41.11175,361],[-73.82915,41.11162,357],[-73.82934,41.1116,358],[-73.82953,41.11166,351],[-73.83078,41.11102,337],[-73.83106,41.11082,324],[-73.83151,41.11028,317],[-73.83214,41.10936,305],[-73.83302,41.10858,311],[-73.83328,41.10829,318],[-73.83377,41.10748,337],[-73.83456,41.10594,355],[-73.83462,41.1057,369],[-73.83494,41.10566,379],[-73.8357,41.10542,385],[-73.83602,41.10522,367],[-73.8364,41.10462,348],[-73.837617,41.103094,331],[-73.83813,41.10353,312],[-73.83838,41.10386,310],[-73.83848,41.10408,306],[-73.83862,41.10421,306],[-73.83915,41.10362,310],[-73.8398,41.10312,322],[-73.83998,41.10291,319],[-73.84013,41.10268,331],[-73.84029,41.10229,337],[-73.84036,41.10188,344],[-73.8405,41.10163,342],[-73.84087,41.10136,340],[-73.840906,41.101573,338],[-73.84087,41.10136,340],[-73.84157,41.10103,342],[-73.84356,41.09896,343],[-73.84368,41.09864,342],[-73.84378,41.0977,336],[-73.84377,41.0973,308],[-73.84422,41.09731,281],[-73.84625,41.09775,253],[-73.84662,41.09773,231],[-73.84691,41.09763,203],[-73.84715,41.09746,203],[-73.84774,41.09667,211],[-73.84786,41.09641,214],[-73.84822,41.09502,213],[-73.84856,41.09416,223],[-73.84869,41.09368,227],[-73.84878,41.09348,212],[-73.84892,41.09332,203],[-73.84937,41.0937,194],[-73.84946,41.09383,181],[-73.84951,41.0941,167],[-73.84964,41.09435,165],[-73.84998,41.094735,158],[-73.85005,41.09571,155],[-73.84975,41.0965,155],[-73.84915,41.09775,153],[-73.8488,41.09831,147],[-73.84857,41.09878,146],[-73.84848,41.09928,142],[-73.84844,41.09937,137],[-73.84836,41.09941,135],[-73.84844,41.09945,135],[-73.8486,41.09968,137],[-73.84883,41.09982,135],[-73.84941,41.099865,132],[-73.84944,41.10028,131],[-73.84929,41.10039,133],[-73.84855,41.10064,140],[-73.8478,41.10112,152],[-73.84737,41.10162,163],[-73.84686,41.10202,178],[-73.84673,41.10218,192],[-73.84662,41.10244,199],[-73.8461,41.10266,210],[-73.84591,41.10303,221],[-73.84587,41.10344,227],[-73.84599,41.10377,230],[-73.84637,41.10424,242],[-73.84647,41.10445,251],[-73.8467,41.10468,258],[-73.84675,41.10488,260],[-73.84669,41.10548,268],[-73.846634,41.105632,267],[-73.84684,41.10554,268],[-73.84693,41.10555,271],[-73.84774,41.10618,272],[-73.8481,41.10661,274],[-73.84819,41.10666,281],[-73.84832,41.10665,285],[-73.84853,41.10647,280],[-73.84867,41.10643,283],[-73.84941,41.10669,272],[-73.84988,41.10698,258],[-73.85001,41.10691,250],[-73.85005,41.10675,259],[-73.85002,41.10663,267],[-73.84978,41.10637,281],[-73.84957,41.10627,296],[-73.84884,41.10611,313],[-73.84871,41.10602,315],[-73.84849,41.10548,317],[-73.84831,41.1052,329],[-73.84829,41.10505,342],[-73.84834,41.10492,345],[-73.84894,41.10439,354],[-73.84902,41.10425,364],[-73.8492,41.10409,362],[-73.84941,41.10374,351],[-73.84983,41.10351,341],[-73.84986,41.10326,329],[-73.84997,41.10325,318],[-73.85022,41.10338,307],[-73.85043,41.10363,302],[-73.85059,41.10401,298],[-73.85051,41.10426,292],[-73.85012,41.10477,300],[-73.85004,41.10522,308],[-73.84981,41.10552,318],[-73.84948,41.1057,329],[-73.84919,41.10563,348],[-73.84906,41.10529,354],[-73.84908,41.10459,359],[-73.84904,41.10446,364],[-73.84894,41.10439,356],[-73.84834,41.10492,345],[-73.84829,41.10505,342],[-73.84831,41.1052,329],[-73.84849,41.10548,317],[-73.84871,41.10602,315],[-73.84884,41.10611,313],[-73.84957,41.10627,296],[-73.84978,41.10637,281],[-73.85002,41.10663,267],[-73.85005,41.10675,259],[-73.85001,41.10691,250],[-73.8498,41.107,244],[-73.84952,41.10736,254],[-73.84936,41.10839,262],[-73.8489,41.10886,262],[-73.84906,41.10922,270],[-73.84876,41.11014,281],[-73.84825,41.11082,282],[-73.84797,41.1113,282],[-73.84763,41.11155,284],[-73.84759,41.11195,288],[-73.8475,41.11219,293],[-73.84729,41.11234,304],[-73.84679,41.11257,318],[-73.84645,41.11261,333],[-73.84591,41.11309,337],[-73.84544,41.11326,343],[-73.84538,41.11338,344],[-73.84544,41.1135,345],[-73.84611,41.11429,347],[-73.84613,41.1145,351],[-73.84569,41.11488,362],[-73.84537,41.11495,367],[-73.84511,41.11511,373],[-73.84471,41.11553,372],[-73.84422,41.1157,375],[-73.84406,41.11581,371],[-73.84393,41.11599,364],[-73.84375,41.11653,358],[-73.84377,41.11673,356],[-73.84407,41.11733,350],[-73.84425,41.11736,343],[-73.84484,41.11704,340],[-73.8453,41.11701,337],[-73.84541,41.11707,332],[-73.84544,41.11715,327],[-73.84538,41.11754,316],[-73.84544,41.11765,306],[-73.84593,41.11779,289],[-73.84608,41.1183,283],[-73.84621,41.11844,276],[-73.84655,41.11772,274],[-73.84708,41.11708,278],[-73.84733,41.11644,284],[-73.84765,41.11592,284],[-73.84772,41.11544,281],[-73.84784,41.11515,281],[-73.84826,41.11472,273],[-73.84822,41.1142,276],[-73.84829,41.11399,278],[-73.8485,41.11375,280],[-73.84848,41.11338,276],[-73.84871,41.11278,278],[-73.84906,41.11232,272],[-73.84921,41.11157,263],[-73.84947,41.11119,257],[-73.8497,41.11066,257],[-73.85,41.11021,253],[-73.85008,41.10966,249],[-73.85013,41.10958,252],[-73.85056,41.10962,258],[-73.85181,41.1095,264],[-73.85266,41.10956,268],[-73.85324,41.10969,260],[-73.85365,41.10959,249],[-73.85417,41.10963,234],[-73.85425,41.10959,238],[-73.85473,41.10978,228],[-73.85572,41.11088,230],[-73.85723,41.11169,230],[-73.85738,41.11188,232],[-73.85839,41.11463,215],[-73.85871,41.11523,203],[-73.85876,41.11546,192],[-73.85876,41.11586,180],[-73.85867,41.11613,167],[-73.85852,41.11772,154],[-73.85858,41.11804,157],[-73.85872,41.11826,161],[-73.85921,41.11876,167],[-73.85961,41.11893,179],[-73.86031,41.11903,192],[-73.86198,41.1188,199],[-73.86248,41.11889,203],[-73.86281,41.11902,207],[-73.86316,41.11928,209],[-73.86321,41.11922,210],[-73.86316,41.11907,210],[-73.8629,41.11881,207],[-73.8631,41.1187,205],[-73.86365,41.11871,199],[-73.86367,41.11861,194],[-73.86353,41.11842,188],[-73.86347,41.11815,189],[-73.86383,41.11818,186],[-73.86403,41.11829,184],[-73.8643,41.11855,180],[-73.86459,41.11863,172],[-73.86478,41.11889,163],[-73.86501,41.11901,163],[-73.86505,41.11915,157],[-73.865,41.11955,150],[-73.86508,41.1197,150],[-73.86527,41.11989,149],[-73.86543,41.12028,121],[-73.86565,41.12042,100],[-73.86675,41.12086,79],[-73.86709,41.12096,58],[-73.867393,41.12094,29],[-73.86749,41.12088,22],[-73.86759,41.12069,16],[-73.8676,41.12032,11],[-73.86777,41.11905,7],[-73.8677,41.11869,12],[-73.86787,41.11776,16],[-73.86804,41.11737,22],[-73.86804,41.11675,20],[-73.8681,41.11636,16],[-73.86835,41.11587,12],[-73.86836,41.11574,16],[-73.86835,41.11561,14],[-73.86808,41.11501,21],[-73.86815,41.11427,28],[-73.8681,41.11405,34],[-73.86795,41.11381,30],[-73.868,41.11345,26],[-73.86791,41.11316,22],[-73.86799,41.1121,17],[-73.86795,41.11168,12],[-73.86788,41.11146,10],[-73.86789,41.11114,10],[-73.86778,41.111,20],[-73.86753,41.11087,29],[-73.86728,41.11085,37],[-73.8671,41.1106,51],[-73.86691,41.11064,71],[-73.86632,41.11057,80],[-73.86565,41.11058,94],[-73.86558,41.11076,106],[-73.86532,41.11083,112],[-73.86521,41.1108,121],[-73.86507,41.11061,131],[-73.86488,41.11055,138],[-73.86464,41.1106,152],[-73.86446,41.11071,167],[-73.86428,41.11107,171],[-73.86451,41.11121,165],[-73.86489,41.11119,158],[-73.86511,41.11123,147],[-73.86532,41.11137,142],[-73.86546,41.11158,140],[-73.86555,41.11223,144],[-73.865791,41.112686,151]]}}]}