{"type": "FeatureCollection", "features": [{"type": "Feature", "geometry": {"type": "Point", "coordinates": [-73.86529000000002, 41.11216]}, "properties": {"id": "turn_000", "course_mi": 0.04, "ele_m": null, "direction": "left", "intensity": "normal", "label": "Foundation Loop", "label_type": "trail", "section": "Start \u2192 Finish", "snap_method": "geometry_only", "context": "", "jurisdiction": "", "jurisdiction_unit": ""}}, {"type": "Feature", "geometry": {"type": "Point", "coordinates": [-73.86527999999998, 41.11411]}, "properties": {"id": "turn_001", "course_mi": 0.29, "ele_m": null, "direction": "right", "intensity": "sharp", "label": "Upper Trail", "label_type": "trail", "section": "Start \u2192 Finish", "snap_method": "geometry_only", "context": "", "jurisdiction": "", "jurisdiction_unit": ""}}, {"type": "Feature", "geometry": {"type": "Point", "coordinates": [-73.86613999999997, 41.11928]}, "properties": {"id": "turn_002", "course_mi": 0.68, "ele_m": null, "direction": "right", "intensity": "normal", "label": "", "label_type": "", "section": "Start \u2192 Finish", "snap_method": "geometry_only", "context": "", "jurisdiction": "", "jurisdiction_unit": ""}}, {"type": "Feature", "geometry": {"type": "Point", "coordinates": [-73.86505, 41.11915]}, "properties": {"id": "turn_003", "course_mi": 0.78, "ele_m": null, "direction": "left", "intensity": "sharp", "label": "Rockwood Hall Brook Trail", "label_type": "trail", "section": "Start \u2192 Finish", "snap_method": "geometry_only", "context": "", "jurisdiction": "", "jurisdiction_unit": ""}}, {"type": "Feature", "geometry": {"type": "Point", "coordinates": [-73.86383000000001, 41.11818]}, "properties": {"id": "turn_004", "course_mi": 0.88, "ele_m": null, "direction": "left", "intensity": "normal", "label": "Rockwood Hall Brook Trail", "label_type": "trail", "section": "Start \u2192 Finish", "snap_method": "geometry_only", "context": "", "jurisdiction": "", "jurisdiction_unit": ""}}, {"type": "Feature", "geometry": {"type": "Point", "coordinates": [-73.86365, 41.11871]}, "properties": {"id": "turn_005", "course_mi": 0.95, "ele_m": null, "direction": "right", "intensity": "normal", "label": "Rockwood Hall Brook Trail", "label_type": "trail", "section": "Start \u2192 Finish", "snap_method": "geometry_only", "context": "", "jurisdiction": "", "jurisdiction_unit": ""}}, {"type": "Feature", "geometry": {"type": "Point", "coordinates": [-73.86307256012674, 41.119215044665594]}, "properties": {"id": "turn_006", "course_mi": 1.04, "ele_m": null, "direction": "right", "intensity": "sharp", "label": "Rockwood Hall Brook Trail", "label_type": "trail", "section": "Start \u2192 Finish", "snap_method": "geometry_only", "context": "", "jurisdiction": "", "jurisdiction_unit": ""}}, {"type": "Feature", "geometry": {"type": "Point", "coordinates": [-73.85685000000001, 41.10755]}, "properties": {"id": "turn_007", "course_mi": 2.2, "ele_m": null, "direction": "left", "intensity": "normal", "label": "Big Tree Loop", "label_type": "trail", "section": "Start \u2192 Finish", "snap_method": "geometry_only", "context": "", "jurisdiction": "", "jurisdiction_unit": ""}}, {"type": "Feature", "geometry": {"type": "Point", "coordinates": [-73.8575065641698, 41.100548125911615]}, "properties": {"id": "turn_008", "course_mi": 2.72, "ele_m": null, "direction": "left", "intensity": "normal", "label": "Big Tree Loop", "label_type": "trail", "section": "Start \u2192 Finish", "snap_method": "geometry_only", "context": "", "jurisdiction": "", "jurisdiction_unit": ""}}, {"type": "Feature", "geometry": {"type": "Point", "coordinates": [-73.85615999999999, 41.10299]}, "properties": {"id": "turn_009", "course_mi": 2.93, "ele_m": null, "direction": "right", "intensity": "normal", "label": "Witch's Spring Trail", "label_type": "trail", "section": "Start \u2192 Finish", "snap_method": "geometry_only", "context": "", "jurisdiction": "", "jurisdiction_unit": ""}}, {"type": "Feature", "geometry": {"type": "Point", "coordinates": [-73.85302999999999, 41.10782]}, "properties": {"id": "turn_010", "course_mi": 3.36, "ele_m": null, "direction": "right", "intensity": "sharp", "label": "Spook Rock Trail", "label_type": "trail", "section": "Start \u2192 Finish", "snap_method": "geometry_only", "context": "", "jurisdiction": "", "jurisdiction_unit": ""}}, {"type": "Feature", "geometry": {"type": "Point", "coordinates": [-73.85250000000002, 41.10193]}, "properties": {"id": "turn_011", "course_mi": 4.32, "ele_m": null, "direction": "left", "intensity": "normal", "label": "Pocantico River Trail", "label_type": "trail", "section": "Start \u2192 Finish", "snap_method": "geometry_only", "context": "", "jurisdiction": "", "jurisdiction_unit": ""}}, {"type": "Feature", "geometry": {"type": "Point", "coordinates": [-73.84908000000001, 41.10045]}, "properties": {"id": "turn_012", "course_mi": 4.56, "ele_m": null, "direction": "right", "intensity": "sharp", "label": "Canter Alley", "label_type": "trail", "section": "Start \u2192 Finish", "snap_method": "geometry_only", "context": "", "jurisdiction": "", "jurisdiction_unit": ""}}, {"type": "Feature", "geometry": {"type": "Point", "coordinates": [-73.84980000000002, 41.09987]}, "properties": {"id": "turn_013", "course_mi": 4.64, "ele_m": null, "direction": "right", "intensity": "normal", "label": "Spring Trail", "label_type": "trail", "section": "Start \u2192 Finish", "snap_method": "geometry_only", "context": "", "jurisdiction": "", "jurisdiction_unit": ""}}, {"type": "Feature", "geometry": {"type": "Point", "coordinates": [-73.8517607, 41.0975863]}, "properties": {"id": "turn_014", "course_mi": 5.19, "ele_m": null, "direction": "right", "intensity": "normal", "label": "Shady Lane", "label_type": "trail", "section": "Start \u2192 Finish", "snap_method": "geometry_only", "context": "", "jurisdiction": "", "jurisdiction_unit": ""}}, {"type": "Feature", "geometry": {"type": "Point", "coordinates": [-73.85034, 41.09224]}, "properties": {"id": "turn_015", "course_mi": 5.81, "ele_m": null, "direction": "left", "intensity": "normal", "label": "Hillside Trail", "label_type": "trail", "section": "Start \u2192 Finish", "snap_method": "geometry_only", "context": "", "jurisdiction": "", "jurisdiction_unit": ""}}, {"type": "Feature", "geometry": {"type": "Point", "coordinates": [-73.83765, 41.09549]}, "properties": {"id": "turn_016", "course_mi": 6.8, "ele_m": null, "direction": "left", "intensity": "sharp", "label": "Barnyard Hill", "label_type": "trail", "section": "Start \u2192 Finish", "snap_method": "geometry_only", "context": "", "jurisdiction": "", "jurisdiction_unit": ""}}, {"type": "Feature", "geometry": {"type": "Point", "coordinates": [-73.83447, 41.10571]}, "properties": {"id": "turn_017", "course_mi": 7.6, "ele_m": null, "direction": "right", "intensity": "normal", "label": "Spring Trail", "label_type": "trail", "section": "Start \u2192 Finish", "snap_method": "geometry_only", "context": "", "jurisdiction": "", "jurisdiction_unit": ""}}, {"type": "Feature", "geometry": {"type": "Point", "coordinates": [-73.82837, 41.10873]}, "properties": {"id": "turn_018", "course_mi": 8.18, "ele_m": null, "direction": "left", "intensity": "normal", "label": "Spring Trail", "label_type": "trail", "section": "Start \u2192 Finish", "snap_method": "geometry_only", "context": "", "jurisdiction": "", "jurisdiction_unit": ""}}, {"type": "Feature", "geometry": {"type": "Point", "coordinates": [-73.82932, 41.10992]}, "properties": {"id": "turn_019", "course_mi": 8.28, "ele_m": null, "direction": "right", "intensity": "sharp", "label": "Ridge Trail", "label_type": "trail", "section": "Start \u2192 Finish", "snap_method": "geometry_only", "context": "", "jurisdiction": "", "jurisdiction_unit": ""}}, {"type": "Feature", "geometry": {"type": "Point", "coordinates": [-73.82329717788079, 41.10929047534766]}, "properties": {"id": "turn_020", "course_mi": 8.67, "ele_m": null, "direction": "right", "intensity": "sharp", "label": "Ridge Trail", "label_type": "trail", "section": "Start \u2192 Finish", "snap_method": "geometry_only", "context": "", "jurisdiction": "", "jurisdiction_unit": ""}}, {"type": "Feature", "geometry": {"type": "Point", "coordinates": [-73.82689, 41.1081]}, "properties": {"id": "turn_021", "course_mi": 8.9, "ele_m": null, "direction": "left", "intensity": "normal", "label": "Rock Wall Loop", "label_type": "trail", "section": "Start \u2192 Finish", "snap_method": "geometry_only", "context": "", "jurisdiction": "", "jurisdiction_unit": ""}}, {"type": "Feature", "geometry": {"type": "Point", "coordinates": [-73.82812, 41.10644]}, "properties": {"id": "turn_022", "course_mi": 9.04, "ele_m": null, "direction": "left", "intensity": "sharp", "label": "Rock Wall Loop", "label_type": "trail", "section": "Start \u2192 Finish", "snap_method": "geometry_only", "context": "", "jurisdiction": "", "jurisdiction_unit": ""}}, {"type": "Feature", "geometry": {"type": "Point", "coordinates": [-73.8260764352738, 41.104764486237315]}, "properties": {"id": "turn_023", "course_mi": 9.22, "ele_m": null, "direction": "right", "intensity": "normal", "label": "Rock Wall Loop", "label_type": "trail", "section": "Start \u2192 Finish", "snap_method": "geometry_only", "context": "", "jurisdiction": "", "jurisdiction_unit": ""}}, {"type": "Feature", "geometry": {"type": "Point", "coordinates": [-73.82376, 41.10564]}, "properties": {"id": "turn_024", "course_mi": 9.4, "ele_m": null, "direction": "left", "intensity": "normal", "label": "Rock Wall Loop", "label_type": "trail", "section": "Start \u2192 Finish", "snap_method": "geometry_only", "context": "", "jurisdiction": "", "jurisdiction_unit": ""}}, {"type": "Feature", "geometry": {"type": "Point", "coordinates": [-73.81666, 41.10814]}, "properties": {"id": "turn_025", "course_mi": 9.96, "ele_m": null, "direction": "left", "intensity": "normal", "label": "Old Orchard Trail", "label_type": "trail", "section": "Start \u2192 Finish", "snap_method": "geometry_only", "context": "", "jurisdiction": "", "jurisdiction_unit": ""}}, {"type": "Feature", "geometry": {"type": "Point", "coordinates": [-73.82341, 41.10236]}, "properties": {"id": "turn_026", "course_mi": 10.67, "ele_m": null, "direction": "left", "intensity": "normal", "label": "Ferguson Lake Trail", "label_type": "trail", "section": "Start \u2192 Finish", "snap_method": "geometry_only", "context": "", "jurisdiction": "", "jurisdiction_unit": ""}}, {"type": "Feature", "geometry": {"type": "Point", "coordinates": [-73.8179, 41.1]}, "properties": {"id": "turn_027", "course_mi": 12.0, "ele_m": null, "direction": "right", "intensity": "normal", "label": "Perry Road", "label_type": "trail", "section": "Start \u2192 Finish", "snap_method": "geometry_only", "context": "", "jurisdiction": "", "jurisdiction_unit": ""}}, {"type": "Feature", "geometry": {"type": "Point", "coordinates": [-73.82192, 41.09293]}, "properties": {"id": "turn_028", "course_mi": 12.58, "ele_m": null, "direction": "left", "intensity": "normal", "label": "Raven's Rock Trail", "label_type": "trail", "section": "Start \u2192 Finish", "snap_method": "geometry_only", "context": "", "jurisdiction": "", "jurisdiction_unit": ""}}, {"type": "Feature", "geometry": {"type": "Point", "coordinates": [-73.81703, 41.1022]}, "properties": {"id": "turn_029", "course_mi": 13.44, "ele_m": null, "direction": "left", "intensity": "normal", "label": "Perry Road", "label_type": "trail", "section": "Start \u2192 Finish", "snap_method": "geometry_only", "context": "", "jurisdiction": "", "jurisdiction_unit": ""}}, {"type": "Feature", "geometry": {"type": "Point", "coordinates": [-73.81784, 41.10181]}, "properties": {"id": "turn_030", "course_mi": 13.5, "ele_m": null, "direction": "right", "intensity": "normal", "label": "Flying Squirrel Trail", "label_type": "trail", "section": "Start \u2192 Finish", "snap_method": "geometry_only", "context": "", "jurisdiction": "", "jurisdiction_unit": ""}}, {"type": "Feature", "geometry": {"type": "Point", "coordinates": [-73.82283, 41.09966]}, "properties": {"id": "turn_031", "course_mi": 13.83, "ele_m": null, "direction": "right", "intensity": "sharp", "label": "Reservoir Loop", "label_type": "trail", "section": "Start \u2192 Finish", "snap_method": "geometry_only", "context": "", "jurisdiction": "", "jurisdiction_unit": ""}}, {"type": "Feature", "geometry": {"type": "Point", "coordinates": [-73.81057, 41.11107]}, "properties": {"id": "turn_032", "course_mi": 14.97, "ele_m": null, "direction": "left", "intensity": "normal", "label": "Buttermilk Hill", "label_type": "trail", "section": "Start \u2192 Finish", "snap_method": "geometry_only", "context": "", "jurisdiction": "", "jurisdiction_unit": ""}}, {"type": "Feature", "geometry": {"type": "Point", "coordinates": [-73.81207, 41.11074]}, "properties": {"id": "turn_033", "course_mi": 15.05, "ele_m": null, "direction": "left", "intensity": "normal", "label": "Buttermilk Hill", "label_type": "trail", "section": "Start \u2192 Finish", "snap_method": "geometry_only", "context": "", "jurisdiction": "", "jurisdiction_unit": ""}}, {"type": "Feature", "geometry": {"type": "Point", "coordinates": [-73.81708, 41.11044]}, "properties": {"id": "turn_034", "course_mi": 15.64, "ele_m": null, "direction": "right", "intensity": "normal", "label": "Lucy's Loop", "label_type": "trail", "section": "Start \u2192 Finish", "snap_method": "geometry_only", "context": "", "jurisdiction": "", "jurisdiction_unit": ""}}, {"type": "Feature", "geometry": {"type": "Point", "coordinates": [-73.81735, 41.11024]}, "properties": {"id": "turn_035", "course_mi": 16.85, "ele_m": null, "direction": "left", "intensity": "normal", "label": "Lucy's Loop", "label_type": "trail", "section": "Start \u2192 Finish", "snap_method": "geometry_only", "context": "", "jurisdiction": "", "jurisdiction_unit": ""}}, {"type": "Feature", "geometry": {"type": "Point", "coordinates": [-73.81742, 41.10921]}, "properties": {"id": "turn_036", "course_mi": 16.93, "ele_m": null, "direction": "right", "intensity": "normal", "label": "Buttermilk Hill", "label_type": "trail", "section": "Start \u2192 Finish", "snap_method": "geometry_only", "context": "", "jurisdiction": "", "jurisdiction_unit": ""}}, {"type": "Feature", "geometry": {"type": "Point", "coordinates": [-73.81926, 41.10856]}, "properties": {"id": "turn_037", "course_mi": 17.05, "ele_m": null, "direction": "right", "intensity": "normal", "label": "Buttermilk Hill", "label_type": "trail", "section": "Start \u2192 Finish", "snap_method": "geometry_only", "context": "", "jurisdiction": "", "jurisdiction_unit": ""}}, {"type": "Feature", "geometry": {"type": "Point", "coordinates": [-73.82499, 41.11687]}, "properties": {"id": "turn_038", "course_mi": 17.84, "ele_m": null, "direction": "left", "intensity": "normal", "label": "Doc's Trail", "label_type": "trail", "section": "Start \u2192 Finish", "snap_method": "geometry_only", "context": "", "jurisdiction": "", "jurisdiction_unit": ""}}, {"type": "Feature", "geometry": {"type": "Point", "coordinates": [-73.82662505144253, 41.11460319615327]}, "properties": {"id": "turn_039", "course_mi": 18.03, "ele_m": null, "direction": "left", "intensity": "normal", "label": "David's Loop", "label_type": "trail", "section": "Start \u2192 Finish", "snap_method": "geometry_only", "context": "", "jurisdiction": "", "jurisdiction_unit": ""}}, {"type": "Feature", "geometry": {"type": "Point", "coordinates": [-73.82915, 41.11162]}, "properties": {"id": "turn_040", "course_mi": 18.33, "ele_m": null, "direction": "right", "intensity": "normal", "label": "Old Railroad Bed Trail", "label_type": "trail", "section": "Start \u2192 Finish", "snap_method": "geometry_only", "context": "", "jurisdiction": "", "jurisdiction_unit": ""}}, {"type": "Feature", "geometry": {"type": "Point", "coordinates": [-73.84089, 41.10153]}, "properties": {"id": "turn_041", "course_mi": 19.45, "ele_m": null, "direction": "left", "intensity": "sharp", "label": "Farm Meadow Trail", "label_type": "trail", "section": "Start \u2192 Finish", "snap_method": "geometry_only", "context": "", "jurisdiction": "", "jurisdiction_unit": ""}}, {"type": "Feature", "geometry": {"type": "Point", "coordinates": [-73.84377736414245, 41.09759456569812]}, "properties": {"id": "turn_042", "course_mi": 19.78, "ele_m": null, "direction": "right", "intensity": "normal", "label": "Farm Meadow Trail", "label_type": "trail", "section": "Start \u2192 Finish", "snap_method": "geometry_only", "context": "", "jurisdiction": "", "jurisdiction_unit": ""}}, {"type": "Feature", "geometry": {"type": "Point", "coordinates": [-73.84944, 41.10028]}, "properties": {"id": "turn_043", "course_mi": 20.84, "ele_m": null, "direction": "right", "intensity": "normal", "label": "Canter Alley", "label_type": "trail", "section": "Start \u2192 Finish", "snap_method": "geometry_only", "context": "", "jurisdiction": "", "jurisdiction_unit": ""}}, {"type": "Feature", "geometry": {"type": "Point", "coordinates": [-73.84663369327836, 41.10563156808723]}, "properties": {"id": "turn_044", "course_mi": 21.31, "ele_m": null, "direction": "left", "intensity": "normal", "label": "Old Sleepy Hollow Road Trail", "label_type": "trail", "section": "Start \u2192 Finish", "snap_method": "geometry_only", "context": "", "jurisdiction": "", "jurisdiction_unit": ""}}, {"type": "Feature", "geometry": {"type": "Point", "coordinates": [-73.85002, 41.10663]}, "properties": {"id": "turn_045", "course_mi": 21.56, "ele_m": null, "direction": "left", "intensity": "normal", "label": "Eagle Hill", "label_type": "trail", "section": "Start \u2192 Finish", "snap_method": "geometry_only", "context": "", "jurisdiction": "", "jurisdiction_unit": ""}}, {"type": "Feature", "geometry": {"type": "Point", "coordinates": [-73.85022, 41.10338]}, "properties": {"id": "turn_046", "course_mi": 21.89, "ele_m": null, "direction": "right", "intensity": "normal", "label": "Eagle Hill", "label_type": "trail", "section": "Start \u2192 Finish", "snap_method": "geometry_only", "context": "", "jurisdiction": "", "jurisdiction_unit": ""}}, {"type": "Feature", "geometry": {"type": "Point", "coordinates": [-73.84919, 41.10563]}, "properties": {"id": "turn_047", "course_mi": 22.09, "ele_m": null, "direction": "right", "intensity": "normal", "label": "Eagle Hill", "label_type": "trail", "section": "Start \u2192 Finish", "snap_method": "geometry_only", "context": "", "jurisdiction": "", "jurisdiction_unit": ""}}, {"type": "Feature", "geometry": {"type": "Point", "coordinates": [-73.85002, 41.10663]}, "properties": {"id": "turn_048", "course_mi": 22.39, "ele_m": null, "direction": "right", "intensity": "normal", "label": "Eagle Hill", "label_type": "trail", "section": "Start \u2192 Finish", "snap_method": "geometry_only", "context": "", "jurisdiction": "", "jurisdiction_unit": ""}}, {"type": "Feature", "geometry": {"type": "Point", "coordinates": [-73.8453, 41.11701]}, "properties": {"id": "turn_049", "course_mi": 23.38, "ele_m": null, "direction": "right", "intensity": "normal", "label": "Thirteen Bridges Loop", "label_type": "trail", "section": "Start \u2192 Finish", "snap_method": "geometry_only", "context": "", "jurisdiction": "", "jurisdiction_unit": ""}}, {"type": "Feature", "geometry": {"type": "Point", "coordinates": [-73.85013, 41.10958]}, "properties": {"id": "turn_050", "course_mi": 24.16, "ele_m": null, "direction": "right", "intensity": "normal", "label": "Thirteen Bridges Loop", "label_type": "trail", "section": "Start \u2192 Finish", "snap_method": "geometry_only", "context": "", "jurisdiction": "", "jurisdiction_unit": ""}}, {"type": "Feature", "geometry": {"type": "Point", "coordinates": [-73.86365, 41.11871]}, "properties": {"id": "turn_051", "course_mi": 25.41, "ele_m": null, "direction": "left", "intensity": "normal", "label": "Rockwood Hall Brook Trail", "label_type": "trail", "section": "Start \u2192 Finish", "snap_method": "geometry_only", "context": "", "jurisdiction": "", "jurisdiction_unit": ""}}, {"type": "Feature", "geometry": {"type": "Point", "coordinates": [-73.86393, 41.11822]}, "properties": {"id": "turn_052", "course_mi": 25.48, "ele_m": null, "direction": "right", "intensity": "sharp", "label": "Rockwood Hall Brook Trail", "label_type": "trail", "section": "Start \u2192 Finish", "snap_method": "geometry_only", "context": "", "jurisdiction": "", "jurisdiction_unit": ""}}, {"type": "Feature", "geometry": {"type": "Point", "coordinates": [-73.86709, 41.12096]}, "properties": {"id": "turn_053", "course_mi": 25.75, "ele_m": null, "direction": "left", "intensity": "normal", "label": "Rockwood Hall Brook Trail", "label_type": "trail", "section": "Start \u2192 Finish", "snap_method": "geometry_only", "context": "", "jurisdiction": "", "jurisdiction_unit": ""}}]}