{"type":"FeatureCollection","features":[{"type":"Feature","properties":{"name":"Adirondack Half Marathon","loop":"half-marathon","color":"#3E8E5A","distance_km":22.32,"distance_mi":13.87,"gain_m":161,"gain_ft":530,"loss_m":161,"loss_ft":530,"min_ele_m":245,"max_ele_m":307,"min_ele_ft":804,"max_ele_ft":1007},"geometry":{"type":"LineString","coordinates":[[-73.75594,43.764524,827],[-73.758244,43.76458,821],[-73.758672,43.764512,818],[-73.758878,43.764322,809],[-73.759143,43.763695,804],[-73.759435,43.763332,804],[-73.759827,43.762971,804],[-73.76214,43.761553,804],[-73.762776,43.761289,804],[-73.765035,43.760743,804],[-73.765727,43.760483,804],[-73.766284,43.760191,804],[-73.767552,43.759084,804],[-73.767881,43.758666,804],[-73.768251,43.75808,804],[-73.768599,43.757665,804],[-73.770132,43.756406,804],[-73.771629,43.754654,804],[-73.772794,43.753748,804],[-73.774304,43.752801,804],[-73.775349,43.752031,804],[-73.775992,43.751421,804],[-73.777146,43.750539,804],[-73.778114,43.74957,804],[-73.779537,43.748352,804],[-73.780249,43.747553,804],[-73.7809,43.746657,804],[-73.781814,43.744992,804],[-73.782747,43.743541,807],[-73.783506,43.742645,807],[-73.783812,43.742361,807],[-73.784228,43.742096,807],[-73.784631,43.741917,807],[-73.789881,43.740676,807],[-73.790869,43.740268,807],[-73.79142,43.739992,807],[-73.793943,43.73826,807],[-73.795562,43.737383,807],[-73.797144,43.736349,807],[-73.798352,43.735493,814],[-73.799417,43.734942,826],[-73.800511,43.734482,835],[-73.801409,43.734037,844],[-73.801865,43.73366,847],[-73.80277,43.732733,852],[-73.803501,43.731802,852],[-73.803843,43.730809,852],[-73.803927,43.730371,854],[-73.803978,43.729865,857],[-73.803946,43.729683,856],[-73.803867,43.729555,853],[-73.803054,43.728969,852],[-73.802234,43.728149,850],[-73.80195,43.727748,848],[-73.801864,43.727493,844],[-73.801825,43.72701,843],[-73.80194,43.726577,844],[-73.802195,43.72621,843],[-73.802859,43.725736,842],[-73.80505,43.724704,842],[-73.805982,43.724333,842],[-73.806796,43.724094,832],[-73.807437,43.724096,825],[-73.810003,43.724291,818],[-73.809442,43.726164,811],[-73.809491,43.726568,804],[-73.80957,43.72677,818],[-73.810515,43.727885,834],[-73.812095,43.729458,846],[-73.812518,43.729668,864],[-73.815082,43.730269,875],[-73.816659,43.730563,877],[-73.818838,43.731219,875],[-73.81536,43.736452,882],[-73.815075,43.73675,875],[-73.813633,43.737853,887],[-73.80973,43.739495,894],[-73.805789,43.740993,900],[-73.805213,43.741289,900],[-73.804329,43.741989,903],[-73.803366,43.743448,894],[-73.802928,43.743894,895],[-73.802596,43.744145,904],[-73.801681,43.744654,896],[-73.798788,43.746072,918],[-73.79648,43.747478,920],[-73.795851,43.747727,932],[-73.793871,43.748249,940],[-73.793149,43.748496,980],[-73.792678,43.748738,977],[-73.791921,43.749177,1007],[-73.791419,43.749602,997],[-73.790881,43.750193,988],[-73.790668,43.750612,961],[-73.790434,43.751387,950],[-73.790417,43.752468,922],[-73.791138,43.755846,912],[-73.7913,43.757303,905],[-73.791425,43.757793,910],[-73.792352,43.759875,917],[-73.792518,43.760478,928],[-73.79261,43.761062,936],[-73.792617,43.761633,940],[-73.792444,43.76272,932],[-73.791787,43.764937,917],[-73.791607,43.765848,905],[-73.791607,43.766901,904],[-73.791873,43.768072,904],[-73.792757,43.770146,910],[-73.793045,43.770026,919],[-73.792757,43.770146,922],[-73.792961,43.770984,925],[-73.79379,43.780006,928],[-73.793713,43.781679,939],[-73.793586,43.782438,948],[-73.793353,43.783431,961],[-73.793061,43.784307,944],[-73.792553,43.785503,928],[-73.789846,43.790653,900],[-73.789229,43.791611,875],[-73.788634,43.792343,855],[-73.787828,43.793168,865],[-73.787368,43.793565,865],[-73.78341,43.796818,884],[-73.782437,43.797466,897],[-73.780487,43.798391,912],[-73.779584,43.798984,912],[-73.778939,43.799637,921],[-73.778217,43.800627,927],[-73.777449,43.801578,938],[-73.776463,43.802697,930],[-73.776129,43.803156,936],[-73.775708,43.803939,932],[-73.775411,43.804878,919],[-73.77496,43.807262,909],[-73.774779,43.807979,916],[-73.773521,43.811183,911],[-73.772622,43.814616,919],[-73.772019,43.817146,926],[-73.771959,43.817901,922],[-73.772199,43.821216,911],[-73.772478,43.823409,900],[-73.77293,43.825789,883],[-73.773124,43.827104,865],[-73.773131,43.827615,852],[-73.773078,43.827927,839],[-73.772826,43.828524,833],[-73.772555,43.828916,837],[-73.772121,43.829357,841],[-73.771122,43.830133,850],[-73.767703,43.832676,861],[-73.765199,43.833692,867],[-73.763538,43.834295,868],[-73.762368,43.834852,865],[-73.76214,43.835123,862],[-73.761953,43.836044,855],[-73.761686,43.836801,856],[-73.76049,43.83665,855],[-73.75729,43.835947,857]]}}]}