{"type": "FeatureCollection", "features": [{"type": "Feature", "geometry": {"type": "Point", "coordinates": [-73.8176, 43.73312]}, "properties": {"id": "turn_000", "course_mi": 5.0, "ele_m": null, "direction": "right", "intensity": "normal", "label": "Route 9 (Pottersville)", "label_type": "road", "section": "Start \u2192 Finish", "snap_method": "osrm_steps", "context": "", "jurisdiction": "", "jurisdiction_unit": ""}}, {"type": "Feature", "geometry": {"type": "Point", "coordinates": [-73.792757, 43.770146]}, "properties": {"id": "turn_001", "course_mi": 8.44, "ele_m": null, "direction": "left", "intensity": "normal", "label": "", "label_type": "", "section": "Start \u2192 Finish", "snap_method": "osrm_steps", "context": "", "jurisdiction": "", "jurisdiction_unit": ""}}, {"type": "Feature", "geometry": {"type": "Point", "coordinates": [-73.761691, 43.836786]}, "properties": {"id": "turn_002", "course_mi": 13.65, "ele_m": null, "direction": "left", "intensity": "normal", "label": "Leland Avenue", "label_type": "road", "section": "Start \u2192 Finish", "snap_method": "osrm_steps", "context": "", "jurisdiction": "", "jurisdiction_unit": ""}}]}