{"type": "FeatureCollection", "features": [{"type": "Feature", "geometry": {"type": "Point", "coordinates": [-73.754542, 43.862727]}, "properties": {"id": "turn_000", "course_mi": 1.95, "ele_m": null, "direction": "left", "intensity": "slight", "label": "Alder Meadow Road", "label_type": "road", "section": "Start \u2192 Finish", "snap_method": "osrm_steps", "context": "", "jurisdiction": "", "jurisdiction_unit": ""}}, {"type": "Feature", "geometry": {"type": "Point", "coordinates": [-73.71646, 43.85751]}, "properties": {"id": "turn_001", "course_mi": 4.1, "ele_m": null, "direction": "right", "intensity": "normal", "label": "Adirondack Road", "label_type": "road", "section": "Start \u2192 Finish", "snap_method": "osrm_steps", "context": "", "jurisdiction": "", "jurisdiction_unit": ""}}, {"type": "Feature", "geometry": {"type": "Point", "coordinates": [-73.8176, 43.73312]}, "properties": {"id": "turn_002", "course_mi": 17.5, "ele_m": null, "direction": "right", "intensity": "normal", "label": "Route 9 (Pottersville)", "label_type": "road", "section": "Start \u2192 Finish", "snap_method": "osrm_steps", "context": "", "jurisdiction": "", "jurisdiction_unit": ""}}, {"type": "Feature", "geometry": {"type": "Point", "coordinates": [-73.792757, 43.770146]}, "properties": {"id": "turn_003", "course_mi": 20.93, "ele_m": null, "direction": "left", "intensity": "normal", "label": "", "label_type": "", "section": "Start \u2192 Finish", "snap_method": "osrm_steps", "context": "", "jurisdiction": "", "jurisdiction_unit": ""}}, {"type": "Feature", "geometry": {"type": "Point", "coordinates": [-73.761691, 43.836786]}, "properties": {"id": "turn_004", "course_mi": 26.14, "ele_m": null, "direction": "left", "intensity": "normal", "label": "Leland Avenue", "label_type": "road", "section": "Start \u2192 Finish", "snap_method": "osrm_steps", "context": "", "jurisdiction": "", "jurisdiction_unit": ""}}]}