{"type":"FeatureCollection","features":[{"type":"Feature","properties":{"name":"Adirondack Marathon","loop":"marathon","color":"#13364A","distance_km":42.39,"distance_mi":26.34,"gain_m":471,"gain_ft":1544,"loss_m":471,"loss_ft":1544,"min_ele_m":245,"max_ele_m":353,"min_ele_ft":804,"max_ele_ft":1159},"geometry":{"type":"LineString","coordinates":[[-73.762145,43.835115,858],[-73.761953,43.836044,861],[-73.761311,43.837835,862],[-73.7606,43.839557,864],[-73.760431,43.840099,878],[-73.759011,43.845283,892],[-73.757308,43.851068,907],[-73.756213,43.855279,913],[-73.755267,43.860636,915],[-73.754717,43.862743,909],[-73.753609,43.862798,898],[-73.753245,43.862921,877],[-73.752604,43.863291,865],[-73.75163,43.863481,856],[-73.751323,43.863455,851],[-73.750958,43.863348,846],[-73.75,43.862778,844],[-73.749415,43.862526,841],[-73.748506,43.862371,839],[-73.744505,43.861895,836],[-73.743086,43.861918,831],[-73.740001,43.862173,831],[-73.738774,43.862078,836],[-73.737267,43.86235,841],[-73.735635,43.862425,843],[-73.732462,43.862674,852],[-73.729845,43.862609,867],[-73.728405,43.862658,873],[-73.726858,43.86261,880],[-73.725101,43.862346,889],[-73.724636,43.862194,892],[-73.723924,43.861709,896],[-73.723699,43.861666,889],[-73.722749,43.861709,880],[-73.722429,43.861629,864],[-73.721736,43.86129,847],[-73.721626,43.861201,823],[-73.721535,43.861005,819],[-73.721473,43.860282,814],[-73.721367,43.859833,814],[-73.721229,43.859486,820],[-73.721026,43.859191,838],[-73.720607,43.858973,854],[-73.718919,43.858274,871],[-73.718005,43.858052,887],[-73.716912,43.857633,907],[-73.716457,43.85751,918],[-73.716016,43.856826,930],[-73.716082,43.856189,944],[-73.716061,43.855991,963],[-73.7158,43.855519,970],[-73.715527,43.854475,975],[-73.715841,43.85343,980],[-73.715662,43.852251,988],[-73.715542,43.851952,993],[-73.715313,43.851607,1005],[-73.71449,43.850583,1019],[-73.714179,43.849734,1037],[-73.713918,43.848818,1048],[-73.71345,43.848114,1055],[-73.713211,43.847567,1068],[-73.713308,43.845719,1081],[-73.712938,43.841794,1091],[-73.713101,43.841323,1104],[-73.71313,43.84052,1121],[-73.713104,43.840391,1125],[-73.712805,43.839814,1126],[-73.712825,43.839559,1129],[-73.713261,43.839109,1126],[-73.713984,43.83852,1127],[-73.714151,43.838311,1127],[-73.714325,43.838026,1131],[-73.714918,43.836634,1132],[-73.715132,43.83649,1138],[-73.715959,43.8362,1145],[-73.716183,43.835991,1153],[-73.716687,43.83493,1159],[-73.716954,43.834532,1154],[-73.717253,43.834243,1148],[-73.718612,43.832246,1139],[-73.718959,43.83192,1133],[-73.719992,43.831213,1115],[-73.720216,43.831014,1103],[-73.721246,43.829324,1091],[-73.721529,43.828951,1075],[-73.721762,43.828717,1057],[-73.722406,43.828279,1051],[-73.722717,43.827976,1042],[-73.722944,43.827533,1033],[-73.72316,43.826845,1026],[-73.723275,43.826618,1016],[-73.723367,43.826496,1007],[-73.723666,43.826279,1002],[-73.723903,43.825939,997],[-73.724774,43.825168,990],[-73.724854,43.825031,979],[-73.725045,43.824395,967],[-73.725637,43.823761,956],[-73.726078,43.822961,942],[-73.726303,43.822621,934],[-73.726511,43.822414,927],[-73.726638,43.822356,923],[-73.726766,43.822366,921],[-73.727798,43.822751,922],[-73.729275,43.82292,925],[-73.730031,43.822695,930],[-73.730886,43.822672,930],[-73.732753,43.822106,928],[-73.734104,43.821428,923],[-73.735281,43.821145,917],[-73.736371,43.820736,906],[-73.738213,43.820324,900],[-73.739459,43.819753,893],[-73.739739,43.819574,884],[-73.739853,43.819367,869],[-73.739867,43.818476,862],[-73.740014,43.818329,855],[-73.740115,43.818271,846],[-73.74067,43.818226,850],[-73.741526,43.817812,856],[-73.743044,43.817256,847],[-73.743896,43.81706,858],[-73.744291,43.816833,866],[-73.744643,43.816492,876],[-73.745109,43.815922,896],[-73.745382,43.815394,927],[-73.745579,43.814709,938],[-73.745833,43.814468,953],[-73.746545,43.814039,957],[-73.746851,43.813946,953],[-73.747546,43.813978,946],[-73.748136,43.813818,940],[-73.750709,43.812629,930],[-73.751992,43.812215,928],[-73.752979,43.8117,919],[-73.754343,43.81059,911],[-73.755352,43.810003,907],[-73.756152,43.80944,916],[-73.756984,43.808293,920],[-73.757968,43.806354,925],[-73.758272,43.80584,937],[-73.758736,43.805373,939],[-73.759157,43.804824,923],[-73.759823,43.804115,915],[-73.760009,43.803637,920],[-73.760634,43.8027,913],[-73.760681,43.802417,919],[-73.761036,43.802022,934],[-73.761365,43.801388,939],[-73.762173,43.800613,936],[-73.763136,43.799539,925],[-73.763757,43.798942,914],[-73.765013,43.797868,896],[-73.765564,43.797244,883],[-73.766377,43.796695,871],[-73.766736,43.79622,883],[-73.767669,43.795222,886],[-73.768575,43.794003,898],[-73.768984,43.793754,906],[-73.76921,43.793554,923],[-73.769311,43.793384,937],[-73.769429,43.792908,955],[-73.770029,43.792162,974],[-73.770228,43.79153,999],[-73.770801,43.790903,1012],[-73.771253,43.790039,1016],[-73.771298,43.789825,1016],[-73.771289,43.78891,1009],[-73.771364,43.788419,991],[-73.77166,43.787409,974],[-73.771832,43.78705,952],[-73.771998,43.78688,930],[-73.773055,43.786461,906],[-73.773259,43.786303,890],[-73.77342,43.785976,881],[-73.773433,43.785412,877],[-73.773104,43.785063,873],[-73.771512,43.784138,879],[-73.771269,43.78392,880],[-73.77098,43.783549,875],[-73.770479,43.783109,860],[-73.770306,43.782831,860],[-73.770038,43.782149,845],[-73.7698,43.781751,848],[-73.769567,43.781559,859],[-73.768735,43.781407,876],[-73.76783,43.780912,881],[-73.766689,43.780426,904],[-73.766054,43.780275,911],[-73.765579,43.780301,910],[-73.764777,43.780495,916],[-73.76425,43.780562,917],[-73.762835,43.780591,915],[-73.762038,43.780488,917],[-73.76166,43.78026,925],[-73.760047,43.778413,934],[-73.759629,43.777803,954],[-73.75955,43.777596,976],[-73.759376,43.775459,999],[-73.759286,43.775029,1018],[-73.759107,43.774614,1036],[-73.758755,43.774121,1039],[-73.757955,43.773366,1041],[-73.757224,43.772976,1037],[-73.756984,43.772822,1034],[-73.75689,43.772706,1030],[-73.756873,43.772296,1028],[-73.757226,43.771089,1025],[-73.75729,43.770583,1021],[-73.757213,43.77005,1015],[-73.757059,43.76965,1001],[-73.756858,43.769239,987],[-73.755941,43.767886,953],[-73.755781,43.767462,918],[-73.755938,43.764524,877],[-73.758244,43.76458,845],[-73.758672,43.764512,818],[-73.758878,43.764322,809],[-73.759143,43.763695,804],[-73.759435,43.763332,804],[-73.759827,43.762971,804],[-73.76214,43.761553,804],[-73.762776,43.761289,804],[-73.765035,43.760743,804],[-73.765727,43.760483,804],[-73.766284,43.760191,804],[-73.767552,43.759084,804],[-73.767881,43.758666,804],[-73.768251,43.75808,804],[-73.768599,43.757665,804],[-73.770132,43.756406,804],[-73.771629,43.754654,804],[-73.772794,43.753748,804],[-73.774304,43.752801,804],[-73.775349,43.752031,804],[-73.775992,43.751421,804],[-73.777146,43.750539,804],[-73.778114,43.74957,804],[-73.779537,43.748352,804],[-73.780249,43.747553,804],[-73.7809,43.746657,804],[-73.781814,43.744992,804],[-73.782747,43.743541,807],[-73.783506,43.742645,807],[-73.783812,43.742361,807],[-73.784228,43.742096,807],[-73.784631,43.741917,807],[-73.789881,43.740676,807],[-73.790869,43.740268,807],[-73.79142,43.739992,807],[-73.793943,43.73826,807],[-73.795562,43.737383,807],[-73.797144,43.736349,807],[-73.798352,43.735493,814],[-73.799417,43.734942,826],[-73.800511,43.734482,835],[-73.801409,43.734037,844],[-73.801865,43.73366,847],[-73.80277,43.732733,852],[-73.803501,43.731802,852],[-73.803843,43.730809,852],[-73.803968,43.730047,854],[-73.803946,43.729683,858],[-73.803867,43.729555,855],[-73.803054,43.728969,852],[-73.802234,43.728149,849],[-73.80195,43.727748,846],[-73.80182,43.72725,843],[-73.801866,43.726772,841],[-73.80194,43.726577,843],[-73.802195,43.72621,843],[-73.802859,43.725736,842],[-73.80505,43.724704,842],[-73.805982,43.724333,842],[-73.806796,43.724094,832],[-73.807437,43.724096,825],[-73.810003,43.724291,818],[-73.809442,43.726164,811],[-73.809491,43.726568,804],[-73.80957,43.72677,818],[-73.810515,43.727885,834],[-73.812095,43.729458,846],[-73.812518,43.729668,864],[-73.815082,43.730269,875],[-73.816659,43.730563,877],[-73.818838,43.731219,875],[-73.81536,43.736452,882],[-73.815075,43.73675,875],[-73.813633,43.737853,887],[-73.80973,43.739495,894],[-73.805789,43.740993,900],[-73.805213,43.741289,900],[-73.804329,43.741989,903],[-73.803366,43.743448,894],[-73.802928,43.743894,895],[-73.802596,43.744145,904],[-73.801681,43.744654,896],[-73.798788,43.746072,918],[-73.79648,43.747478,920],[-73.795851,43.747727,932],[-73.793871,43.748249,940],[-73.793149,43.748496,980],[-73.792678,43.748738,977],[-73.791921,43.749177,1007],[-73.791419,43.749602,997],[-73.790881,43.750193,988],[-73.790668,43.750612,961],[-73.790434,43.751387,950],[-73.790417,43.752468,922],[-73.791138,43.755846,912],[-73.7913,43.757303,905],[-73.791425,43.757793,910],[-73.792352,43.759875,917],[-73.792518,43.760478,928],[-73.79261,43.761062,936],[-73.792617,43.761633,940],[-73.792444,43.76272,932],[-73.791787,43.764937,917],[-73.791607,43.765848,905],[-73.791607,43.766901,904],[-73.791873,43.768072,904],[-73.792757,43.770146,910],[-73.793045,43.770026,919],[-73.792757,43.770146,922],[-73.792961,43.770984,925],[-73.79379,43.780006,928],[-73.793713,43.781679,939],[-73.793586,43.782438,948],[-73.793353,43.783431,961],[-73.793061,43.784307,944],[-73.792553,43.785503,928],[-73.789846,43.790653,900],[-73.789229,43.791611,875],[-73.788634,43.792343,855],[-73.787828,43.793168,865],[-73.787368,43.793565,865],[-73.78341,43.796818,884],[-73.782437,43.797466,897],[-73.780487,43.798391,912],[-73.779584,43.798984,912],[-73.778939,43.799637,921],[-73.778217,43.800627,927],[-73.777449,43.801578,938],[-73.776463,43.802697,930],[-73.776129,43.803156,936],[-73.775708,43.803939,932],[-73.775411,43.804878,919],[-73.77496,43.807262,909],[-73.774779,43.807979,916],[-73.773521,43.811183,911],[-73.772622,43.814616,919],[-73.772019,43.817146,926],[-73.771959,43.817901,922],[-73.772199,43.821216,911],[-73.772478,43.823409,900],[-73.77293,43.825789,883],[-73.773124,43.827104,865],[-73.773131,43.827615,852],[-73.773078,43.827927,839],[-73.772826,43.828524,833],[-73.772555,43.828916,837],[-73.772121,43.829357,841],[-73.771122,43.830133,850],[-73.767703,43.832676,861],[-73.765199,43.833692,867],[-73.763538,43.834295,868],[-73.762368,43.834852,865],[-73.76214,43.835123,862],[-73.761953,43.836044,855],[-73.761686,43.836801,856],[-73.76049,43.83665,855],[-73.75729,43.835947,857]]}}]}