{"type":"FeatureCollection","features":[{"type":"Feature","properties":{"name":"tinman","phase":"out","segIdx":0},"geometry":{"type":"LineString","coordinates":[[-74.46466,44.229983],[-74.464679,44.229905],[-74.464721,44.229724],[-74.464765,44.229538],[-74.464828,44.229284],[-74.464883,44.229062],[-74.46495,44.228792],[-74.464951,44.228791],[-74.465086,44.228248],[-74.465133,44.228057],[-74.465427,44.228092],[-74.465133,44.228057],[-74.465025,44.228054],[-74.464879,44.227958],[-74.466322,44.225606],[-74.466322,44.225606],[-74.463106,44.226132],[-74.463084,44.226133],[-74.462927,44.226141],[-74.46248,44.226361]]}},{"type":"Feature","properties":{"name":"tinman","phase":"back","segIdx":1},"geometry":{"type":"LineString","coordinates":[[-74.463106,44.226132],[-74.463084,44.226133],[-74.462927,44.226141],[-74.46248,44.226361],[-74.461233,44.227002],[-74.460678,44.227297],[-74.460574,44.227363],[-74.460556,44.227382],[-74.460317,44.227625],[-74.460279,44.227655]]}},{"type":"Feature","properties":{"name":"tinman","phase":"out","segIdx":2},"geometry":{"type":"LineString","coordinates":[[-74.460574,44.227363],[-74.460556,44.227382],[-74.460317,44.227625],[-74.460279,44.227655],[-74.460277,44.227657],[-74.459879,44.22782],[-74.459839,44.227829],[-74.45976,44.227848],[-74.459472,44.227887],[-74.458625,44.227959],[-74.457754,44.228039],[-74.457567,44.228055],[-74.457537,44.228058],[-74.457262,44.226639],[-74.457185,44.226258],[-74.457094,44.225807],[-74.456899,44.224844],[-74.456871,44.224641],[-74.456861,44.224572],[-74.456111,44.224626],[-74.455568,44.224677],[-74.45537,44.224695],[-74.454752,44.224751],[-74.453904,44.224826],[-74.452442,44.224964],[-74.451136,44.225088],[-74.450444,44.225144],[-74.448791,44.225275],[-74.447345,44.225387],[-74.446115,44.225484],[-74.445918,44.225499],[-74.445025,44.225567],[-74.444656,44.225598]]}},{"type":"Feature","properties":{"name":"tinman","phase":"back","segIdx":3},"geometry":{"type":"LineString","coordinates":[[-74.446115,44.225484],[-74.445918,44.225499],[-74.445025,44.225567],[-74.444656,44.225598],[-74.444238,44.225633],[-74.45537,44.224695],[-74.454752,44.224751],[-74.453904,44.224826],[-74.452442,44.224964],[-74.451136,44.225088],[-74.450444,44.225144]]}},{"type":"Feature","properties":{"name":"tinman","phase":"out","segIdx":4},"geometry":{"type":"LineString","coordinates":[[-74.453904,44.224826],[-74.452442,44.224964],[-74.451136,44.225088],[-74.450444,44.225144],[-74.448791,44.225275],[-74.447345,44.225387],[-74.446115,44.225484],[-74.445918,44.225499],[-74.445025,44.225567],[-74.444656,44.225598],[-74.444238,44.225633],[-74.444185,44.225637],[-74.444053,44.225648],[-74.441115,44.225902],[-74.440587,44.225948],[-74.437714,44.226195],[-74.43765,44.2262],[-74.437363,44.226225],[-74.437244,44.226241],[-74.43705,44.226267],[-74.436716,44.226328],[-74.436383,44.226411],[-74.436202,44.226456],[-74.436237,44.226817],[-74.436223,44.227257],[-74.436219,44.227383],[-74.436196,44.227752]]}},{"type":"Feature","properties":{"name":"tinman","phase":"back","segIdx":5},"geometry":{"type":"LineString","coordinates":[[-74.436237,44.226817],[-74.436223,44.227257],[-74.436219,44.227383],[-74.436196,44.227752],[-74.436164,44.228276],[-74.436153,44.228768],[-74.436168,44.229001],[-74.43617,44.22903],[-74.436224,44.229252],[-74.436301,44.229656],[-74.436429,44.230184],[-74.436513,44.230585],[-74.436533,44.230682],[-74.436522,44.230853],[-74.436498,44.230938],[-74.436457,44.231029]]}},{"type":"Feature","properties":{"name":"tinman","phase":"out","segIdx":6},"geometry":{"type":"LineString","coordinates":[[-74.436533,44.230682],[-74.436522,44.230853],[-74.436498,44.230938],[-74.436457,44.231029],[-74.436394,44.231165],[-74.436057,44.231775],[-74.435809,44.232213],[-74.43566,44.232475],[-74.435554,44.23265],[-74.435412,44.232884],[-74.435403,44.232896],[-74.435274,44.233058],[-74.435256,44.233081],[-74.435177,44.233162],[-74.43503,44.233261],[-74.435027,44.233263],[-74.434838,44.233371],[-74.434707,44.233424],[-74.434509,44.233483],[-74.434442,44.233498],[-74.434247,44.233543],[-74.433721,44.233663],[-74.433461,44.233722],[-74.433118,44.233809],[-74.433064,44.233823],[-74.43273,44.233933],[-74.432566,44.233998],[-74.432336,44.234106],[-74.432566,44.233998],[-74.432336,44.234106],[-74.431672,44.234419],[-74.431649,44.23443],[-74.43145,44.234508],[-74.431364,44.234542],[-74.431017,44.234621],[-74.430681,44.234662],[-74.430184,44.234724],[-74.429784,44.234765],[-74.429592,44.234785],[-74.429416,44.234818],[-74.429344,44.234839],[-74.429344,44.234839],[-74.42919,44.234884],[-74.429089,44.234926],[-74.428993,44.234887],[-74.428734,44.2348],[-74.428413,44.234734],[-74.428326,44.234713],[-74.427685,44.234561],[-74.427586,44.234537],[-74.427315,44.234481],[-74.427141,44.234445],[-74.426941,44.234425],[-74.426936,44.234425],[-74.425821,44.234416],[-74.425731,44.234416],[-74.425312,44.234424],[-74.42492,44.234432],[-74.424459,44.234441],[-74.42445,44.234441],[-74.422779,44.234468],[-74.422431,44.234474],[-74.422183,44.234478],[-74.421947,44.234482],[-74.421941,44.234482],[-74.423717,44.234454]]}},{"type":"Feature","properties":{"name":"tinman","phase":"back","segIdx":7},"geometry":{"type":"LineString","coordinates":[[-74.422183,44.234478],[-74.421947,44.234482],[-74.421941,44.234482],[-74.423717,44.234454],[-74.423722,44.234453],[-74.424575,44.234439],[-74.424968,44.234431],[-74.425532,44.23442],[-74.425731,44.234416],[-74.426229,44.234417],[-74.426234,44.234417],[-74.427141,44.234445],[-74.427459,44.234511],[-74.427586,44.234537],[-74.428072,44.234653],[-74.428413,44.234734],[-74.428734,44.2348],[-74.428993,44.234887],[-74.429089,44.234926],[-74.42919,44.234884],[-74.429283,44.234857],[-74.42919,44.234884],[-74.429283,44.234857],[-74.429416,44.234818],[-74.429592,44.234785],[-74.430184,44.234724],[-74.43075,44.234654],[-74.430972,44.234627],[-74.431017,44.234621],[-74.4312,44.234579],[-74.431364,44.234542],[-74.43146,44.234504],[-74.431649,44.23443],[-74.431927,44.234299],[-74.432377,44.234087],[-74.432566,44.233998],[-74.43273,44.233933],[-74.432877,44.233884],[-74.433064,44.233823],[-74.433461,44.233722],[-74.433506,44.233712],[-74.433998,44.2336],[-74.434365,44.233516],[-74.434605,44.233454],[-74.434707,44.233424],[-74.43478,44.233394],[-74.434838,44.233371],[-74.43497,44.233301],[-74.435167,44.233169],[-74.435177,44.233162],[-74.435256,44.233081],[-74.435403,44.232896],[-74.435405,44.232893],[-74.435809,44.232213],[-74.435948,44.231967],[-74.43636,44.231241],[-74.436376,44.231207],[-74.436475,44.230988],[-74.436498,44.230938],[-74.436522,44.230853],[-74.436533,44.230682]]}},{"type":"Feature","properties":{"name":"tinman","phase":"out","segIdx":8},"geometry":{"type":"LineString","coordinates":[[-74.436475,44.230988],[-74.436498,44.230938],[-74.436522,44.230853],[-74.436533,44.230682],[-74.436429,44.230184],[-74.436301,44.229656],[-74.436224,44.229252],[-74.43617,44.22903],[-74.436153,44.228768],[-74.436164,44.228276],[-74.436219,44.227383],[-74.436237,44.226817],[-74.436208,44.226517]]}},{"type":"Feature","properties":{"name":"tinman","phase":"back","segIdx":9},"geometry":{"type":"LineString","coordinates":[[-74.436164,44.228276],[-74.436219,44.227383],[-74.436237,44.226817],[-74.436208,44.226517],[-74.436202,44.226456],[-74.436716,44.226328],[-74.43705,44.226267],[-74.437363,44.226225],[-74.43765,44.2262],[-74.440587,44.225948],[-74.441115,44.225902],[-74.444053,44.225648],[-74.444185,44.225637],[-74.444656,44.225598],[-74.445025,44.225567],[-74.445918,44.225499],[-74.446115,44.225484],[-74.447345,44.225387],[-74.448791,44.225275],[-74.450444,44.225144],[-74.451136,44.225088],[-74.452442,44.224964],[-74.453904,44.224826],[-74.454752,44.224751],[-74.45537,44.224695],[-74.455568,44.224677],[-74.456111,44.224626],[-74.456861,44.224572],[-74.456899,44.224844],[-74.457094,44.225807],[-74.457185,44.226258],[-74.457262,44.226639],[-74.457537,44.228058],[-74.457754,44.228039],[-74.458625,44.227959],[-74.459472,44.227887],[-74.45976,44.227848],[-74.459879,44.22782],[-74.459962,44.227805],[-74.460252,44.227677],[-74.459802,44.228352],[-74.459807,44.228425],[-74.459811,44.228475],[-74.459814,44.228514],[-74.459861,44.229143],[-74.459871,44.229284],[-74.459984,44.230517],[-74.460051,44.230992],[-74.460091,44.231275],[-74.46037,44.232908],[-74.460622,44.232876],[-74.461716,44.232713],[-74.461842,44.232693],[-74.462495,44.232591],[-74.463435,44.23245],[-74.464357,44.232301],[-74.464439,44.232469]]}},{"type":"Feature","properties":{"name":"tinman","phase":"out","segIdx":10},"geometry":{"type":"LineString","coordinates":[[-74.462495,44.232591],[-74.463435,44.23245],[-74.464357,44.232301],[-74.464439,44.232469],[-74.464858,44.23312],[-74.465098,44.233472],[-74.465209,44.233636],[-74.465369,44.233827],[-74.465462,44.233922],[-74.465263,44.234122],[-74.464975,44.234074],[-74.464929,44.234148],[-74.464759,44.234421],[-74.464689,44.234478],[-74.464586,44.234531],[-74.464421,44.234591],[-74.464255,44.234351]]}},{"type":"Feature","properties":{"name":"tinman","phase":"back","segIdx":11},"geometry":{"type":"LineString","coordinates":[[-74.464689,44.234478],[-74.464586,44.234531],[-74.464421,44.234591],[-74.464255,44.234351],[-74.464137,44.23418],[-74.464087,44.234108],[-74.464009,44.233996],[-74.464714,44.233745],[-74.464634,44.233643],[-74.465098,44.233472],[-74.464858,44.23312],[-74.464439,44.232469],[-74.464357,44.232301],[-74.463435,44.23245],[-74.462495,44.232591],[-74.461842,44.232693]]}},{"type":"Feature","properties":{"name":"tinman","phase":"out","segIdx":12},"geometry":{"type":"LineString","coordinates":[[-74.464357,44.232301],[-74.463435,44.23245],[-74.462495,44.232591],[-74.461842,44.232693],[-74.461716,44.232713],[-74.460622,44.232876],[-74.46037,44.232908],[-74.460749,44.234887],[-74.460868,44.235506],[-74.460922,44.235795],[-74.460986,44.236141],[-74.46124,44.237506],[-74.461292,44.237678],[-74.461381,44.237845],[-74.461526,44.238015],[-74.461705,44.23816],[-74.461864,44.238261],[-74.462149,44.238381],[-74.462445,44.238462],[-74.462567,44.238488]]}},{"type":"Feature","properties":{"name":"tinman","phase":"back","segIdx":13},"geometry":{"type":"LineString","coordinates":[[-74.461864,44.238261],[-74.462149,44.238381],[-74.462445,44.238462],[-74.462567,44.238488],[-74.462662,44.238312],[-74.462772,44.238174],[-74.462952,44.238021],[-74.463156,44.237871],[-74.463726,44.237507],[-74.463915,44.237408],[-74.464033,44.23736],[-74.464532,44.237201],[-74.464674,44.237165],[-74.464789,44.237138],[-74.464874,44.237085],[-74.465008,44.236833],[-74.465294,44.236486],[-74.465324,44.236462],[-74.465384,44.236423],[-74.465427,44.236352],[-74.465482,44.236282],[-74.465573,44.236193],[-74.465482,44.236282],[-74.465427,44.236352]]}},{"type":"Feature","properties":{"name":"tinman","phase":"out","segIdx":14},"geometry":{"type":"LineString","coordinates":[[-74.465482,44.236282],[-74.465573,44.236193],[-74.465482,44.236282],[-74.465427,44.236352],[-74.465384,44.236423],[-74.465324,44.236462],[-74.465294,44.236486],[-74.465008,44.236833],[-74.464874,44.237085],[-74.464789,44.237138],[-74.464674,44.237165],[-74.464532,44.237201],[-74.464033,44.23736],[-74.463915,44.237408],[-74.463726,44.237507],[-74.463156,44.237871],[-74.462952,44.238021],[-74.462772,44.238174],[-74.462662,44.238312],[-74.462567,44.238488],[-74.463463,44.238681],[-74.46351,44.238695],[-74.46366,44.238741],[-74.463897,44.238859],[-74.464257,44.239096],[-74.464992,44.239659],[-74.465321,44.239889],[-74.465827,44.240314],[-74.465906,44.24039],[-74.466268,44.240772],[-74.466371,44.240908],[-74.466937,44.241785],[-74.467049,44.241906],[-74.467108,44.241945],[-74.467177,44.24197],[-74.467304,44.241989],[-74.467424,44.241991],[-74.467711,44.241969],[-74.469046,44.241835],[-74.470266,44.241725],[-74.474379,44.241343],[-74.474729,44.241322],[-74.475435,44.241256],[-74.475634,44.241222],[-74.475523,44.240911],[-74.475519,44.240786],[-74.475538,44.240736],[-74.475558,44.240707],[-74.475606,44.240669],[-74.475668,44.240643],[-74.475788,44.240623],[-74.476155,44.240707],[-74.476295,44.240705],[-74.476346,44.240698],[-74.476382,44.240683],[-74.476561,44.240581],[-74.476648,44.24053],[-74.476892,44.240386],[-74.477669,44.240047],[-74.478461,44.240983],[-74.478522,44.241044],[-74.478564,44.2411],[-74.478788,44.241027],[-74.47941,44.240725],[-74.479763,44.24114],[-74.479798,44.241181],[-74.480023,44.241447],[-74.480096,44.241532],[-74.480158,44.241591],[-74.480248,44.241649],[-74.480164,44.241777],[-74.479962,44.241898],[-74.479785,44.241972],[-74.479229,44.242204],[-74.478728,44.242439],[-74.47823,44.24266],[-74.474452,44.244327],[-74.472644,44.245131],[-74.471724,44.245543],[-74.470266,44.246163],[-74.47058,44.246559],[-74.470711,44.246724],[-74.470857,44.246909],[-74.471439,44.247627],[-74.471488,44.247687],[-74.471493,44.247698],[-74.471542,44.247803],[-74.471569,44.248035],[-74.471563,44.248157],[-74.471522,44.248324],[-74.47146,44.248491],[-74.471378,44.248645],[-74.470949,44.249377],[-74.470846,44.249619],[-74.470835,44.249786],[-74.47087,44.249965],[-74.470931,44.250065],[-74.471117,44.250286],[-74.471268,44.250432],[-74.471396,44.250555],[-74.471449,44.250626],[-74.471464,44.25069],[-74.471459,44.250776],[-74.471397,44.250927],[-74.470797,44.251368],[-74.470736,44.251413],[-74.470548,44.251625],[-74.47045,44.251817],[-74.470401,44.251988],[-74.470371,44.252384],[-74.470342,44.252974],[-74.470332,44.253054],[-74.470285,44.253404],[-74.470278,44.253458],[-74.47045,44.251817],[-74.470401,44.251988],[-74.470371,44.252384],[-74.470342,44.252974],[-74.470332,44.253054],[-74.470285,44.253404],[-74.470278,44.253458],[-74.470274,44.253485],[-74.470246,44.25366],[-74.470363,44.253725],[-74.470792,44.254045],[-74.47086,44.254095],[-74.471089,44.25429],[-74.471134,44.254329],[-74.471506,44.254616],[-74.471669,44.25476],[-74.471728,44.254825],[-74.471731,44.254829],[-74.472203,44.255434],[-74.472295,44.255554],[-74.472345,44.255621],[-74.472424,44.255689],[-74.472829,44.2559],[-74.473723,44.256414],[-74.474252,44.256694],[-74.475007,44.257141],[-74.475242,44.25728],[-74.475811,44.257574],[-74.476062,44.257703],[-74.476293,44.25782],[-74.476523,44.25792],[-74.4766,44.257954],[-74.476741,44.258005],[-74.476857,44.258047],[-74.47715,44.258121],[-74.477166,44.258124],[-74.477308,44.258147],[-74.477611,44.258164],[-74.478015,44.25816],[-74.478015,44.25816],[-74.47814,44.258159],[-74.478262,44.258143],[-74.478372,44.258115],[-74.478444,44.258082]]}},{"type":"Feature","properties":{"name":"tinman","phase":"back","segIdx":15},"geometry":{"type":"LineString","coordinates":[[-74.47814,44.258159],[-74.478262,44.258143],[-74.478372,44.258115],[-74.478444,44.258082],[-74.478696,44.257965],[-74.479569,44.257463],[-74.479681,44.257349],[-74.48034,44.256552],[-74.480572,44.256302],[-74.480691,44.256208],[-74.480805,44.256148],[-74.480957,44.256102],[-74.48114,44.256092]]}},{"type":"Feature","properties":{"name":"tinman","phase":"out","segIdx":16},"geometry":{"type":"LineString","coordinates":[[-74.480691,44.256208],[-74.480805,44.256148],[-74.480957,44.256102],[-74.48114,44.256092],[-74.481403,44.2561],[-74.481966,44.256098],[-74.482277,44.256114],[-74.482421,44.256141],[-74.482641,44.256213],[-74.482421,44.256141],[-74.482277,44.256114]]}},{"type":"Feature","properties":{"name":"tinman","phase":"back","segIdx":17},"geometry":{"type":"LineString","coordinates":[[-74.482421,44.256141],[-74.482641,44.256213],[-74.482421,44.256141],[-74.482277,44.256114],[-74.481966,44.256098],[-74.481403,44.2561],[-74.48114,44.256092],[-74.480957,44.256102],[-74.480805,44.256148],[-74.480691,44.256208],[-74.480572,44.256302]]}},{"type":"Feature","properties":{"name":"tinman","phase":"out","segIdx":18},"geometry":{"type":"LineString","coordinates":[[-74.480957,44.256102],[-74.480805,44.256148],[-74.480691,44.256208],[-74.480572,44.256302],[-74.48034,44.256552],[-74.479681,44.257349],[-74.479569,44.257463],[-74.479326,44.257661],[-74.478882,44.257879],[-74.478567,44.258025],[-74.478409,44.258098],[-74.478372,44.258115],[-74.478262,44.258143],[-74.47814,44.258159]]}},{"type":"Feature","properties":{"name":"tinman","phase":"back","segIdx":19},"geometry":{"type":"LineString","coordinates":[[-74.478409,44.258098],[-74.478372,44.258115],[-74.478262,44.258143],[-74.47814,44.258159],[-74.477818,44.258162],[-74.477611,44.258164],[-74.477395,44.258152],[-74.477308,44.258147],[-74.47715,44.258121],[-74.477127,44.258115],[-74.476857,44.258047],[-74.476698,44.25799],[-74.4766,44.257954],[-74.476263,44.257807],[-74.475936,44.257638],[-74.475242,44.25728],[-74.474252,44.256694],[-74.47372,44.256412],[-74.472829,44.2559],[-74.472599,44.25578],[-74.472424,44.255689],[-74.472345,44.255621],[-74.472268,44.255519],[-74.471985,44.255145],[-74.471669,44.25476],[-74.471506,44.254616],[-74.471134,44.254329],[-74.47086,44.254095],[-74.470363,44.253725],[-74.470241,44.253657],[-74.470274,44.253485],[-74.470285,44.253404],[-74.470332,44.253054],[-74.470342,44.252974],[-74.470371,44.252384],[-74.470401,44.251988],[-74.47045,44.251817],[-74.470548,44.251625],[-74.470676,44.25148],[-74.470736,44.251413],[-74.471397,44.250927],[-74.471553,44.25084],[-74.471666,44.250818],[-74.471797,44.250832],[-74.471867,44.250847],[-74.471973,44.250856],[-74.472072,44.250852],[-74.472484,44.250789],[-74.472633,44.250744],[-74.472735,44.250712],[-74.472877,44.250661],[-74.473085,44.250605],[-74.47331,44.250532],[-74.473653,44.250386],[-74.473793,44.250352],[-74.474095,44.250309]]}},{"type":"Feature","properties":{"name":"tinman","phase":"out","segIdx":20},"geometry":{"type":"LineString","coordinates":[[-74.47331,44.250532],[-74.473653,44.250386],[-74.473793,44.250352],[-74.474095,44.250309],[-74.474547,44.250264],[-74.476326,44.250281],[-74.476757,44.250273],[-74.47827,44.250082],[-74.478379,44.250053],[-74.478619,44.24999],[-74.478764,44.249908],[-74.479116,44.249658],[-74.479593,44.249259],[-74.479757,44.24914],[-74.479853,44.249096],[-74.479945,44.249079],[-74.480037,44.249075],[-74.481084,44.249215],[-74.481278,44.249229],[-74.481543,44.249213],[-74.481567,44.249212],[-74.481567,44.24897],[-74.481529,44.248831]]}},{"type":"Feature","properties":{"name":"tinman","phase":"back","segIdx":21},"geometry":{"type":"LineString","coordinates":[[-74.481543,44.249213],[-74.481567,44.249212],[-74.481567,44.24897],[-74.481529,44.248831],[-74.48146,44.248745],[-74.481337,44.248661],[-74.481136,44.248558],[-74.480606,44.248266],[-74.480426,44.248162],[-74.48007,44.247962],[-74.480622,44.247421],[-74.481083,44.247002],[-74.481973,44.246163],[-74.483275,44.244917],[-74.483547,44.244681],[-74.48411,44.244141],[-74.48415,44.244086],[-74.484158,44.24406],[-74.484166,44.244032],[-74.484155,44.243976],[-74.484126,44.243946],[-74.48404,44.243902],[-74.483178,44.243572],[-74.482648,44.243364],[-74.482627,44.243356],[-74.482535,44.24329],[-74.482504,44.243235],[-74.482515,44.243165],[-74.482567,44.243093],[-74.482968,44.242609],[-74.483151,44.242362],[-74.482538,44.242121],[-74.482261,44.242032],[-74.481955,44.241959],[-74.481716,44.241924],[-74.481557,44.241901],[-74.481429,44.241884],[-74.481171,44.241848],[-74.480638,44.241775],[-74.480428,44.241725],[-74.480329,44.241692],[-74.480248,44.241649],[-74.480158,44.241591],[-74.480096,44.241532],[-74.480023,44.241447],[-74.479798,44.241181],[-74.479773,44.241152],[-74.479763,44.24114],[-74.47941,44.240725],[-74.478788,44.241027],[-74.478564,44.2411],[-74.478522,44.241044],[-74.478461,44.240983],[-74.478413,44.240926],[-74.477669,44.240047],[-74.478488,44.239702],[-74.477786,44.238888],[-74.477093,44.23808],[-74.476594,44.237497],[-74.476487,44.237403],[-74.476344,44.237319],[-74.476271,44.237288],[-74.476147,44.237236],[-74.475458,44.237047],[-74.473973,44.23664],[-74.470529,44.235717],[-74.46853,44.235165],[-74.468066,44.235904],[-74.467772,44.236328]]}},{"type":"Feature","properties":{"name":"tinman","phase":"out","segIdx":22},"geometry":{"type":"LineString","coordinates":[[-74.470529,44.235717],[-74.46853,44.235165],[-74.468066,44.235904],[-74.467772,44.236328],[-74.467515,44.236676],[-74.478488,44.239702],[-74.477786,44.238888],[-74.477093,44.23808],[-74.476594,44.237497],[-74.476487,44.237403],[-74.476344,44.237319]]}},{"type":"Feature","properties":{"name":"tinman","phase":"back","segIdx":23},"geometry":{"type":"LineString","coordinates":[[-74.477093,44.23808],[-74.476594,44.237497],[-74.476487,44.237403],[-74.476344,44.237319],[-74.476271,44.237288],[-74.476147,44.237236],[-74.475458,44.237047],[-74.473973,44.23664],[-74.470529,44.235717],[-74.46853,44.235165],[-74.468066,44.235904],[-74.467772,44.236328],[-74.467515,44.236676],[-74.467772,44.236328],[-74.468066,44.235904],[-74.46853,44.235165],[-74.467455,44.234866],[-74.467231,44.234791],[-74.466791,44.234623],[-74.466067,44.234301],[-74.46588,44.234206],[-74.465705,44.234108],[-74.465462,44.233922],[-74.465263,44.234122],[-74.464975,44.234074],[-74.46485,44.233917],[-74.464714,44.233745],[-74.464009,44.233996],[-74.46387,44.233796],[-74.464559,44.233556],[-74.464634,44.233643],[-74.465098,44.233472],[-74.464858,44.23312],[-74.464439,44.232469],[-74.464357,44.232301],[-74.463435,44.23245],[-74.462495,44.232591],[-74.461842,44.232693]]}},{"type":"Feature","properties":{"name":"tinman","phase":"out","segIdx":24},"geometry":{"type":"LineString","coordinates":[[-74.464357,44.232301],[-74.463435,44.23245],[-74.462495,44.232591],[-74.461842,44.232693],[-74.461716,44.232713],[-74.460622,44.232876],[-74.46037,44.232908],[-74.460091,44.231275],[-74.459984,44.230517],[-74.459978,44.230447],[-74.459871,44.229284],[-74.459861,44.229143],[-74.459814,44.228514],[-74.459808,44.228438],[-74.459807,44.228425],[-74.459802,44.228352],[-74.459791,44.228223],[-74.45976,44.227848],[-74.459879,44.22782],[-74.459962,44.227805],[-74.460252,44.227677],[-74.460289,44.227648],[-74.460317,44.227625],[-74.460574,44.227363],[-74.460678,44.227297],[-74.461233,44.227002],[-74.46248,44.226361],[-74.462927,44.226141],[-74.463084,44.226133]]}},{"type":"Feature","properties":{"name":"tinman","phase":"back","segIdx":25},"geometry":{"type":"LineString","coordinates":[[-74.461233,44.227002],[-74.46248,44.226361],[-74.462927,44.226141],[-74.463084,44.226133],[-74.463211,44.226127],[-74.463228,44.226856],[-74.463218,44.227421],[-74.463586,44.227571],[-74.46382,44.227713],[-74.464096,44.227804],[-74.464616,44.227876],[-74.464879,44.227958],[-74.465025,44.228054],[-74.465133,44.228057],[-74.465086,44.228246],[-74.464832,44.229267]]}}]}