{"type":"FeatureCollection","features":[{"type":"Feature","properties":{"name":"Brontosaurus 163K","loop":"brontosaurus","color":"#A84D24","distance_km":162.09,"distance_mi":100.72,"gain_m":865,"gain_ft":2839,"loss_m":865,"loss_ft":2839,"min_ele_m":674,"max_ele_m":853,"min_ele_ft":2210,"max_ele_ft":2799},"geometry":{"type":"LineString","coordinates":[[-112.704965,51.466741,2233],[-112.70497,51.466501,2237],[-112.704835,51.466194,2237],[-112.704859,51.465729,2235],[-112.70496,51.465527,2234],[-112.705218,51.465496,2233],[-112.70623,51.465867,2231],[-112.707427,51.46667,2233],[-112.707764,51.466825,2232],[-112.708397,51.466925,2231],[-112.710516,51.466952,2230],[-112.710787,51.467012,2231],[-112.711008,51.467123,2232],[-112.712846,51.468335,2244],[-112.713039,51.468512,2244],[-112.713121,51.46866,2244],[-112.713101,51.46899,2243],[-112.71235,51.471275,2234],[-112.712364,51.47134,2235],[-112.712488,51.471441,2236],[-112.71284,51.471509,2236],[-112.718425,51.471482,2240],[-112.721167,51.471596,2244],[-112.723013,51.471577,2247],[-112.724967,51.471409,2249],[-112.730894,51.470633,2250],[-112.736565,51.470473,2257],[-112.738112,51.470305,2255],[-112.739211,51.470123,2254],[-112.742106,51.46952,2258],[-112.746631,51.468891,2257],[-112.747618,51.468662,2257],[-112.749916,51.467891,2254],[-112.751153,51.467656,2253],[-112.755474,51.467423,2251],[-112.759115,51.467483,2249],[-112.760443,51.467546,2249],[-112.766083,51.468175,2247],[-112.766968,51.468354,2247],[-112.767795,51.468611,2247],[-112.768798,51.469064,2253],[-112.769543,51.469545,2256],[-112.770085,51.470022,2259],[-112.771491,51.471414,2262],[-112.771964,51.471765,2264],[-112.772411,51.472022,2265],[-112.773125,51.47234,2265],[-112.774391,51.472795,2264],[-112.777393,51.473838,2265],[-112.778219,51.474072,2265],[-112.779326,51.474246,2264],[-112.780469,51.474289,2264],[-112.784837,51.473958,2263],[-112.786232,51.473976,2262],[-112.788,51.474191,2257],[-112.789648,51.474612,2252],[-112.790967,51.475144,2251],[-112.791884,51.475641,2251],[-112.792584,51.476109,2252],[-112.794637,51.477663,2254],[-112.795174,51.477994,2255],[-112.796132,51.478409,2255],[-112.797807,51.47894,2256],[-112.798323,51.47915,2256],[-112.801898,51.480883,2255],[-112.80248,51.481184,2255],[-112.803025,51.481533,2256],[-112.803455,51.481895,2256],[-112.803883,51.482409,2257],[-112.805509,51.485231,2268],[-112.805738,51.485861,2272],[-112.806008,51.487329,2279],[-112.806145,51.487796,2283],[-112.806538,51.488482,2289],[-112.807109,51.489118,2296],[-112.808334,51.490057,2307],[-112.811809,51.492546,2310],[-112.812739,51.493117,2306],[-112.814882,51.494249,2310],[-112.816161,51.495008,2312],[-112.825669,51.501441,2301],[-112.827046,51.502303,2301],[-112.82864,51.503142,2300],[-112.830612,51.504044,2299],[-112.842781,51.509399,2297],[-112.844016,51.509879,2297],[-112.845386,51.510239,2295],[-112.846635,51.510419,2294],[-112.847733,51.510497,2292],[-112.850334,51.510519,2288],[-112.851418,51.510625,2285],[-112.852522,51.510836,2283],[-112.853851,51.511257,2280],[-112.854713,51.511644,2278],[-112.85517,51.511902,2276],[-112.863034,51.516774,2297],[-112.863973,51.517513,2299],[-112.864513,51.518085,2301],[-112.864794,51.518459,2302],[-112.865056,51.518876,2306],[-112.865344,51.519517,2316],[-112.865429,51.519804,2323],[-112.865528,51.520514,2341],[-112.865506,51.521371,2367],[-112.864898,51.525274,2478],[-112.8646,51.527513,2520],[-112.864553,51.537372,2568],[-112.864511,51.537739,2568],[-112.864435,51.537965,2570],[-112.864036,51.538543,2577],[-112.863276,51.539074,2588],[-112.862735,51.539296,2592],[-112.862221,51.539443,2598],[-112.861288,51.539564,2606],[-112.84245,51.539519,2658],[-112.841563,51.539541,2659],[-112.841351,51.539589,2659],[-112.841176,51.539702,2659],[-112.841097,51.539862,2661],[-112.841061,51.540155,2662],[-112.8411,51.553643,2678],[-112.841056,51.559708,2698],[-112.841127,51.561113,2705],[-112.841187,51.561275,2705],[-112.841365,51.561401,2705],[-112.841803,51.561474,2705],[-112.842351,51.561489,2702],[-112.861124,51.561522,2645],[-112.865004,51.56154,2632],[-112.866041,51.561584,2627],[-112.86732,51.561824,2619],[-112.868114,51.562095,2617],[-112.874397,51.565099,2547],[-112.875027,51.565336,2533],[-112.875735,51.565533,2519],[-112.877009,51.565711,2485],[-112.879337,51.565712,2415],[-112.880153,51.565578,2399],[-112.881616,51.565116,2349],[-112.882115,51.565076,2330],[-112.882843,51.565186,2309],[-112.883238,51.56536,2300],[-112.883527,51.565591,2289],[-112.883731,51.565852,2275],[-112.883826,51.566258,2262],[-112.883505,51.568533,2257],[-112.883425,51.569553,2259],[-112.883363,51.570651,2260],[-112.883355,51.572512,2258],[-112.883398,51.572783,2258],[-112.883604,51.573007,2257],[-112.88387,51.573068,2257],[-112.885656,51.573098,2251],[-112.886684,51.573066,2256],[-112.886935,51.572982,2262],[-112.888162,51.572272,2264],[-112.895795,51.567585,2286],[-112.896409,51.567291,2289],[-112.897105,51.567104,2293],[-112.898037,51.567053,2306],[-112.89852,51.567096,2316],[-112.898994,51.567204,2326],[-112.899579,51.567419,2342],[-112.900894,51.568271,2393],[-112.901637,51.568495,2416],[-112.902221,51.568517,2433],[-112.902732,51.568471,2446],[-112.904622,51.568021,2497],[-112.905446,51.567975,2521],[-112.906356,51.568034,2547],[-112.908961,51.568499,2606],[-112.910534,51.568562,2621],[-112.91126,51.568538,2625],[-112.911463,51.56846,2627],[-112.911547,51.568107,2631],[-112.911528,51.551165,2668],[-112.911446,51.550271,2667],[-112.911181,51.549561,2667],[-112.910907,51.549089,2666],[-112.910549,51.548635,2666],[-112.910107,51.548205,2665],[-112.909571,51.547799,2666],[-112.908846,51.547383,2666],[-112.900995,51.543691,2599],[-112.900191,51.543263,2584],[-112.899117,51.542472,2558],[-112.897497,51.540749,2506],[-112.896805,51.540184,2485],[-112.896127,51.539783,2470],[-112.892179,51.537794,2378],[-112.891543,51.537345,2360],[-112.890996,51.536845,2340],[-112.890571,51.53632,2318],[-112.890267,51.535786,2302],[-112.888705,51.531586,2251],[-112.888316,51.530689,2255],[-112.887841,51.529813,2263],[-112.883409,51.523628,2293],[-112.881462,51.520685,2283],[-112.879967,51.518103,2262],[-112.877856,51.514093,2253],[-112.877176,51.513325,2249],[-112.87612,51.51248,2251],[-112.875017,51.511798,2260],[-112.873431,51.510905,2259],[-112.872493,51.510228,2256],[-112.870172,51.50897,2250],[-112.868939,51.508411,2251],[-112.86274,51.506216,2262],[-112.855031,51.503616,2266],[-112.853413,51.503205,2266],[-112.851605,51.502963,2266],[-112.851371,51.502897,2266],[-112.851147,51.502673,2266],[-112.851138,51.502532,2266],[-112.851285,51.502211,2266],[-112.851247,51.502076,2266],[-112.851115,51.501954,2266],[-112.849557,51.501088,2268],[-112.846862,51.499299,2267],[-112.846062,51.498833,2267],[-112.845263,51.498412,2267],[-112.843743,51.497735,2266],[-112.837031,51.494952,2259],[-112.835753,51.49433,2260],[-112.834257,51.493461,2260],[-112.826767,51.488467,2255],[-112.820676,51.483913,2247],[-112.816577,51.480466,2245],[-112.816108,51.480143,2245],[-112.815434,51.479781,2245],[-112.814565,51.479474,2244],[-112.812688,51.479024,2243],[-112.811643,51.47871,2245],[-112.806533,51.476529,2253],[-112.80379,51.475209,2260],[-112.796639,51.471354,2266],[-112.795531,51.470836,2264],[-112.793811,51.470165,2263],[-112.791341,51.469425,2260],[-112.77508,51.465382,2247],[-112.77281,51.464905,2246],[-112.771689,51.464726,2245],[-112.769839,51.464511,2244],[-112.758467,51.463525,2246],[-112.757492,51.46339,2245],[-112.754943,51.4629,2247],[-112.754434,51.462846,2247],[-112.753077,51.462857,2249],[-112.748914,51.46325,2248],[-112.745902,51.463481,2247],[-112.743908,51.463565,2241],[-112.742216,51.463557,2241],[-112.738351,51.463378,2242],[-112.737729,51.463296,2242],[-112.737041,51.463087,2243],[-112.735072,51.46229,2245],[-112.734641,51.462169,2247],[-112.733962,51.462061,2247],[-112.729846,51.461879,2245],[-112.727163,51.461853,2241],[-112.72225,51.461663,2253],[-112.719842,51.461965,2254],[-112.713607,51.461717,2260],[-112.711295,51.461882,2254],[-112.710895,51.461852,2251],[-112.709775,51.46165,2251],[-112.707594,51.461112,2255],[-112.706671,51.460734,2262],[-112.702264,51.458303,2242],[-112.70004,51.457478,2245],[-112.69884,51.456867,2241],[-112.693196,51.45374,2244],[-112.691351,51.452791,2243],[-112.689585,51.451816,2242],[-112.688221,51.45105,2240],[-112.68646,51.449979,2240],[-112.682307,51.44764,2241],[-112.681015,51.446862,2241],[-112.679968,51.446157,2243],[-112.673544,51.441528,2240],[-112.671509,51.440161,2243],[-112.670071,51.43927,2248],[-112.657768,51.43208,2240],[-112.65608,51.43127,2240],[-112.654332,51.430568,2241],[-112.652801,51.430056,2243],[-112.648377,51.428724,2241],[-112.646761,51.428155,2236],[-112.645512,51.427656,2235],[-112.643268,51.426638,2236],[-112.637427,51.423767,2233],[-112.636699,51.423388,2233],[-112.6358,51.422837,2233],[-112.634877,51.422123,2234],[-112.634059,51.421326,2236],[-112.630568,51.417319,2232],[-112.630528,51.417217,2233],[-112.6306,51.417123,2233],[-112.633331,51.416371,2238],[-112.633872,51.41604,2241],[-112.635605,51.414614,2236],[-112.63589,51.414451,2235],[-112.636245,51.414355,2234],[-112.636784,51.414374,2232],[-112.641026,51.414943,2230],[-112.642542,51.415103,2236],[-112.646794,51.415015,2236],[-112.64736,51.414913,2237],[-112.647655,51.414763,2237],[-112.647949,51.414514,2237],[-112.651022,51.41067,2241],[-112.651388,51.410321,2243],[-112.651935,51.409939,2247],[-112.659512,51.406164,2250],[-112.663776,51.404097,2250],[-112.664394,51.403928,2249],[-112.666722,51.403829,2257],[-112.667183,51.403774,2258],[-112.667496,51.403675,2260],[-112.667974,51.40334,2260],[-112.668843,51.40234,2259],[-112.669033,51.401897,2259],[-112.6691,51.401369,2259],[-112.669609,51.396246,2266],[-112.669567,51.395935,2270],[-112.669406,51.395768,2272],[-112.66912,51.395653,2274],[-112.668132,51.395647,2274],[-112.667643,51.395545,2271],[-112.667228,51.395288,2264],[-112.666517,51.394682,2261],[-112.666037,51.394169,2262],[-112.665735,51.393623,2262],[-112.66536,51.392789,2265],[-112.665118,51.392391,2269],[-112.664833,51.392018,2272],[-112.664399,51.391577,2274],[-112.663553,51.390875,2283],[-112.662069,51.390037,2272],[-112.660489,51.388629,2268],[-112.659602,51.387733,2270],[-112.658979,51.386862,2272],[-112.658188,51.38536,2276],[-112.658064,51.384891,2276],[-112.658057,51.384407,2276],[-112.658173,51.383936,2273],[-112.658503,51.383184,2277],[-112.658618,51.383092,2279],[-112.658796,51.383059,2280],[-112.660234,51.383305,2279],[-112.660587,51.38326,2278],[-112.660708,51.383117,2278],[-112.66068,51.382557,2278],[-112.660901,51.381956,2278],[-112.660857,51.381898,2277],[-112.660856,51.382031,2278],[-112.660598,51.382561,2278],[-112.660634,51.383091,2277],[-112.660552,51.383213,2277],[-112.660239,51.383251,2277],[-112.658788,51.383034,2288],[-112.658563,51.38307,2288],[-112.65847,51.383152,2288],[-112.658128,51.383873,2285],[-112.658001,51.38434,2282],[-112.657987,51.384857,2274],[-112.658066,51.385227,2272],[-112.658882,51.386792,2275],[-112.659289,51.387424,2272],[-112.659681,51.387896,2270],[-112.660919,51.389101,2268],[-112.66188,51.389955,2267],[-112.662285,51.390245,2266],[-112.663579,51.390966,2273],[-112.664043,51.391329,2278],[-112.664636,51.391902,2282],[-112.664934,51.392221,2279],[-112.66521,51.392626,2272],[-112.665913,51.394052,2264],[-112.666328,51.394559,2262],[-112.667363,51.395432,2262],[-112.667692,51.395622,2263],[-112.668153,51.395718,2263],[-112.669144,51.395708,2264],[-112.669389,51.395799,2266],[-112.669528,51.39594,2268],[-112.669566,51.396183,2271],[-112.669443,51.397031,2274],[-112.66901,51.401568,2255],[-112.668873,51.402142,2254],[-112.668538,51.402639,2255],[-112.667812,51.403394,2257],[-112.667515,51.403607,2257],[-112.667227,51.403727,2257],[-112.666659,51.403811,2257],[-112.66429,51.403907,2257],[-112.663728,51.40406,2256],[-112.651766,51.410001,2247],[-112.651355,51.410265,2247],[-112.650899,51.410678,2245],[-112.647949,51.414394,2234],[-112.647636,51.414697,2233],[-112.647334,51.414873,2234],[-112.647012,51.414955,2234],[-112.646367,51.415009,2238],[-112.642486,51.415057,2240],[-112.637302,51.414428,2231],[-112.636085,51.414361,2231],[-112.635787,51.414458,2232],[-112.635553,51.414595,2234],[-112.633759,51.416032,2243],[-112.633342,51.416277,2246],[-112.63282,51.416473,2249],[-112.630748,51.41703,2241],[-112.630313,51.417051,2238],[-112.630153,51.416963,2237],[-112.629937,51.41673,2236],[-112.62581,51.411914,2252],[-112.625092,51.411253,2259],[-112.624601,51.410889,2265],[-112.623817,51.410405,2270],[-112.622525,51.409799,2276],[-112.621185,51.409352,2279],[-112.610866,51.406843,2253],[-112.609382,51.406372,2249],[-112.608078,51.405771,2249],[-112.605281,51.404128,2244],[-112.604383,51.40354,2244],[-112.600495,51.400797,2241],[-112.59963,51.400301,2241],[-112.598686,51.399895,2241],[-112.597422,51.399488,2239],[-112.59589,51.399153,2237],[-112.588707,51.398372,2243],[-112.587873,51.398233,2245],[-112.587068,51.398006,2245],[-112.582445,51.39601,2233],[-112.565069,51.388139,2234],[-112.563307,51.387413,2230],[-112.561999,51.386951,2230],[-112.56067,51.386549,2229],[-112.549648,51.383481,2228],[-112.538344,51.380264,2221],[-112.535889,51.379467,2222],[-112.534675,51.379004,2225],[-112.532854,51.378221,2228],[-112.530837,51.3772,2232],[-112.52815,51.375599,2241],[-112.527114,51.374907,2248],[-112.525903,51.374014,2253],[-112.522233,51.370966,2257],[-112.521442,51.370186,2257],[-112.520789,51.369453,2257],[-112.518046,51.365842,2258],[-112.517758,51.365367,2255],[-112.517549,51.364844,2253],[-112.517429,51.364166,2251],[-112.517469,51.363606,2247],[-112.517569,51.363176,2244],[-112.518137,51.361586,2234],[-112.518238,51.360852,2232],[-112.518215,51.360507,2232],[-112.518112,51.360071,2229],[-112.517874,51.359536,2224],[-112.51763,51.359143,2223],[-112.515012,51.355528,2217],[-112.514558,51.354963,2218],[-112.51389,51.354261,2219],[-112.512538,51.35307,2221],[-112.509139,51.350591,2224],[-112.507938,51.349618,2225],[-112.506564,51.348278,2226],[-112.504886,51.346281,2222],[-112.504256,51.345661,2222],[-112.503433,51.345057,2220],[-112.502407,51.344512,2220],[-112.499136,51.343292,2225],[-112.497704,51.342651,2228],[-112.488212,51.337452,2239],[-112.486086,51.336533,2241],[-112.481794,51.33495,2243],[-112.480778,51.334424,2243],[-112.478924,51.333319,2243],[-112.478246,51.332987,2240],[-112.476891,51.332489,2238],[-112.473033,51.331414,2226],[-112.470104,51.330268,2224],[-112.468689,51.329786,2222],[-112.467214,51.329378,2223],[-112.464404,51.328742,2228],[-112.462849,51.328264,2231],[-112.443653,51.321458,2224],[-112.442163,51.320727,2222],[-112.433991,51.315901,2229],[-112.420874,51.309663,2230],[-112.419598,51.309122,2228],[-112.418519,51.308758,2227],[-112.417509,51.308486,2226],[-112.413925,51.307672,2224],[-112.408513,51.306513,2225],[-112.373916,51.300613,2230],[-112.370622,51.299849,2230],[-112.364695,51.298312,2238],[-112.362754,51.297719,2237],[-112.361284,51.297167,2236],[-112.354763,51.294255,2233],[-112.312918,51.275343,2221],[-112.31151,51.274747,2239],[-112.310566,51.27443,2253],[-112.309527,51.27421,2269],[-112.308146,51.274116,2296],[-112.306967,51.2742,2320],[-112.305924,51.274406,2342],[-112.30461,51.274862,2373],[-112.29959,51.2772,2499],[-112.298703,51.277557,2515],[-112.297984,51.277776,2528],[-112.297062,51.277953,2542],[-112.29631,51.278033,2552],[-112.295563,51.278046,2560],[-112.293926,51.277892,2572],[-112.293089,51.277684,2579],[-112.292247,51.27737,2584],[-112.289064,51.275749,2591],[-112.282283,51.272096,2589],[-112.281132,51.271575,2589],[-112.280001,51.271195,2589],[-112.278724,51.270884,2589],[-112.277643,51.270722,2591],[-112.276445,51.270636,2596],[-112.237875,51.270657,2673],[-112.122457,51.27059,2788],[-112.098545,51.270532,2789],[-112.098302,51.270516,2789],[-112.098209,51.270431,2789],[-112.098164,51.270478,2787],[-112.098178,51.270539,2787],[-112.098318,51.270582,2787],[-112.098903,51.27061,2783],[-112.106843,51.270587,2784],[-112.189349,51.2707,2753],[-112.276536,51.270721,2593],[-112.277942,51.270844,2590],[-112.278988,51.271022,2587],[-112.280185,51.271328,2582],[-112.281456,51.271783,2581],[-112.282454,51.272269,2584],[-112.292023,51.277342,2589],[-112.293035,51.277733,2589],[-112.29374,51.277913,2585],[-112.294592,51.278063,2579],[-112.295588,51.278125,2572],[-112.297033,51.278034,2562],[-112.298064,51.277826,2551],[-112.298665,51.277641,2544],[-112.299879,51.277129,2521],[-112.304674,51.274868,2408],[-112.305736,51.274486,2386],[-112.306639,51.274278,2369],[-112.307598,51.274162,2346],[-112.308348,51.274151,2328],[-112.309374,51.274215,2312],[-112.310631,51.274465,2285],[-112.312124,51.275019,2261],[-112.358535,51.296018,2238],[-112.361576,51.297342,2241],[-112.363229,51.297941,2242],[-112.365387,51.298561,2243],[-112.3734,51.300579,2233],[-112.408686,51.306611,2230],[-112.417167,51.308482,2230],[-112.418898,51.30896,2230],[-112.419904,51.309324,2232],[-112.421114,51.309858,2234],[-112.433861,51.31592,2236],[-112.435369,51.316746,2235],[-112.44185,51.320622,2229],[-112.442914,51.32119,2230],[-112.44378,51.321582,2230],[-112.46336,51.328513,2237],[-112.464816,51.328938,2238],[-112.466898,51.329393,2235],[-112.468506,51.329818,2232],[-112.469654,51.330191,2228],[-112.471869,51.331095,2230],[-112.473123,51.331551,2233],[-112.476761,51.332554,2234],[-112.477858,51.332926,2238],[-112.478859,51.333398,2242],[-112.4817,51.334976,2251],[-112.486244,51.33671,2247],[-112.488374,51.337648,2247],[-112.496795,51.342325,2241],[-112.497925,51.342886,2236],[-112.498983,51.343337,2237],[-112.501992,51.34449,2230],[-112.503214,51.345099,2227],[-112.504035,51.345665,2225],[-112.504552,51.346137,2225],[-112.506724,51.348627,2233],[-112.508213,51.350022,2235],[-112.509177,51.35078,2235],[-112.512339,51.353079,2229],[-112.513648,51.354176,2228],[-112.514598,51.355185,2228],[-112.515758,51.356733,2228],[-112.517667,51.35944,2228],[-112.517943,51.359964,2228],[-112.518062,51.360341,2230],[-112.518128,51.360943,2233],[-112.518094,51.361383,2235],[-112.517505,51.363134,2243],[-112.517372,51.363767,2243],[-112.517366,51.36445,2250],[-112.517555,51.365174,2257],[-112.517799,51.365686,2261],[-112.518221,51.366292,2264],[-112.519832,51.368422,2264],[-112.520953,51.369798,2262],[-112.521655,51.370547,2263],[-112.522757,51.371567,2263],[-112.525643,51.373967,2262],[-112.526501,51.374624,2261],[-112.527842,51.375571,2258],[-112.529045,51.376329,2251],[-112.530868,51.377351,2247],[-112.531894,51.377864,2244],[-112.53488,51.379179,2236],[-112.53663,51.379826,2234],[-112.538487,51.380427,2234],[-112.559244,51.386229,2236],[-112.562598,51.387231,2235],[-112.563628,51.387614,2237],[-112.565196,51.388283,2241],[-112.583708,51.396669,2238],[-112.585796,51.397599,2250],[-112.586904,51.398019,2252],[-112.587817,51.398271,2253],[-112.588882,51.398459,2254],[-112.595807,51.399206,2241],[-112.597123,51.399477,2242],[-112.598169,51.399779,2243],[-112.599436,51.400296,2245],[-112.600315,51.400762,2243],[-112.605195,51.404149,2252],[-112.607883,51.405733,2257],[-112.608993,51.406283,2259],[-112.610091,51.406692,2260],[-112.611239,51.40701,2260],[-112.614217,51.407734,2264],[-112.616266,51.408285,2270],[-112.621398,51.409516,2283],[-112.622688,51.409967,2284],[-112.62388,51.410554,2283],[-112.624923,51.411244,2279],[-112.625783,51.412019,2273],[-112.634045,51.421409,2253],[-112.634811,51.422181,2254],[-112.635652,51.422849,2251],[-112.637071,51.423694,2245],[-112.643574,51.426888,2245],[-112.645307,51.427668,2245],[-112.648022,51.4287,2249],[-112.654247,51.430636,2254],[-112.655764,51.431235,2252],[-112.65701,51.431794,2253],[-112.658696,51.432704,2254],[-112.66954,51.439057,2274],[-112.671227,51.44009,2268],[-112.673217,51.441413,2258],[-112.680293,51.446502,2259],[-112.68226,51.447781,2258],[-112.684693,51.449223,2255],[-112.68474,51.449329,2255],[-112.684617,51.449489,2255],[-112.682819,51.450719,2245],[-112.682712,51.450835,2245],[-112.682688,51.450952,2245],[-112.682794,51.451152,2244],[-112.683536,51.451917,2241],[-112.684999,51.45321,2242],[-112.689003,51.455603,2249],[-112.694639,51.459565,2250],[-112.699852,51.462217,2247],[-112.700545,51.462391,2249],[-112.700593,51.46245,2249],[-112.700598,51.463234,2249],[-112.700682,51.463475,2245],[-112.701634,51.464455,2236],[-112.702204,51.464919,2236],[-112.702828,51.465219,2239],[-112.703454,51.465362,2241],[-112.704525,51.465442,2243],[-112.704773,51.4655,2243],[-112.704891,51.465665,2243],[-112.704836,51.466219,2248],[-112.705018,51.466513,2249]]}}]}