{"type": "FeatureCollection", "features": [{"type": "Feature", "geometry": {"type": "Point", "coordinates": [-112.705031, 51.4655]}, "properties": {"id": "turn_000", "course_mi": 0.09, "ele_m": 680.8, "direction": "right", "intensity": "normal", "label": "Riverside Drive East", "label_type": "road", "section": "Start \u2192 Finish", "snap_method": "geometry_only", "context": "", "jurisdiction": "", "jurisdiction_unit": ""}}, {"type": "Feature", "geometry": {"type": "Point", "coordinates": [-112.712488, 51.471441]}, "properties": {"id": "turn_001", "course_mi": 0.72, "ele_m": 681.4, "direction": "left", "intensity": "normal", "label": "North Dinosaur Trail", "label_type": "road", "section": "Start \u2192 Finish", "snap_method": "geometry_only", "context": "", "jurisdiction": "", "jurisdiction_unit": ""}}, {"type": "Feature", "geometry": {"type": "Point", "coordinates": [-112.841176, 51.539702]}, "properties": {"id": "turn_002", "course_mi": 11.26, "ele_m": 810.6, "direction": "left", "intensity": "normal", "label": "Range Road 211", "label_type": "road", "section": "Start \u2192 Finish", "snap_method": "geometry_only", "context": "", "jurisdiction": "", "jurisdiction_unit": ""}}, {"type": "Feature", "geometry": {"type": "Point", "coordinates": [-112.841292, 51.561365]}, "properties": {"id": "turn_003", "course_mi": 12.76, "ele_m": 824.4, "direction": "left", "intensity": "normal", "label": "North Dinosaur Trail", "label_type": "road", "section": "Start \u2192 Finish", "snap_method": "geometry_only", "context": "", "jurisdiction": "", "jurisdiction_unit": ""}}, {"type": "Feature", "geometry": {"type": "Point", "coordinates": [-112.883478, 51.572907]}, "properties": {"id": "turn_004", "course_mi": 15.2, "ele_m": 688.2, "direction": "left", "intensity": "normal", "label": "North Dinosaur Trail", "label_type": "road", "section": "Start \u2192 Finish", "snap_method": "geometry_only", "context": "", "jurisdiction": "", "jurisdiction_unit": ""}}, {"type": "Feature", "geometry": {"type": "Point", "coordinates": [-112.911425, 51.568493]}, "properties": {"id": "turn_005", "course_mi": 16.62, "ele_m": 800.6, "direction": "left", "intensity": "normal", "label": "North Dinosaur Trail", "label_type": "road", "section": "Start \u2192 Finish", "snap_method": "geometry_only", "context": "", "jurisdiction": "", "jurisdiction_unit": ""}}, {"type": "Feature", "geometry": {"type": "Point", "coordinates": [-112.851186, 51.502752]}, "properties": {"id": "turn_006", "course_mi": 22.27, "ele_m": 690.8, "direction": "right", "intensity": "normal", "label": "South Dinosaur Trail", "label_type": "road", "section": "Start \u2192 Finish", "snap_method": "geometry_only", "context": "", "jurisdiction": "", "jurisdiction_unit": ""}}, {"type": "Feature", "geometry": {"type": "Point", "coordinates": [-112.63055, 51.417167]}, "properties": {"id": "turn_007", "course_mi": 34.04, "ele_m": 680.6, "direction": "right", "intensity": "normal", "label": "2 Avenue South", "label_type": "road", "section": "Start \u2192 Finish", "snap_method": "geometry_only", "context": "", "jurisdiction": "", "jurisdiction_unit": ""}}, {"type": "Feature", "geometry": {"type": "Point", "coordinates": [-112.669475, 51.39582]}, "properties": {"id": "turn_008", "course_mi": 36.63, "ele_m": 692.2, "direction": "left", "intensity": "normal", "label": "Highway 10X", "label_type": "road", "section": "Start \u2192 Finish", "snap_method": "geometry_only", "context": "", "jurisdiction": "", "jurisdiction_unit": ""}}, {"type": "Feature", "geometry": {"type": "Point", "coordinates": [-112.658702, 51.383066]}, "properties": {"id": "turn_009", "course_mi": 37.71, "ele_m": 694.8, "direction": "right", "intensity": "normal", "label": "Jewell Street", "label_type": "road", "section": "Start \u2192 Finish", "snap_method": "geometry_only", "context": "", "jurisdiction": "", "jurisdiction_unit": ""}}, {"type": "Feature", "geometry": {"type": "Point", "coordinates": [-112.660587, 51.38326]}, "properties": {"id": "turn_010", "course_mi": 37.79, "ele_m": 694.4, "direction": "left", "intensity": "normal", "label": "Jewell Street", "label_type": "road", "section": "Start \u2192 Finish", "snap_method": "geometry_only", "context": "", "jurisdiction": "", "jurisdiction_unit": ""}}, {"type": "Feature", "geometry": {"type": "Point", "coordinates": [-112.660879, 51.381908]}, "properties": {"id": "turn_011", "course_mi": 37.89, "ele_m": 694.0, "direction": "left", "intensity": "sharp", "label": "Excelsior Avenue", "label_type": "road", "section": "Start \u2192 Finish", "snap_method": "geometry_only", "context": "", "jurisdiction": "", "jurisdiction_unit": ""}}, {"type": "Feature", "geometry": {"type": "Point", "coordinates": [-112.660498, 51.38324]}, "properties": {"id": "turn_012", "course_mi": 37.99, "ele_m": 694.0, "direction": "right", "intensity": "normal", "label": "Jewell Street", "label_type": "road", "section": "Start \u2192 Finish", "snap_method": "geometry_only", "context": "", "jurisdiction": "", "jurisdiction_unit": ""}}, {"type": "Feature", "geometry": {"type": "Point", "coordinates": [-112.658563, 51.38307]}, "properties": {"id": "turn_013", "course_mi": 38.07, "ele_m": 697.4, "direction": "left", "intensity": "normal", "label": "Jewell Street", "label_type": "road", "section": "Start \u2192 Finish", "snap_method": "geometry_only", "context": "", "jurisdiction": "", "jurisdiction_unit": ""}}, {"type": "Feature", "geometry": {"type": "Point", "coordinates": [-112.669389, 51.395799]}, "properties": {"id": "turn_014", "course_mi": 39.14, "ele_m": 690.6, "direction": "right", "intensity": "normal", "label": "Highway 10X", "label_type": "road", "section": "Start \u2192 Finish", "snap_method": "geometry_only", "context": "", "jurisdiction": "", "jurisdiction_unit": ""}}, {"type": "Feature", "geometry": {"type": "Point", "coordinates": [-112.630313, 51.417051]}, "properties": {"id": "turn_015", "course_mi": 41.73, "ele_m": 682.0, "direction": "right", "intensity": "normal", "label": "2 Avenue South", "label_type": "road", "section": "Start \u2192 Finish", "snap_method": "geometry_only", "context": "", "jurisdiction": "", "jurisdiction_unit": ""}}, {"type": "Feature", "geometry": {"type": "Point", "coordinates": [-112.098484, 51.270596]}, "properties": {"id": "turn_016", "course_mi": 68.79, "ele_m": 849.0, "direction": "left", "intensity": "sharp", "label": "Range Road 160", "label_type": "road", "section": "Start \u2192 Finish", "snap_method": "geometry_only", "context": "", "jurisdiction": "", "jurisdiction_unit": ""}}, {"type": "Feature", "geometry": {"type": "Point", "coordinates": [-112.684716, 51.449382]}, "properties": {"id": "turn_017", "course_mi": 99.08, "ele_m": 687.2, "direction": "right", "intensity": "normal", "label": "Hoo Doo Trail", "label_type": "road", "section": "Start \u2192 Finish", "snap_method": "geometry_only", "context": "", "jurisdiction": "", "jurisdiction_unit": ""}}, {"type": "Feature", "geometry": {"type": "Point", "coordinates": [-112.682691, 51.4509]}, "properties": {"id": "turn_018", "course_mi": 99.21, "ele_m": 684.2, "direction": "left", "intensity": "normal", "label": "Willow Point", "label_type": "road", "section": "Start \u2192 Finish", "snap_method": "geometry_only", "context": "", "jurisdiction": "", "jurisdiction_unit": ""}}, {"type": "Feature", "geometry": {"type": "Point", "coordinates": [-112.700596, 51.462519]}, "properties": {"id": "turn_019", "course_mi": 100.34, "ele_m": 685.4, "direction": "right", "intensity": "normal", "label": "5 Street East", "label_type": "road", "section": "Start \u2192 Finish", "snap_method": "geometry_only", "context": "", "jurisdiction": "", "jurisdiction_unit": ""}}, {"type": "Feature", "geometry": {"type": "Point", "coordinates": [-112.704875, 51.465593]}, "properties": {"id": "turn_020", "course_mi": 100.66, "ele_m": 683.6, "direction": "right", "intensity": "normal", "label": "Riverside Drive East", "label_type": "road", "section": "Start \u2192 Finish", "snap_method": "geometry_only", "context": "", "jurisdiction": "", "jurisdiction_unit": ""}}]}