{"type": "FeatureCollection", "features": [{"type": "Feature", "geometry": {"type": "Point", "coordinates": [-112.705089, 51.465477]}, "properties": {"id": "turn_000", "course_mi": 0.08, "ele_m": 679.8, "direction": "right", "intensity": "normal", "label": "Riverside Drive East", "label_type": "road", "section": "Start \u2192 Finish", "snap_method": "geometry_only", "context": "", "jurisdiction": "", "jurisdiction_unit": ""}}, {"type": "Feature", "geometry": {"type": "Point", "coordinates": [-112.712519, 51.471466]}, "properties": {"id": "turn_001", "course_mi": 0.71, "ele_m": 682.2, "direction": "left", "intensity": "normal", "label": "North Dinosaur Trail", "label_type": "road", "section": "Start \u2192 Finish", "snap_method": "geometry_only", "context": "", "jurisdiction": "", "jurisdiction_unit": ""}}, {"type": "Feature", "geometry": {"type": "Point", "coordinates": [-112.841198, 51.539646]}, "properties": {"id": "turn_002", "course_mi": 11.24, "ele_m": 810.2, "direction": "left", "intensity": "normal", "label": "Range Road 211", "label_type": "road", "section": "Start \u2192 Finish", "snap_method": "geometry_only", "context": "", "jurisdiction": "", "jurisdiction_unit": ""}}, {"type": "Feature", "geometry": {"type": "Point", "coordinates": [-112.841291, 51.561432]}, "properties": {"id": "turn_003", "course_mi": 12.75, "ele_m": 822.8, "direction": "left", "intensity": "normal", "label": "North Dinosaur Trail", "label_type": "road", "section": "Start \u2192 Finish", "snap_method": "geometry_only", "context": "", "jurisdiction": "", "jurisdiction_unit": ""}}, {"type": "Feature", "geometry": {"type": "Point", "coordinates": [-112.883615, 51.57299]}, "properties": {"id": "turn_004", "course_mi": 15.2, "ele_m": 686.4, "direction": "left", "intensity": "normal", "label": "North Dinosaur Trail", "label_type": "road", "section": "Start \u2192 Finish", "snap_method": "geometry_only", "context": "", "jurisdiction": "", "jurisdiction_unit": ""}}, {"type": "Feature", "geometry": {"type": "Point", "coordinates": [-112.911443, 51.568469]}, "properties": {"id": "turn_005", "course_mi": 16.62, "ele_m": 800.6, "direction": "left", "intensity": "normal", "label": "North Dinosaur Trail", "label_type": "road", "section": "Start \u2192 Finish", "snap_method": "geometry_only", "context": "", "jurisdiction": "", "jurisdiction_unit": ""}}, {"type": "Feature", "geometry": {"type": "Point", "coordinates": [-112.851124, 51.502756]}, "properties": {"id": "turn_006", "course_mi": 22.27, "ele_m": 690.0, "direction": "right", "intensity": "normal", "label": "South Dinosaur Trail", "label_type": "road", "section": "Start \u2192 Finish", "snap_method": "geometry_only", "context": "", "jurisdiction": "", "jurisdiction_unit": ""}}, {"type": "Feature", "geometry": {"type": "Point", "coordinates": [-112.630529, 51.41718]}, "properties": {"id": "turn_007", "course_mi": 34.04, "ele_m": 680.0, "direction": "right", "intensity": "normal", "label": "2 Avenue South", "label_type": "road", "section": "Start \u2192 Finish", "snap_method": "geometry_only", "context": "", "jurisdiction": "", "jurisdiction_unit": ""}}, {"type": "Feature", "geometry": {"type": "Point", "coordinates": [-112.66924, 51.395714]}, "properties": {"id": "turn_008", "course_mi": 36.64, "ele_m": 693.4, "direction": "left", "intensity": "normal", "label": "Highway 10X", "label_type": "road", "section": "Start \u2192 Finish", "snap_method": "geometry_only", "context": "", "jurisdiction": "", "jurisdiction_unit": ""}}, {"type": "Feature", "geometry": {"type": "Point", "coordinates": [-112.658797, 51.383058]}, "properties": {"id": "turn_009", "course_mi": 37.71, "ele_m": 696.2, "direction": "right", "intensity": "normal", "label": "Jewell Street", "label_type": "road", "section": "Start \u2192 Finish", "snap_method": "geometry_only", "context": "", "jurisdiction": "", "jurisdiction_unit": ""}}, {"type": "Feature", "geometry": {"type": "Point", "coordinates": [-112.660594, 51.383242]}, "properties": {"id": "turn_010", "course_mi": 37.8, "ele_m": 695.4, "direction": "left", "intensity": "normal", "label": "Jewell Street", "label_type": "road", "section": "Start \u2192 Finish", "snap_method": "geometry_only", "context": "", "jurisdiction": "", "jurisdiction_unit": ""}}, {"type": "Feature", "geometry": {"type": "Point", "coordinates": [-112.660926, 51.382018]}, "properties": {"id": "turn_011", "course_mi": 37.89, "ele_m": 692.6, "direction": "left", "intensity": "sharp", "label": "Excelsior Avenue", "label_type": "road", "section": "Start \u2192 Finish", "snap_method": "geometry_only", "context": "", "jurisdiction": "", "jurisdiction_unit": ""}}, {"type": "Feature", "geometry": {"type": "Point", "coordinates": [-112.660475, 51.383288]}, "properties": {"id": "turn_012", "course_mi": 37.99, "ele_m": 693.4, "direction": "right", "intensity": "normal", "label": "Jewell Street", "label_type": "road", "section": "Start \u2192 Finish", "snap_method": "geometry_only", "context": "", "jurisdiction": "", "jurisdiction_unit": ""}}, {"type": "Feature", "geometry": {"type": "Point", "coordinates": [-112.658513, 51.383075]}, "properties": {"id": "turn_013", "course_mi": 38.07, "ele_m": 696.2, "direction": "left", "intensity": "normal", "label": "Jewell Street", "label_type": "road", "section": "Start \u2192 Finish", "snap_method": "geometry_only", "context": "", "jurisdiction": "", "jurisdiction_unit": ""}}, {"type": "Feature", "geometry": {"type": "Point", "coordinates": [-112.669431, 51.395819]}, "properties": {"id": "turn_014", "course_mi": 39.15, "ele_m": 693.6, "direction": "right", "intensity": "normal", "label": "Highway 10X", "label_type": "road", "section": "Start \u2192 Finish", "snap_method": "geometry_only", "context": "", "jurisdiction": "", "jurisdiction_unit": ""}}, {"type": "Feature", "geometry": {"type": "Point", "coordinates": [-112.630444, 51.417091]}, "properties": {"id": "turn_015", "course_mi": 41.74, "ele_m": 680.0, "direction": "right", "intensity": "normal", "label": "2 Avenue South", "label_type": "road", "section": "Start \u2192 Finish", "snap_method": "geometry_only", "context": "", "jurisdiction": "", "jurisdiction_unit": ""}}, {"type": "Feature", "geometry": {"type": "Point", "coordinates": [-112.49762, 51.342112]}, "properties": {"id": "turn_016", "course_mi": 49.91, "ele_m": 678.2, "direction": "left", "intensity": "sharp", "label": "6 Street", "label_type": "road", "section": "Start \u2192 Finish", "snap_method": "geometry_only", "context": "", "jurisdiction": "", "jurisdiction_unit": ""}}, {"type": "Feature", "geometry": {"type": "Point", "coordinates": [-112.497535, 51.342713]}, "properties": {"id": "turn_017", "course_mi": 49.96, "ele_m": 679.6, "direction": "left", "intensity": "normal", "label": "6 Street", "label_type": "road", "section": "Start \u2192 Finish", "snap_method": "geometry_only", "context": "", "jurisdiction": "", "jurisdiction_unit": ""}}, {"type": "Feature", "geometry": {"type": "Point", "coordinates": [-112.684763, 51.449317]}, "properties": {"id": "turn_018", "course_mi": 61.36, "ele_m": 685.4, "direction": "right", "intensity": "normal", "label": "Hoo Doo Trail", "label_type": "road", "section": "Start \u2192 Finish", "snap_method": "geometry_only", "context": "", "jurisdiction": "", "jurisdiction_unit": ""}}, {"type": "Feature", "geometry": {"type": "Point", "coordinates": [-112.682642, 51.451005]}, "properties": {"id": "turn_019", "course_mi": 61.51, "ele_m": 681.6, "direction": "left", "intensity": "normal", "label": "Willow Point", "label_type": "road", "section": "Start \u2192 Finish", "snap_method": "geometry_only", "context": "", "jurisdiction": "", "jurisdiction_unit": ""}}, {"type": "Feature", "geometry": {"type": "Point", "coordinates": [-112.700597, 51.46243]}, "properties": {"id": "turn_020", "course_mi": 62.63, "ele_m": 683.6, "direction": "right", "intensity": "normal", "label": "5 Street East", "label_type": "road", "section": "Start \u2192 Finish", "snap_method": "geometry_only", "context": "", "jurisdiction": "", "jurisdiction_unit": ""}}, {"type": "Feature", "geometry": {"type": "Point", "coordinates": [-112.704921, 51.465589]}, "properties": {"id": "turn_021", "course_mi": 62.95, "ele_m": 681.0, "direction": "right", "intensity": "normal", "label": "Riverside Drive East", "label_type": "road", "section": "Start \u2192 Finish", "snap_method": "geometry_only", "context": "", "jurisdiction": "", "jurisdiction_unit": ""}}]}