{"type":"FeatureCollection","features":[{"type":"Feature","properties":{"name":"T-Rex 100K","loop":"trex","color":"#8B2668","distance_km":101.47,"distance_mi":63.05,"gain_m":705,"gain_ft":2314,"loss_m":705,"loss_ft":2314,"min_ele_m":675,"max_ele_m":825,"min_ele_ft":2216,"max_ele_ft":2707},"geometry":{"type":"LineString","coordinates":[[-112.704983,51.466523,2230],[-112.704849,51.466208,2232],[-112.704869,51.465867,2231],[-112.704908,51.465595,2232],[-112.705002,51.465496,2231],[-112.705089,51.465477,2230],[-112.705484,51.465572,2234],[-112.706241,51.46589,2230],[-112.70746,51.466696,2230],[-112.707864,51.466851,2230],[-112.708576,51.466939,2232],[-112.710503,51.466958,2234],[-112.71087,51.467068,2236],[-112.712816,51.468325,2246],[-112.712967,51.468461,2246],[-112.713063,51.468625,2245],[-112.713071,51.468809,2243],[-112.712459,51.470762,2236],[-112.712338,51.471296,2237],[-112.712364,51.471364,2238],[-112.712519,51.471466,2238],[-112.712896,51.471504,2239],[-112.718114,51.471473,2241],[-112.721141,51.471589,2248],[-112.722966,51.471564,2250],[-112.724868,51.471407,2247],[-112.730791,51.470631,2249],[-112.736488,51.47047,2255],[-112.738615,51.470211,2252],[-112.742055,51.469527,2255],[-112.746627,51.468891,2256],[-112.747403,51.468713,2257],[-112.7498,51.467909,2254],[-112.75092,51.467691,2255],[-112.755667,51.467418,2249],[-112.759535,51.467499,2247],[-112.760678,51.467575,2249],[-112.765822,51.468151,2244],[-112.766865,51.468347,2245],[-112.767856,51.468646,2251],[-112.768714,51.469045,2253],[-112.769412,51.469481,2255],[-112.770012,51.47,2258],[-112.771366,51.471343,2264],[-112.77226,51.471956,2264],[-112.77333,51.472419,2262],[-112.777377,51.473818,2264],[-112.77822,51.474063,2264],[-112.779217,51.474234,2264],[-112.780363,51.474286,2264],[-112.784388,51.473975,2259],[-112.785974,51.473956,2257],[-112.787025,51.474042,2253],[-112.787919,51.474175,2254],[-112.789571,51.474592,2250],[-112.790756,51.475052,2249],[-112.791926,51.475677,2251],[-112.794268,51.477419,2251],[-112.795149,51.477987,2253],[-112.795988,51.478354,2253],[-112.797811,51.478924,2253],[-112.798276,51.47911,2255],[-112.801855,51.480856,2252],[-112.803002,51.481512,2253],[-112.803498,51.481962,2255],[-112.803855,51.482422,2257],[-112.805454,51.485139,2269],[-112.805692,51.485691,2270],[-112.805992,51.487366,2278],[-112.806152,51.487857,2283],[-112.80658,51.488549,2291],[-112.807172,51.489162,2297],[-112.811779,51.492515,2304],[-112.812747,51.493108,2303],[-112.814823,51.494201,2308],[-112.816158,51.494991,2308],[-112.825881,51.501544,2299],[-112.82707,51.502284,2299],[-112.828149,51.50287,2297],[-112.829386,51.503457,2298],[-112.843016,51.509464,2295],[-112.844052,51.509872,2295],[-112.84534,51.510208,2292],[-112.846783,51.510422,2292],[-112.847757,51.510477,2289],[-112.850037,51.510495,2286],[-112.851284,51.510602,2283],[-112.852836,51.510918,2278],[-112.853806,51.511237,2276],[-112.855068,51.511844,2274],[-112.863072,51.516776,2295],[-112.863729,51.517269,2295],[-112.864125,51.517634,2297],[-112.864477,51.518001,2298],[-112.864918,51.518594,2304],[-112.865363,51.519592,2321],[-112.86551,51.520396,2340],[-112.865523,51.520831,2354],[-112.865381,51.522061,2390],[-112.864591,51.527346,2517],[-112.864551,51.529462,2537],[-112.86459,51.536232,2559],[-112.864549,51.537334,2562],[-112.864394,51.537987,2566],[-112.8642,51.538306,2570],[-112.863948,51.538585,2573],[-112.863284,51.539064,2581],[-112.862369,51.539403,2591],[-112.861526,51.539544,2597],[-112.860687,51.539575,2607],[-112.841615,51.539535,2655],[-112.841319,51.539584,2657],[-112.841112,51.539727,2659],[-112.841044,51.53991,2662],[-112.841088,51.546671,2684],[-112.841048,51.547227,2685],[-112.841075,51.548424,2686],[-112.841033,51.548821,2686],[-112.841072,51.554705,2672],[-112.841028,51.557958,2684],[-112.841072,51.561091,2698],[-112.841109,51.561278,2699],[-112.841291,51.561432,2699],[-112.841596,51.561488,2699],[-112.851946,51.561464,2680],[-112.864577,51.56152,2631],[-112.865924,51.561566,2623],[-112.866967,51.561733,2621],[-112.868054,51.562062,2616],[-112.874242,51.565016,2538],[-112.875205,51.565374,2503],[-112.87584,51.56554,2486],[-112.877192,51.565704,2453],[-112.879324,51.565697,2388],[-112.880145,51.565572,2365],[-112.881265,51.565174,2329],[-112.881681,51.565084,2322],[-112.882382,51.565079,2303],[-112.88284,51.565176,2294],[-112.883227,51.565345,2286],[-112.883516,51.565578,2280],[-112.883687,51.565846,2274],[-112.88374,51.566124,2272],[-112.883442,51.568875,2269],[-112.883334,51.571081,2260],[-112.883338,51.572425,2257],[-112.883244,51.572726,2255],[-112.883713,51.573056,2249],[-112.883799,51.573074,2248],[-112.886716,51.573097,2257],[-112.886944,51.573006,2261],[-112.887958,51.572392,2263],[-112.89566,51.567618,2287],[-112.896198,51.567341,2289],[-112.896994,51.567102,2295],[-112.898032,51.56702,2308],[-112.898504,51.567076,2315],[-112.898972,51.567196,2326],[-112.899715,51.567498,2346],[-112.900877,51.568313,2393],[-112.90131,51.568474,2406],[-112.901651,51.568531,2419],[-112.901948,51.568557,2424],[-112.902564,51.568477,2441],[-112.904491,51.568019,2495],[-112.90556,51.567927,2524],[-112.906902,51.568082,2560],[-112.908359,51.568416,2593],[-112.909203,51.568529,2606],[-112.911139,51.568556,2623],[-112.911337,51.568532,2625],[-112.911443,51.568469,2627],[-112.911521,51.568324,2625],[-112.911531,51.568145,2625],[-112.911493,51.550879,2667],[-112.911441,51.550371,2666],[-112.911335,51.549962,2665],[-112.911112,51.549462,2664],[-112.910865,51.549066,2663],[-112.910551,51.548679,2663],[-112.910076,51.548222,2663],[-112.909629,51.54788,2661],[-112.90899,51.547489,2660],[-112.901098,51.543761,2579],[-112.899974,51.543164,2557],[-112.899178,51.542568,2539],[-112.897525,51.540823,2484],[-112.896933,51.540321,2467],[-112.896225,51.539873,2448],[-112.892098,51.537758,2359],[-112.891441,51.537297,2341],[-112.890891,51.536786,2321],[-112.890474,51.536245,2307],[-112.890181,51.535693,2298],[-112.888693,51.531619,2264],[-112.887942,51.530026,2265],[-112.887293,51.529047,2269],[-112.883646,51.524057,2291],[-112.882006,51.521596,2283],[-112.880753,51.51955,2268],[-112.879866,51.517989,2261],[-112.877871,51.514151,2252],[-112.877314,51.513496,2250],[-112.876083,51.512493,2255],[-112.875367,51.512037,2260],[-112.873461,51.510959,2259],[-112.872398,51.510214,2254],[-112.870006,51.50891,2254],[-112.868787,51.508367,2253],[-112.862455,51.506134,2262],[-112.854766,51.503547,2265],[-112.853626,51.503267,2266],[-112.851613,51.502989,2266],[-112.851322,51.502908,2264],[-112.851124,51.502756,2264],[-112.851073,51.502663,2264],[-112.851166,51.502197,2270],[-112.850986,51.501927,2272],[-112.8497,51.501193,2268],[-112.846213,51.498951,2266],[-112.84442,51.498053,2265],[-112.836882,51.494905,2257],[-112.8357,51.494321,2260],[-112.834249,51.49347,2261],[-112.827868,51.489249,2255],[-112.82566,51.487706,2250],[-112.819928,51.483373,2245],[-112.816461,51.480417,2240],[-112.815536,51.479853,2243],[-112.814564,51.47949,2241],[-112.812532,51.479024,2242],[-112.811562,51.478723,2243],[-112.806778,51.476669,2253],[-112.804224,51.475453,2257],[-112.796603,51.471367,2262],[-112.795287,51.470766,2262],[-112.79377,51.470179,2260],[-112.791809,51.469571,2258],[-112.78633,51.468195,2257],[-112.775172,51.465418,2247],[-112.772521,51.464879,2243],[-112.769857,51.464534,2245],[-112.758166,51.463494,2245],[-112.755071,51.462933,2250],[-112.754086,51.462829,2249],[-112.752901,51.462872,2251],[-112.745646,51.463519,2243],[-112.743655,51.463578,2242],[-112.741385,51.463541,2243],[-112.738327,51.463389,2241],[-112.73766,51.463293,2241],[-112.7369,51.463053,2241],[-112.734959,51.462253,2247],[-112.733891,51.462045,2246],[-112.730689,51.461908,2247],[-112.726959,51.461868,2240],[-112.722315,51.461675,2255],[-112.721688,51.46171,2254],[-112.719746,51.461957,2252],[-112.713486,51.46174,2258],[-112.711329,51.461912,2251],[-112.710681,51.461836,2246],[-112.709534,51.461614,2249],[-112.707431,51.461085,2259],[-112.706801,51.460823,2261],[-112.702166,51.458305,2246],[-112.699683,51.457366,2245],[-112.693488,51.453916,2241],[-112.691365,51.452824,2241],[-112.689317,51.451688,2239],[-112.68646,51.450005,2237],[-112.682533,51.447807,2241],[-112.680431,51.446522,2240],[-112.673043,51.441213,2241],[-112.671268,51.440044,2245],[-112.669892,51.439201,2250],[-112.657624,51.43204,2241],[-112.655664,51.431121,2243],[-112.654211,51.430554,2243],[-112.647879,51.428572,2236],[-112.645294,51.427583,2235],[-112.644128,51.427074,2234],[-112.637782,51.423965,2235],[-112.636468,51.423292,2234],[-112.635781,51.422867,2234],[-112.634808,51.422101,2236],[-112.633968,51.421271,2241],[-112.630904,51.417733,2230],[-112.630561,51.417413,2230],[-112.630496,51.417255,2230],[-112.630604,51.417118,2232],[-112.632929,51.416495,2243],[-112.633411,51.416309,2248],[-112.633922,51.415978,2244],[-112.635566,51.414636,2237],[-112.635926,51.414438,2238],[-112.636237,51.41437,2238],[-112.636739,51.414392,2234],[-112.64258,51.415118,2240],[-112.646675,51.41502,2238],[-112.647346,51.414919,2238],[-112.64769,51.414743,2237],[-112.647941,51.414508,2238],[-112.650987,51.410667,2242],[-112.651309,51.410359,2243],[-112.651847,51.410024,2246],[-112.663745,51.404105,2252],[-112.664385,51.403952,2255],[-112.666851,51.403847,2260],[-112.667511,51.403704,2258],[-112.667982,51.403368,2257],[-112.668869,51.402332,2259],[-112.669021,51.401979,2259],[-112.669067,51.401693,2258],[-112.669109,51.400738,2253],[-112.669563,51.396275,2269],[-112.66956,51.39604,2271],[-112.669502,51.395891,2274],[-112.669345,51.395765,2276],[-112.669112,51.395673,2273],[-112.667996,51.395661,2270],[-112.667526,51.395542,2264],[-112.667166,51.395313,2264],[-112.666426,51.394665,2265],[-112.665967,51.394155,2262],[-112.665154,51.39256,2268],[-112.664686,51.391921,2273],[-112.663972,51.391244,2281],[-112.663544,51.390903,2281],[-112.662243,51.39019,2272],[-112.661781,51.389855,2268],[-112.659787,51.387992,2267],[-112.65904,51.38701,2271],[-112.658124,51.3853,2276],[-112.658027,51.384909,2274],[-112.65803,51.384418,2274],[-112.658181,51.383852,2275],[-112.658515,51.383155,2281],[-112.658797,51.383058,2284],[-112.66021,51.383308,2283],[-112.660594,51.383242,2281],[-112.660716,51.383092,2277],[-112.660677,51.382461,2272],[-112.660795,51.38206,2272],[-112.660931,51.381996,2272],[-112.66078,51.382095,2273],[-112.66062,51.382497,2273],[-112.660661,51.383121,2276],[-112.660551,51.383259,2275],[-112.660212,51.383289,2278],[-112.658653,51.383031,2284],[-112.658469,51.383124,2285],[-112.658138,51.383884,2279],[-112.658025,51.384297,2278],[-112.657983,51.384796,2277],[-112.658085,51.385285,2277],[-112.659125,51.387183,2278],[-112.65976,51.387999,2275],[-112.661968,51.390016,2270],[-112.66246,51.390345,2275],[-112.663492,51.390896,2277],[-112.664039,51.391319,2282],[-112.664768,51.392019,2278],[-112.665308,51.392748,2272],[-112.666024,51.394211,2264],[-112.666368,51.3946,2264],[-112.667432,51.395474,2266],[-112.667735,51.395658,2266],[-112.668118,51.39573,2268],[-112.669167,51.395714,2274],[-112.669353,51.395774,2275],[-112.669552,51.395931,2276],[-112.669594,51.396145,2279],[-112.669047,51.401538,2259],[-112.668936,51.402133,2260],[-112.668631,51.402611,2263],[-112.667754,51.403519,2262],[-112.667303,51.403757,2260],[-112.666735,51.403851,2260],[-112.664306,51.403924,2260],[-112.66372,51.404069,2261],[-112.660785,51.405575,2255],[-112.65309,51.409346,2248],[-112.651759,51.410041,2251],[-112.651338,51.410309,2255],[-112.650858,51.41079,2249],[-112.647938,51.414443,2240],[-112.647675,51.414706,2242],[-112.647314,51.414908,2241],[-112.647017,51.414981,2239],[-112.646406,51.415029,2239],[-112.642434,51.415066,2239],[-112.636816,51.414355,2231],[-112.636092,51.414328,2232],[-112.635784,51.414419,2234],[-112.635545,51.414564,2236],[-112.634828,51.415206,2242],[-112.633638,51.416154,2247],[-112.63288,51.416459,2246],[-112.630669,51.417083,2233],[-112.630444,51.417091,2231],[-112.630266,51.417024,2230],[-112.630134,51.416911,2230],[-112.627179,51.413492,2234],[-112.625575,51.411715,2254],[-112.624828,51.411076,2261],[-112.623748,51.410391,2268],[-112.622544,51.409831,2269],[-112.62123,51.409386,2272],[-112.610777,51.406828,2253],[-112.609657,51.406475,2250],[-112.608629,51.406072,2248],[-112.605021,51.403954,2241],[-112.600441,51.400759,2238],[-112.599585,51.400288,2237],[-112.598789,51.399947,2236],[-112.597594,51.399543,2234],[-112.596095,51.399204,2234],[-112.588507,51.398355,2243],[-112.587733,51.398202,2243],[-112.587001,51.397981,2242],[-112.582652,51.396101,2229],[-112.56506,51.388147,2232],[-112.56307,51.387328,2234],[-112.560968,51.386642,2234],[-112.543016,51.381625,2225],[-112.536936,51.379812,2224],[-112.534815,51.379061,2227],[-112.533307,51.378438,2230],[-112.531774,51.377702,2231],[-112.530317,51.376915,2233],[-112.527281,51.375051,2246],[-112.525612,51.373789,2253],[-112.52241,51.371132,2256],[-112.521527,51.370286,2255],[-112.520799,51.369477,2258],[-112.518094,51.365925,2257],[-112.517836,51.36553,2256],[-112.517599,51.364987,2253],[-112.5175,51.36463,2247],[-112.517445,51.364133,2243],[-112.517576,51.363237,2236],[-112.518081,51.361805,2232],[-112.518226,51.36124,2230],[-112.518237,51.360663,2227],[-112.518118,51.360086,2224],[-112.517854,51.359514,2222],[-112.51764,51.359178,2220],[-112.514951,51.355467,2217],[-112.514006,51.354382,2219],[-112.512689,51.353205,2220],[-112.509337,51.35076,2222],[-112.507791,51.349519,2223],[-112.506552,51.348284,2223],[-112.504784,51.346185,2220],[-112.503888,51.345393,2219],[-112.503044,51.344854,2219],[-112.502246,51.344466,2219],[-112.498999,51.34325,2225],[-112.497677,51.342635,2228],[-112.497495,51.342458,2230],[-112.497546,51.342319,2229],[-112.497697,51.342182,2228],[-112.49765,51.342111,2225],[-112.497298,51.342338,2228],[-112.49726,51.342513,2229],[-112.497535,51.342713,2230],[-112.499125,51.343383,2226],[-112.502141,51.344505,2224],[-112.503015,51.34493,2222],[-112.503861,51.34547,2221],[-112.504466,51.345978,2222],[-112.5049,51.346428,2224],[-112.506679,51.348537,2227],[-112.50821,51.34998,2225],[-112.509307,51.350833,2226],[-112.512765,51.353354,2219],[-112.514125,51.354592,2220],[-112.515129,51.355823,2219],[-112.517493,51.359134,2218],[-112.517826,51.359672,2220],[-112.518047,51.360198,2221],[-112.518155,51.360863,2225],[-112.518111,51.361366,2227],[-112.5175,51.363181,2234],[-112.517364,51.364026,2240],[-112.517404,51.364556,2243],[-112.517532,51.36505,2248],[-112.517942,51.365855,2255],[-112.520609,51.36934,2257],[-112.521349,51.370193,2257],[-112.522049,51.370889,2259],[-112.522839,51.37159,2258],[-112.526122,51.374297,2254],[-112.527874,51.375555,2254],[-112.529127,51.376334,2246],[-112.530865,51.377319,2240],[-112.532923,51.378335,2236],[-112.535363,51.379352,2229],[-112.537273,51.380031,2232],[-112.54072,51.381043,2224],[-112.561,51.386713,2232],[-112.563441,51.387532,2229],[-112.565047,51.388207,2235],[-112.585858,51.397612,2245],[-112.586818,51.397993,2245],[-112.587774,51.398269,2241],[-112.588911,51.398464,2247],[-112.59569,51.39919,2235],[-112.597172,51.399487,2236],[-112.598406,51.399867,2240],[-112.599547,51.400345,2240],[-112.600448,51.400837,2241],[-112.60505,51.404051,2244],[-112.607953,51.405773,2248],[-112.609204,51.406371,2252],[-112.609977,51.406657,2249],[-112.611128,51.406988,2255],[-112.620911,51.409365,2278],[-112.621994,51.40969,2276],[-112.623348,51.410253,2276],[-112.62421,51.41073,2273],[-112.6247,51.411059,2268],[-112.625584,51.411809,2266],[-112.634052,51.421437,2249],[-112.634819,51.422189,2248],[-112.635669,51.422854,2244],[-112.636554,51.423403,2240],[-112.637573,51.423933,2240],[-112.643631,51.426896,2241],[-112.6453,51.427651,2241],[-112.646708,51.428212,2243],[-112.648357,51.42879,2240],[-112.654072,51.43057,2247],[-112.655753,51.43123,2249],[-112.656946,51.431769,2246],[-112.659057,51.432916,2244],[-112.671052,51.439979,2262],[-112.673119,51.441349,2253],[-112.680538,51.446665,2255],[-112.682413,51.447868,2251],[-112.684744,51.449258,2250],[-112.684741,51.449377,2247],[-112.684634,51.449475,2245],[-112.682739,51.450771,2234],[-112.68264,51.45092,2236],[-112.682642,51.451005,2236],[-112.682881,51.451274,2234],[-112.684884,51.453114,2241],[-112.685726,51.453665,2241],[-112.689,51.45555,2239],[-112.694734,51.459586,2240],[-112.699668,51.462116,2241],[-112.700199,51.462321,2241],[-112.700555,51.462376,2242],[-112.700597,51.46243,2243],[-112.70063,51.463422,2235],[-112.700727,51.46359,2236],[-112.701013,51.463896,2236],[-112.701916,51.464758,2233],[-112.702468,51.465097,2235],[-112.703157,51.465316,2232],[-112.704654,51.465459,2236],[-112.704858,51.465528,2235],[-112.704944,51.465657,2234],[-112.704912,51.466182,2238],[-112.705062,51.466533,2236],[-112.705052,51.466832,2236],[-112.70513,51.46689,2236],[-112.705236,51.466868,2236]]}}]}