{"type": "FeatureCollection", "features": [{"type": "Feature", "geometry": {"type": "Point", "coordinates": [-112.705029, 51.466674]}, "properties": {"id": "turn_000", "course_mi": 0.02, "ele_m": 690.7, "direction": "right", "intensity": "normal", "label": "", "label_type": "", "section": "Start \u2192 Finish", "snap_method": "geometry_only", "context": "", "jurisdiction": "", "jurisdiction_unit": ""}}, {"type": "Feature", "geometry": {"type": "Point", "coordinates": [-112.705168, 51.465503]}, "properties": {"id": "turn_001", "course_mi": 0.11, "ele_m": 691.7, "direction": "right", "intensity": "normal", "label": "Riverside Drive East", "label_type": "road", "section": "Start \u2192 Finish", "snap_method": "geometry_only", "context": "", "jurisdiction": "", "jurisdiction_unit": ""}}, {"type": "Feature", "geometry": {"type": "Point", "coordinates": [-112.712503, 51.471456]}, "properties": {"id": "turn_002", "course_mi": 0.74, "ele_m": 698.2, "direction": "left", "intensity": "normal", "label": "North Dinosaur Trail", "label_type": "road", "section": "Start \u2192 Finish", "snap_method": "geometry_only", "context": "", "jurisdiction": "", "jurisdiction_unit": ""}}, {"type": "Feature", "geometry": {"type": "Point", "coordinates": [-112.851169, 51.50276]}, "properties": {"id": "turn_003", "course_mi": 22.42, "ele_m": 703.0, "direction": "right", "intensity": "normal", "label": "South Dinosaur Trail", "label_type": "road", "section": "Start \u2192 Finish", "snap_method": "geometry_only", "context": "", "jurisdiction": "", "jurisdiction_unit": ""}}, {"type": "Feature", "geometry": {"type": "Point", "coordinates": [-112.747588, 51.46305]}, "properties": {"id": "turn_004", "course_mi": 27.93, "ele_m": 693.4, "direction": "left", "intensity": "sharp", "label": "17 Street Southwest", "label_type": "road", "section": "Start \u2192 Finish", "snap_method": "geometry_only", "context": "", "jurisdiction": "", "jurisdiction_unit": ""}}, {"type": "Feature", "geometry": {"type": "Point", "coordinates": [-112.669518, 51.395831]}, "properties": {"id": "turn_005", "course_mi": 36.86, "ele_m": 707.4, "direction": "left", "intensity": "normal", "label": "Highway 10X", "label_type": "road", "section": "Start \u2192 Finish", "snap_method": "geometry_only", "context": "", "jurisdiction": "", "jurisdiction_unit": ""}}, {"type": "Feature", "geometry": {"type": "Point", "coordinates": [-112.660828, 51.381799]}, "properties": {"id": "turn_006", "course_mi": 38.14, "ele_m": 704.7, "direction": "left", "intensity": "sharp", "label": "Excelsior Avenue", "label_type": "road", "section": "Start \u2192 Finish", "snap_method": "geometry_only", "context": "", "jurisdiction": "", "jurisdiction_unit": ""}}, {"type": "Feature", "geometry": {"type": "Point", "coordinates": [-112.660878, 51.381892]}, "properties": {"id": "turn_007", "course_mi": 38.2, "ele_m": 704.7, "direction": "right", "intensity": "sharp", "label": "Excelsior Avenue", "label_type": "road", "section": "Start \u2192 Finish", "snap_method": "geometry_only", "context": "", "jurisdiction": "", "jurisdiction_unit": ""}}, {"type": "Feature", "geometry": {"type": "Point", "coordinates": [-112.660724, 51.382048]}, "properties": {"id": "turn_008", "course_mi": 38.26, "ele_m": 704.2, "direction": "left", "intensity": "normal", "label": "Excelsior Avenue", "label_type": "road", "section": "Start \u2192 Finish", "snap_method": "geometry_only", "context": "", "jurisdiction": "", "jurisdiction_unit": ""}}, {"type": "Feature", "geometry": {"type": "Point", "coordinates": [-112.660598, 51.383121]}, "properties": {"id": "turn_009", "course_mi": 38.34, "ele_m": 705.7, "direction": "right", "intensity": "normal", "label": "Jewell Street", "label_type": "road", "section": "Start \u2192 Finish", "snap_method": "geometry_only", "context": "", "jurisdiction": "", "jurisdiction_unit": ""}}, {"type": "Feature", "geometry": {"type": "Point", "coordinates": [-112.705292, 51.46691]}, "properties": {"id": "turn_010", "course_mi": 47.06, "ele_m": 693.5, "direction": "left", "intensity": "normal", "label": "", "label_type": "", "section": "Start \u2192 Finish", "snap_method": "geometry_only", "context": "", "jurisdiction": "", "jurisdiction_unit": ""}}]}