{"type":"FeatureCollection","features":[{"type":"Feature","properties":{"name":"Triceratops 75K","loop":"triceratops","color":"#C68E1E","distance_km":75.79,"distance_mi":47.09,"gain_m":411,"gain_ft":1349,"loss_m":411,"loss_ft":1349,"min_ele_m":689,"max_ele_m":837,"min_ele_ft":2262,"max_ele_ft":2746},"geometry":{"type":"LineString","coordinates":[[-112.705229,51.466873,2262],[-112.705062,51.466854,2262],[-112.705012,51.466806,2262],[-112.705049,51.466422,2266],[-112.704961,51.466182,2271],[-112.704999,51.465914,2272],[-112.704961,51.465594,2268],[-112.705001,51.465535,2268],[-112.705168,51.465503,2269],[-112.705895,51.4657,2269],[-112.706315,51.465887,2269],[-112.706762,51.466136,2269],[-112.707616,51.466773,2273],[-112.707963,51.466886,2273],[-112.708934,51.466944,2275],[-112.710599,51.466946,2275],[-112.710861,51.467004,2275],[-112.712906,51.468348,2292],[-112.713119,51.468575,2286],[-112.713144,51.468699,2288],[-112.7131,51.468902,2288],[-112.712604,51.470239,2284],[-112.712328,51.471307,2289],[-112.712503,51.471456,2291],[-112.713053,51.471508,2291],[-112.717157,51.471452,2293],[-112.721345,51.47155,2295],[-112.722956,51.471527,2297],[-112.724354,51.471446,2304],[-112.729538,51.470757,2304],[-112.731393,51.47057,2304],[-112.735743,51.470498,2318],[-112.738076,51.470276,2318],[-112.739408,51.470076,2311],[-112.742169,51.469502,2310],[-112.745837,51.46902,2317],[-112.746787,51.468855,2317],[-112.747693,51.468635,2318],[-112.749835,51.467903,2318],[-112.750802,51.467695,2301],[-112.751358,51.467633,2301],[-112.75583,51.467391,2297],[-112.76029,51.46754,2305],[-112.761368,51.467631,2304],[-112.765646,51.468115,2293],[-112.767068,51.468387,2304],[-112.768024,51.468694,2305],[-112.768915,51.469125,2305],[-112.769733,51.469713,2311],[-112.771471,51.471368,2315],[-112.772164,51.47186,2321],[-112.772822,51.472176,2321],[-112.774369,51.472759,2320],[-112.77745,51.473813,2320],[-112.778343,51.47407,2319],[-112.779223,51.474195,2318],[-112.780044,51.47425,2318],[-112.781867,51.474171,2316],[-112.784892,51.473929,2317],[-112.786072,51.473921,2314],[-112.787698,51.474098,2313],[-112.788787,51.474308,2309],[-112.789539,51.474525,2309],[-112.791041,51.475159,2303],[-112.7917,51.475517,2304],[-112.793329,51.476653,2296],[-112.794603,51.477655,2296],[-112.795073,51.477944,2296],[-112.795886,51.478311,2296],[-112.797952,51.478995,2308],[-112.798907,51.479423,2307],[-112.802352,51.481105,2301],[-112.80343,51.481805,2306],[-112.80361,51.481969,2306],[-112.803925,51.48239,2304],[-112.804392,51.483296,2315],[-112.805463,51.485099,2324],[-112.805667,51.48553,2324],[-112.805834,51.486152,2327],[-112.806016,51.4873,2327],[-112.806244,51.48795,2336],[-112.806648,51.488563,2336],[-112.807408,51.489319,2357],[-112.811229,51.492166,2362],[-112.812544,51.493015,2362],[-112.81456,51.494061,2362],[-112.816211,51.495041,2362],[-112.822151,51.499079,2362],[-112.823078,51.499654,2362],[-112.823832,51.50022,2362],[-112.825603,51.501409,2362],[-112.827162,51.502377,2353],[-112.828408,51.503026,2354],[-112.830912,51.50418,2354],[-112.843013,51.509485,2346],[-112.844043,51.509889,2351],[-112.845275,51.510216,2347],[-112.846508,51.510411,2352],[-112.847586,51.510492,2330],[-112.849891,51.510488,2336],[-112.851613,51.510665,2343],[-112.852509,51.510841,2343],[-112.853426,51.511095,2343],[-112.854003,51.51132,2343],[-112.855133,51.511871,2327],[-112.857168,51.513186,2338],[-112.85806,51.513658,2328],[-112.859245,51.514475,2328],[-112.860079,51.514907,2342],[-112.861841,51.515972,2341],[-112.863478,51.517044,2341],[-112.863884,51.51737,2341],[-112.864569,51.518129,2356],[-112.865057,51.518867,2358],[-112.865437,51.519794,2365],[-112.865515,51.520157,2387],[-112.865534,51.520869,2387],[-112.865459,51.52183,2436],[-112.865311,51.522456,2436],[-112.864608,51.527342,2566],[-112.864555,51.537382,2607],[-112.864496,51.537709,2613],[-112.864401,51.537964,2615],[-112.864102,51.53841,2615],[-112.863863,51.538641,2615],[-112.863374,51.538979,2630],[-112.862627,51.539325,2638],[-112.861938,51.539501,2639],[-112.861476,51.539546,2639],[-112.860863,51.539579,2653],[-112.841849,51.539539,2698],[-112.841362,51.539551,2698],[-112.841127,51.539647,2698],[-112.841063,51.539892,2698],[-112.8411,51.542623,2714],[-112.841038,51.546104,2725],[-112.841084,51.54718,2725],[-112.841042,51.549741,2727],[-112.841063,51.560887,2740],[-112.841069,51.561129,2740],[-112.84113,51.561318,2740],[-112.841283,51.561452,2743],[-112.841544,51.561489,2746],[-112.852618,51.561494,2743],[-112.865747,51.561585,2668],[-112.866913,51.561739,2664],[-112.867607,51.561907,2660],[-112.868169,51.562112,2660],[-112.874501,51.565175,2603],[-112.875233,51.565438,2531],[-112.876028,51.565629,2512],[-112.877281,51.565762,2512],[-112.879369,51.565717,2424],[-112.880102,51.565607,2415],[-112.881513,51.565108,2360],[-112.882044,51.56507,2351],[-112.882665,51.56513,2339],[-112.883096,51.565269,2336],[-112.883444,51.565492,2331],[-112.88368,51.565762,2321],[-112.88378,51.566043,2318],[-112.883383,51.569745,2301],[-112.883333,51.5721,2303],[-112.883359,51.572701,2301],[-112.883062,51.572835,2298],[-112.883329,51.573025,2298],[-112.883268,51.573049,2298],[-112.883229,51.572978,2298],[-112.883271,51.572946,2298],[-112.883053,51.572843,2298],[-112.883251,51.572747,2295],[-112.883561,51.57298,2293],[-112.883888,51.573061,2291],[-112.88391,51.573099,2291],[-112.883855,51.573075,2291],[-112.883917,51.573091,2288],[-112.883885,51.573121,2288],[-112.883929,51.573109,2288],[-112.883892,51.573072,2288],[-112.884675,51.573025,2291],[-112.884781,51.573065,2291],[-112.885408,51.57305,2291],[-112.886515,51.573156,2298],[-112.886627,51.573181,2301],[-112.886661,51.573234,2303],[-112.886786,51.573117,2303],[-112.895118,51.567972,2317],[-112.895875,51.56753,2317],[-112.896355,51.567313,2337],[-112.897018,51.567115,2343],[-112.897584,51.567071,2350],[-112.898256,51.567092,2350],[-112.899259,51.567331,2350],[-112.900075,51.567738,2402],[-112.900792,51.568276,2437],[-112.901558,51.568543,2461],[-112.901672,51.568485,2461],[-112.902121,51.568532,2477],[-112.902676,51.568471,2492],[-112.904644,51.567991,2544],[-112.905055,51.56795,2550],[-112.906497,51.568019,2581],[-112.907684,51.568261,2626],[-112.909169,51.568486,2651],[-112.911047,51.568513,2651],[-112.911299,51.568474,2667],[-112.911485,51.568389,2667],[-112.911565,51.568153,2667],[-112.911565,51.567524,2667],[-112.911509,51.567347,2667],[-112.911485,51.566838,2667],[-112.911518,51.56327,2667],[-112.911474,51.550852,2694],[-112.911373,51.550129,2698],[-112.911129,51.549496,2701],[-112.910795,51.548958,2701],[-112.910266,51.548377,2701],[-112.909489,51.547775,2694],[-112.90878,51.547367,2691],[-112.901279,51.543832,2626],[-112.900087,51.543206,2618],[-112.899622,51.542896,2590],[-112.899182,51.542526,2580],[-112.897519,51.540773,2514],[-112.896808,51.540179,2507],[-112.895825,51.539622,2472],[-112.892301,51.537841,2390],[-112.89164,51.5374,2382],[-112.891011,51.536831,2368],[-112.890493,51.536161,2368],[-112.890187,51.535587,2319],[-112.888618,51.531419,2306],[-112.887998,51.530109,2306],[-112.887118,51.528774,2310],[-112.883818,51.524278,2310],[-112.881628,51.52103,2323],[-112.879987,51.518237,2303],[-112.878123,51.514638,2295],[-112.8776,51.513769,2293],[-112.876977,51.51317,2290],[-112.875855,51.512343,2296],[-112.873615,51.511057,2300],[-112.872773,51.510451,2300],[-112.872086,51.51003,2288],[-112.870264,51.509031,2292],[-112.869327,51.50858,2292],[-112.863229,51.506406,2297],[-112.854753,51.503543,2301],[-112.853524,51.503234,2306],[-112.851531,51.502955,2306],[-112.851357,51.502896,2306],[-112.851169,51.50276,2306],[-112.851087,51.502602,2302],[-112.851101,51.502455,2302],[-112.851243,51.502227,2308],[-112.851248,51.502136,2308],[-112.850977,51.50188,2308],[-112.849602,51.501118,2308],[-112.846558,51.499125,2300],[-112.845678,51.498639,2299],[-112.844326,51.497988,2307],[-112.837489,51.495165,2297],[-112.835687,51.494317,2297],[-112.834309,51.493508,2297],[-112.827956,51.489293,2299],[-112.825433,51.487509,2299],[-112.821064,51.484223,2299],[-112.819569,51.483029,2299],[-112.816498,51.48045,2279],[-112.815838,51.479999,2279],[-112.815154,51.479669,2277],[-112.814727,51.479519,2277],[-112.812589,51.479022,2278],[-112.811143,51.478544,2290],[-112.805198,51.475904,2301],[-112.802819,51.474702,2301],[-112.796572,51.471326,2302],[-112.794894,51.47058,2300],[-112.793296,51.469991,2300],[-112.791861,51.469557,2301],[-112.774024,51.465116,2301],[-112.772313,51.464809,2287],[-112.770541,51.464562,2287],[-112.758485,51.463495,2285],[-112.757591,51.463369,2286],[-112.7551,51.462891,2288],[-112.754312,51.462798,2288],[-112.753572,51.462796,2288],[-112.747656,51.463321,2290],[-112.747532,51.46331,2286],[-112.747398,51.463225,2286],[-112.747465,51.463036,2288],[-112.747538,51.463022,2288],[-112.74764,51.463093,2277],[-112.747486,51.463015,2285],[-112.747369,51.463256,2279],[-112.747178,51.463344,2279],[-112.744434,51.463522,2279],[-112.742222,51.463532,2281],[-112.73849,51.463377,2281],[-112.737625,51.463259,2281],[-112.736991,51.463065,2284],[-112.735005,51.462243,2284],[-112.734575,51.462131,2286],[-112.733264,51.461979,2291],[-112.729162,51.461841,2291],[-112.727179,51.461853,2291],[-112.722485,51.46166,2300],[-112.721853,51.461682,2300],[-112.720292,51.461911,2300],[-112.719585,51.461958,2300],[-112.713604,51.461703,2300],[-112.71112,51.461849,2293],[-112.709368,51.461545,2291],[-112.707125,51.460953,2297],[-112.702005,51.45821,2291],[-112.700086,51.457517,2286],[-112.699573,51.457279,2286],[-112.696673,51.455622,2282],[-112.690123,51.452115,2281],[-112.688258,51.451061,2282],[-112.686409,51.449946,2282],[-112.682213,51.447582,2282],[-112.679987,51.446187,2282],[-112.673488,51.441499,2285],[-112.671327,51.44004,2286],[-112.667027,51.437477,2292],[-112.657828,51.432108,2292],[-112.655881,51.431176,2292],[-112.654508,51.43062,2284],[-112.647603,51.428454,2276],[-112.645088,51.427473,2276],[-112.643172,51.426586,2279],[-112.636775,51.423412,2268],[-112.635879,51.42288,2272],[-112.635309,51.422479,2272],[-112.634609,51.421883,2283],[-112.63392,51.421194,2283],[-112.631556,51.418432,2279],[-112.630743,51.417544,2279],[-112.630511,51.417238,2278],[-112.630513,51.417185,2278],[-112.630661,51.417057,2279],[-112.632701,51.416541,2282],[-112.633453,51.416281,2286],[-112.634005,51.415877,2292],[-112.635394,51.41471,2292],[-112.635777,51.414453,2286],[-112.636113,51.414339,2286],[-112.636417,51.414325,2285],[-112.637432,51.41444,2285],[-112.642538,51.415085,2285],[-112.646682,51.414986,2288],[-112.647399,51.41486,2287],[-112.647822,51.414589,2283],[-112.648134,51.414257,2283],[-112.650938,51.410688,2291],[-112.651202,51.41041,2295],[-112.651637,51.41007,2295],[-112.663802,51.404047,2295],[-112.664441,51.403913,2301],[-112.666442,51.403842,2304],[-112.667374,51.403712,2302],[-112.667797,51.403479,2306],[-112.668831,51.402328,2306],[-112.668998,51.401961,2303],[-112.669057,51.401495,2303],[-112.669112,51.400535,2301],[-112.66954,51.396904,2303],[-112.669608,51.396121,2303],[-112.669573,51.395904,2321],[-112.669305,51.395685,2320],[-112.669148,51.395639,2320],[-112.668093,51.395637,2316],[-112.667646,51.395558,2315],[-112.667461,51.395471,2315],[-112.666806,51.394939,2315],[-112.666101,51.394211,2305],[-112.66582,51.393752,2308],[-112.665247,51.392589,2311],[-112.664996,51.392224,2311],[-112.664551,51.39172,2311],[-112.663545,51.390839,2326],[-112.662411,51.390231,2317],[-112.661889,51.389885,2317],[-112.660626,51.388774,2313],[-112.659783,51.387914,2313],[-112.659314,51.387371,2313],[-112.658805,51.386597,2318],[-112.6581,51.385187,2321],[-112.657987,51.38468,2317],[-112.658067,51.384059,2318],[-112.658447,51.3832,2325],[-112.658633,51.383042,2327],[-112.658783,51.383021,2327],[-112.660267,51.383296,2327],[-112.660474,51.383285,2328],[-112.660616,51.383208,2328],[-112.66066,51.383078,2324],[-112.660604,51.382579,2324],[-112.660694,51.382067,2318],[-112.660757,51.381944,2315],[-112.660717,51.381808,2315],[-112.660815,51.381766,2314],[-112.660753,51.381869,2312],[-112.660802,51.381875,2315],[-112.660713,51.381817,2314],[-112.660808,51.381775,2314],[-112.660676,51.381855,2314],[-112.660721,51.381821,2312],[-112.660845,51.381861,2312],[-112.660799,51.381886,2312],[-112.660829,51.381932,2312],[-112.66089,51.38183,2312],[-112.66077,51.38178,2312],[-112.660653,51.381803,2314],[-112.660791,51.38187,2314],[-112.660946,51.381856,2311],[-112.660775,51.381924,2310],[-112.660724,51.382048,2310],[-112.660716,51.382322,2311],[-112.66055,51.382429,2315],[-112.660593,51.382475,2315],[-112.66063,51.382855,2315],[-112.660598,51.383121,2315],[-112.660475,51.383211,2314],[-112.660136,51.383211,2314],[-112.65871,51.383001,2314],[-112.658564,51.383015,2314],[-112.658446,51.383108,2314],[-112.658203,51.38359,2318],[-112.657999,51.384314,2318],[-112.657988,51.384813,2314],[-112.658098,51.385276,2319],[-112.658949,51.386893,2318],[-112.659567,51.387758,2318],[-112.661809,51.38991,2311],[-112.662377,51.390278,2310],[-112.663246,51.390682,2310],[-112.664184,51.391461,2327],[-112.66497,51.392349,2323],[-112.665762,51.393842,2323],[-112.666058,51.394323,2314],[-112.666318,51.394587,2313],[-112.667333,51.395441,2309],[-112.667642,51.395632,2309],[-112.668057,51.395713,2310],[-112.669134,51.395703,2316],[-112.669287,51.395748,2318],[-112.669525,51.395919,2318],[-112.669557,51.396155,2324],[-112.669022,51.401312,2305],[-112.668855,51.402114,2302],[-112.6686,51.402484,2306],[-112.667699,51.403445,2306],[-112.667361,51.403623,2306],[-112.666494,51.403763,2310],[-112.664266,51.403854,2300],[-112.663763,51.403979,2298],[-112.660139,51.405785,2299],[-112.657103,51.407196,2295],[-112.653631,51.408986,2295],[-112.651866,51.40984,2295],[-112.651357,51.410162,2297],[-112.651029,51.410472,2294],[-112.647981,51.414259,2285],[-112.647635,51.414661,2285],[-112.647288,51.41486,2285],[-112.64675,51.414957,2284],[-112.642462,51.415041,2281],[-112.636963,51.414347,2273],[-112.636191,51.414304,2273],[-112.635908,51.414364,2269],[-112.635569,51.414555,2269],[-112.633566,51.416157,2286],[-112.633071,51.416372,2285],[-112.63049,51.417101,2268],[-112.630419,51.417127,2273],[-112.630384,51.417267,2274],[-112.630935,51.417948,2274],[-112.630963,51.418098,2274],[-112.631068,51.418152,2273],[-112.631533,51.41862,2273],[-112.634215,51.421643,2272],[-112.634819,51.42221,2288],[-112.635355,51.422631,2283],[-112.636585,51.42344,2281],[-112.63732,51.423842,2281],[-112.643024,51.426643,2276],[-112.646073,51.427994,2284],[-112.647496,51.428517,2284],[-112.649853,51.429291,2285],[-112.653641,51.430433,2292],[-112.655123,51.430993,2292],[-112.656963,51.431797,2288],[-112.658769,51.432767,2288],[-112.662985,51.435284,2288],[-112.670305,51.439521,2298],[-112.67129,51.440143,2294],[-112.673909,51.441936,2278],[-112.675889,51.443419,2286],[-112.680823,51.446869,2289],[-112.683321,51.448435,2289],[-112.684692,51.449239,2287],[-112.684731,51.449331,2280],[-112.684646,51.449453,2276],[-112.682827,51.450671,2273],[-112.682629,51.450845,2273],[-112.68259,51.451001,2272],[-112.682642,51.451096,2272],[-112.683608,51.451948,2279],[-112.684911,51.453247,2277],[-112.687041,51.454439,2272],[-112.688785,51.455478,2272],[-112.692017,51.457699,2278],[-112.694628,51.459578,2282],[-112.699741,51.4622,2277],[-112.699979,51.462306,2277],[-112.700461,51.462388,2282],[-112.700508,51.462482,2282],[-112.700545,51.463196,2274],[-112.700626,51.463465,2274],[-112.70198,51.464839,2271],[-112.702485,51.465169,2268],[-112.702937,51.465309,2268],[-112.703377,51.465393,2275],[-112.704627,51.46546,2275],[-112.70477,51.465503,2275],[-112.70484,51.465579,2268],[-112.704834,51.466135,2268],[-112.705011,51.466561,2272],[-112.704963,51.466759,2272],[-112.705023,51.466848,2272],[-112.705292,51.46691,2275],[-112.705996,51.46684,2273]]}}]}