{"type":"FeatureCollection","features":[{"type":"Feature","properties":{"name":"Velociraptor 50K","loop":"velociraptor","color":"#3F6B5F","distance_km":52.96,"distance_mi":32.91,"gain_m":384,"gain_ft":1258,"loss_m":384,"loss_ft":1258,"min_ele_m":680,"max_ele_m":827,"min_ele_ft":2231,"max_ele_ft":2713},"geometry":{"type":"LineString","coordinates":[[-112.705848,51.467152,2232],[-112.705997,51.467168,2232],[-112.705994,51.467084,2232],[-112.706039,51.467052,2231],[-112.705235,51.46693,2239],[-112.70501,51.466869,2240],[-112.704961,51.466816,2240],[-112.705,51.466524,2240],[-112.704893,51.466253,2239],[-112.704905,51.465766,2237],[-112.70497,51.465545,2238],[-112.705226,51.465519,2237],[-112.706039,51.465809,2237],[-112.706341,51.465952,2237],[-112.707452,51.4667,2237],[-112.707731,51.466805,2238],[-112.708316,51.466899,2238],[-112.708993,51.466917,2238],[-112.70919,51.46688,2238],[-112.709231,51.466822,2238],[-112.709262,51.466083,2241],[-112.709324,51.465827,2244],[-112.709308,51.465464,2247],[-112.709525,51.465396,2246],[-112.71046,51.465418,2247],[-112.71061,51.465547,2248],[-112.710582,51.46568,2248],[-112.710638,51.466068,2248],[-112.710596,51.466472,2245],[-112.710725,51.466859,2243],[-112.710996,51.467103,2244],[-112.712946,51.468373,2248],[-112.713111,51.468588,2246],[-112.713066,51.468916,2243],[-112.712665,51.470075,2239],[-112.712532,51.470777,2240],[-112.712371,51.471265,2242],[-112.712433,51.471404,2243],[-112.712649,51.471477,2244],[-112.712896,51.471493,2244],[-112.718455,51.471477,2246],[-112.721361,51.471614,2250],[-112.722925,51.471591,2253],[-112.724605,51.47147,2253],[-112.729002,51.47088,2255],[-112.731417,51.470609,2257],[-112.735285,51.470542,2262],[-112.736787,51.47047,2259],[-112.737707,51.470373,2258],[-112.739272,51.47013,2258],[-112.74083,51.469792,2261],[-112.742412,51.469511,2263],[-112.746635,51.468928,2260],[-112.747704,51.468683,2260],[-112.749594,51.467994,2259],[-112.750908,51.467723,2258],[-112.755695,51.467447,2253],[-112.759961,51.467566,2253],[-112.761411,51.467677,2252],[-112.765963,51.468172,2250],[-112.766947,51.468386,2252],[-112.767696,51.468605,2255],[-112.768638,51.469022,2259],[-112.7693,51.469425,2262],[-112.769864,51.469879,2264],[-112.771299,51.471313,2270],[-112.771939,51.471792,2270],[-112.772421,51.472059,2270],[-112.773439,51.472469,2270],[-112.777902,51.473997,2270],[-112.778968,51.474211,2270],[-112.780199,51.474292,2270],[-112.780896,51.47427,2270],[-112.784723,51.473953,2267],[-112.786848,51.474039,2260],[-112.788096,51.474231,2256],[-112.789313,51.474518,2256],[-112.7903,51.474862,2256],[-112.791194,51.475268,2256],[-112.791997,51.475735,2257],[-112.794416,51.477537,2260],[-112.795182,51.478019,2260],[-112.79609,51.478404,2260],[-112.798146,51.479065,2260],[-112.801918,51.480887,2260],[-112.802521,51.481213,2260],[-112.803076,51.481582,2261],[-112.80337,51.481838,2262],[-112.803828,51.482389,2264],[-112.80547,51.48512,2278],[-112.80571,51.485768,2280],[-112.805946,51.487122,2286],[-112.806184,51.487916,2294],[-112.806525,51.488475,2300],[-112.8072,51.489184,2309],[-112.811832,51.492552,2311],[-112.812767,51.493126,2310],[-112.814871,51.494237,2317],[-112.815945,51.494868,2317],[-112.826045,51.501689,2307],[-112.827436,51.502559,2306],[-112.828829,51.503237,2305],[-112.836434,51.506612,2291],[-112.842641,51.509333,2303],[-112.843933,51.509851,2302],[-112.845494,51.510259,2300],[-112.846783,51.51044,2297],[-112.84767,51.510491,2296],[-112.850258,51.510514,2290],[-112.851595,51.510654,2287],[-112.85298,51.510963,2285],[-112.854259,51.511421,2282],[-112.855172,51.511914,2283],[-112.863182,51.516877,2305],[-112.864295,51.517833,2306],[-112.864689,51.518293,2310],[-112.864943,51.518693,2315],[-112.865159,51.519117,2322],[-112.865385,51.519734,2334],[-112.865512,51.520366,2350],[-112.865481,51.520782,2362],[-112.865514,51.520872,2365],[-112.865248,51.522879,2423],[-112.865046,51.524023,2455],[-112.86498,51.524779,2475],[-112.864688,51.526375,2510],[-112.864548,51.527643,2531],[-112.864513,51.537559,2573],[-112.864372,51.538018,2576],[-112.863968,51.538552,2581],[-112.863474,51.538924,2588],[-112.862906,51.539214,2595],[-112.86236,51.539413,2600],[-112.86164,51.539549,2607],[-112.86035,51.539601,2618],[-112.841822,51.539521,2662],[-112.841372,51.539536,2664],[-112.841224,51.539603,2664],[-112.841093,51.539759,2665],[-112.841046,51.539991,2666],[-112.841075,51.544016,2685],[-112.841037,51.545922,2689],[-112.841062,51.559582,2701],[-112.84103,51.559842,2702],[-112.841104,51.561189,2708],[-112.841185,51.561302,2709],[-112.841547,51.561446,2709],[-112.842308,51.561469,2710],[-112.863524,51.561538,2644],[-112.865945,51.561593,2635],[-112.866844,51.561727,2632],[-112.867951,51.562048,2627],[-112.874171,51.564985,2522],[-112.875244,51.565381,2493],[-112.875816,51.565528,2477],[-112.877346,51.565708,2435],[-112.879316,51.565703,2386],[-112.879985,51.565612,2367],[-112.881452,51.56512,2322],[-112.882025,51.565059,2307],[-112.882637,51.565124,2293],[-112.883022,51.565255,2284],[-112.883479,51.565561,2274],[-112.883653,51.56582,2270],[-112.883729,51.566097,2267],[-112.883511,51.568276,2265],[-112.883449,51.569438,2265],[-112.883364,51.570003,2265],[-112.883313,51.571251,2265],[-112.883343,51.571997,2264],[-112.883293,51.57254,2265],[-112.883366,51.572807,2266],[-112.883537,51.573021,2266],[-112.883677,51.573079,2265],[-112.885669,51.57304,2256],[-112.886502,51.573109,2265],[-112.886866,51.573017,2271],[-112.887563,51.572638,2275],[-112.895784,51.567584,2296],[-112.896255,51.567344,2299],[-112.897049,51.567103,2306],[-112.898076,51.567052,2321],[-112.898677,51.567116,2331],[-112.899253,51.567276,2344],[-112.899863,51.567592,2364],[-112.900784,51.568224,2401],[-112.901271,51.568425,2417],[-112.90167,51.568507,2428],[-112.902435,51.568521,2449],[-112.904467,51.568027,2510],[-112.905445,51.567945,2537],[-112.90623,51.567978,2559],[-112.908192,51.568401,2606],[-112.909075,51.56853,2619],[-112.91141,51.568556,2639],[-112.911511,51.568482,2640],[-112.91155,51.568021,2639],[-112.91154,51.550952,2679],[-112.911429,51.550156,2679],[-112.911299,51.549793,2679],[-112.91103,51.549274,2677],[-112.910671,51.548779,2677],[-112.910163,51.548259,2676],[-112.909556,51.547801,2675],[-112.909063,51.547513,2674],[-112.901659,51.544015,2593],[-112.900126,51.543237,2558],[-112.899139,51.542494,2530],[-112.897578,51.540835,2474],[-112.896737,51.540157,2449],[-112.896011,51.539732,2431],[-112.892354,51.537872,2346],[-112.891635,51.53739,2327],[-112.891043,51.536855,2310],[-112.890672,51.536408,2299],[-112.890332,51.535843,2287],[-112.888474,51.53099,2275],[-112.887829,51.529799,2282],[-112.887137,51.528763,2287],[-112.883868,51.524283,2304],[-112.882294,51.521979,2297],[-112.880491,51.519035,2279],[-112.879303,51.516877,2273],[-112.877978,51.514278,2262],[-112.877628,51.513809,2262],[-112.877206,51.513356,2263],[-112.876618,51.512865,2267],[-112.875837,51.512307,2274],[-112.875364,51.512003,2277],[-112.873593,51.511029,2270],[-112.872485,51.510244,2263],[-112.870063,51.508915,2266],[-112.86876,51.508332,2265],[-112.864174,51.506709,2275],[-112.854776,51.503534,2274],[-112.853711,51.503261,2274],[-112.851646,51.502967,2272],[-112.851389,51.502896,2272],[-112.851167,51.502675,2274],[-112.851167,51.502519,2275],[-112.851323,51.502148,2280],[-112.851132,51.501886,2279],[-112.849628,51.501115,2277],[-112.846949,51.499351,2280],[-112.845863,51.498715,2280],[-112.843947,51.497824,2275],[-112.837242,51.495062,2271],[-112.835855,51.494386,2273],[-112.834336,51.493506,2275],[-112.828571,51.489701,2269],[-112.827719,51.489094,2266],[-112.827339,51.488881,2265],[-112.826862,51.488498,2264],[-112.826407,51.488224,2263],[-112.821336,51.48444,2258],[-112.820008,51.483382,2258],[-112.81662,51.48052,2257],[-112.815737,51.479944,2257],[-112.814814,51.479555,2258],[-112.812893,51.479101,2258],[-112.811686,51.478752,2258],[-112.806631,51.476579,2269],[-112.805103,51.475871,2272],[-112.803607,51.475111,2275],[-112.796916,51.471498,2278],[-112.795194,51.470713,2276],[-112.793758,51.470161,2274],[-112.792298,51.469697,2272],[-112.79055,51.469239,2271],[-112.775625,51.465516,2260],[-112.772886,51.464931,2256],[-112.77106,51.464655,2256],[-112.767673,51.464307,2267],[-112.763214,51.463948,2262],[-112.758125,51.463459,2257],[-112.755449,51.462951,2260],[-112.754548,51.462821,2261],[-112.753026,51.462837,2260],[-112.74645,51.463467,2256],[-112.744351,51.463543,2251],[-112.742354,51.463543,2254],[-112.738719,51.463387,2254],[-112.737871,51.463301,2255],[-112.737083,51.463091,2256],[-112.735243,51.462328,2259],[-112.734601,51.462147,2260],[-112.73386,51.46204,2261],[-112.729778,51.461862,2257],[-112.727714,51.461851,2253],[-112.727321,51.461746,2253],[-112.724735,51.461639,2260],[-112.724105,51.461717,2262],[-112.722131,51.461661,2267],[-112.720318,51.461925,2265],[-112.719761,51.461957,2265],[-112.713759,51.461711,2272],[-112.71145,51.461887,2264],[-112.710283,51.461736,2260],[-112.709148,51.461502,2261],[-112.707569,51.4611,2271],[-112.706937,51.460854,2273],[-112.702301,51.458348,2255],[-112.699837,51.457403,2254],[-112.694001,51.454166,2254],[-112.691485,51.452854,2253],[-112.688419,51.451164,2251],[-112.686545,51.450026,2249],[-112.686217,51.44991,2249],[-112.685035,51.449296,2250],[-112.684704,51.449379,2252],[-112.682979,51.450549,2241],[-112.682775,51.450719,2240],[-112.682644,51.450922,2240],[-112.682697,51.451072,2239],[-112.68491,51.453153,2241],[-112.686416,51.454085,2243],[-112.689063,51.455623,2243],[-112.694633,51.459546,2244],[-112.699702,51.462147,2245],[-112.700021,51.462275,2246],[-112.700531,51.462384,2245],[-112.700687,51.463508,2237],[-112.701964,51.464757,2236],[-112.702526,51.465114,2237],[-112.702799,51.465207,2237],[-112.703529,51.465355,2238],[-112.704475,51.465414,2238],[-112.704685,51.465451,2238],[-112.704836,51.465541,2237],[-112.70487,51.465606,2237],[-112.704854,51.466188,2238],[-112.704975,51.466414,2240],[-112.705045,51.466835,2240],[-112.705326,51.466897,2236],[-112.706624,51.466931,2234],[-112.706821,51.466811,2234],[-112.706798,51.466645,2234],[-112.706714,51.466555,2234],[-112.706358,51.466545,2234],[-112.706179,51.466639,2234]]}}]}