{"type": "FeatureCollection", "features": [{"type": "Feature", "geometry": {"type": "Point", "coordinates": [-112.705994, 51.467084]}, "properties": {"id": "turn_000", "course_mi": 0.01, "ele_m": 680.2, "direction": "left", "intensity": "sharp", "label": "", "label_type": "", "section": "Start \u2192 Finish", "snap_method": "geometry_only", "context": "", "jurisdiction": "", "jurisdiction_unit": ""}}, {"type": "Feature", "geometry": {"type": "Point", "coordinates": [-112.70501, 51.466869]}, "properties": {"id": "turn_001", "course_mi": 0.06, "ele_m": 682.9, "direction": "right", "intensity": "normal", "label": "", "label_type": "", "section": "Start \u2192 Finish", "snap_method": "geometry_only", "context": "", "jurisdiction": "", "jurisdiction_unit": ""}}, {"type": "Feature", "geometry": {"type": "Point", "coordinates": [-112.705136, 51.465512]}, "properties": {"id": "turn_002", "course_mi": 0.16, "ele_m": 681.9, "direction": "right", "intensity": "sharp", "label": "Riverside Drive East", "label_type": "road", "section": "Start \u2192 Finish", "snap_method": "geometry_only", "context": "", "jurisdiction": "", "jurisdiction_unit": ""}}, {"type": "Feature", "geometry": {"type": "Point", "coordinates": [-112.709084, 51.466907]}, "properties": {"id": "turn_003", "course_mi": 0.37, "ele_m": 682.2, "direction": "left", "intensity": "normal", "label": "Riverside Drive West", "label_type": "road", "section": "Start \u2192 Finish", "snap_method": "geometry_only", "context": "", "jurisdiction": "", "jurisdiction_unit": ""}}, {"type": "Feature", "geometry": {"type": "Point", "coordinates": [-112.709439, 51.465404]}, "properties": {"id": "turn_004", "course_mi": 0.48, "ele_m": 684.7, "direction": "right", "intensity": "normal", "label": "2 Avenue West", "label_type": "road", "section": "Start \u2192 Finish", "snap_method": "geometry_only", "context": "", "jurisdiction": "", "jurisdiction_unit": ""}}, {"type": "Feature", "geometry": {"type": "Point", "coordinates": [-112.710584, 51.465491]}, "properties": {"id": "turn_005", "course_mi": 0.53, "ele_m": 685.2, "direction": "right", "intensity": "normal", "label": "2 Street West", "label_type": "road", "section": "Start \u2192 Finish", "snap_method": "geometry_only", "context": "", "jurisdiction": "", "jurisdiction_unit": ""}}, {"type": "Feature", "geometry": {"type": "Point", "coordinates": [-112.712532, 51.471451]}, "properties": {"id": "turn_006", "course_mi": 0.99, "ele_m": 683.9, "direction": "left", "intensity": "normal", "label": "North Dinosaur Trail", "label_type": "road", "section": "Start \u2192 Finish", "snap_method": "geometry_only", "context": "", "jurisdiction": "", "jurisdiction_unit": ""}}, {"type": "Feature", "geometry": {"type": "Point", "coordinates": [-112.841173, 51.539658]}, "properties": {"id": "turn_007", "course_mi": 11.54, "ele_m": 812.1, "direction": "left", "intensity": "normal", "label": "Range Road 211", "label_type": "road", "section": "Start \u2192 Finish", "snap_method": "geometry_only", "context": "", "jurisdiction": "", "jurisdiction_unit": ""}}, {"type": "Feature", "geometry": {"type": "Point", "coordinates": [-112.84126, 51.561355]}, "properties": {"id": "turn_008", "course_mi": 13.04, "ele_m": 825.7, "direction": "left", "intensity": "normal", "label": "North Dinosaur Trail", "label_type": "road", "section": "Start \u2192 Finish", "snap_method": "geometry_only", "context": "", "jurisdiction": "", "jurisdiction_unit": ""}}, {"type": "Feature", "geometry": {"type": "Point", "coordinates": [-112.883467, 51.572932]}, "properties": {"id": "turn_009", "course_mi": 15.48, "ele_m": 690.8, "direction": "left", "intensity": "normal", "label": "North Dinosaur Trail", "label_type": "road", "section": "Start \u2192 Finish", "snap_method": "geometry_only", "context": "", "jurisdiction": "", "jurisdiction_unit": ""}}, {"type": "Feature", "geometry": {"type": "Point", "coordinates": [-112.911511, 51.568482]}, "properties": {"id": "turn_010", "course_mi": 16.93, "ele_m": 804.6, "direction": "left", "intensity": "normal", "label": "North Dinosaur Trail", "label_type": "road", "section": "Start \u2192 Finish", "snap_method": "geometry_only", "context": "", "jurisdiction": "", "jurisdiction_unit": ""}}, {"type": "Feature", "geometry": {"type": "Point", "coordinates": [-112.851188, 51.502725]}, "properties": {"id": "turn_011", "course_mi": 22.58, "ele_m": 692.9, "direction": "right", "intensity": "normal", "label": "South Dinosaur Trail", "label_type": "road", "section": "Start \u2192 Finish", "snap_method": "geometry_only", "context": "", "jurisdiction": "", "jurisdiction_unit": ""}}, {"type": "Feature", "geometry": {"type": "Point", "coordinates": [-112.684859, 51.449322]}, "properties": {"id": "turn_012", "course_mi": 31.1, "ele_m": 686.5, "direction": "left", "intensity": "normal", "label": "Hoo Doo Trail", "label_type": "road", "section": "Start \u2192 Finish", "snap_method": "geometry_only", "context": "", "jurisdiction": "", "jurisdiction_unit": ""}}, {"type": "Feature", "geometry": {"type": "Point", "coordinates": [-112.682652, 51.450999]}, "properties": {"id": "turn_013", "course_mi": 31.26, "ele_m": 682.5, "direction": "left", "intensity": "normal", "label": "Willow Point", "label_type": "road", "section": "Start \u2192 Finish", "snap_method": "geometry_only", "context": "", "jurisdiction": "", "jurisdiction_unit": ""}}, {"type": "Feature", "geometry": {"type": "Point", "coordinates": [-112.700569, 51.462448]}, "properties": {"id": "turn_014", "course_mi": 32.37, "ele_m": 684.2, "direction": "right", "intensity": "normal", "label": "5 Street East", "label_type": "road", "section": "Start \u2192 Finish", "snap_method": "geometry_only", "context": "", "jurisdiction": "", "jurisdiction_unit": ""}}, {"type": "Feature", "geometry": {"type": "Point", "coordinates": [-112.704836, 51.465541]}, "properties": {"id": "turn_015", "course_mi": 32.69, "ele_m": 681.9, "direction": "right", "intensity": "normal", "label": "Riverside Drive East", "label_type": "road", "section": "Start \u2192 Finish", "snap_method": "geometry_only", "context": "", "jurisdiction": "", "jurisdiction_unit": ""}}, {"type": "Feature", "geometry": {"type": "Point", "coordinates": [-112.705126, 51.466871]}, "properties": {"id": "turn_016", "course_mi": 32.78, "ele_m": 682.7, "direction": "left", "intensity": "normal", "label": "", "label_type": "", "section": "Start \u2192 Finish", "snap_method": "geometry_only", "context": "", "jurisdiction": "", "jurisdiction_unit": ""}}, {"type": "Feature", "geometry": {"type": "Point", "coordinates": [-112.706819, 51.466755]}, "properties": {"id": "turn_017", "course_mi": 32.86, "ele_m": 681.0, "direction": "left", "intensity": "sharp", "label": "Riverside Drive East", "label_type": "road", "section": "Start \u2192 Finish", "snap_method": "geometry_only", "context": "", "jurisdiction": "", "jurisdiction_unit": ""}}]}