{"type":"FeatureCollection","features":[{"type":"Feature","properties":{"name":"olympic"},"geometry":{"type":"LineString","coordinates":[[-74.464659,44.229989],[-74.464765,44.229538],[-74.465133,44.228057],[-74.465025,44.228054],[-74.464879,44.227958],[-74.464616,44.227876],[-74.464096,44.227804],[-74.46382,44.227713],[-74.463586,44.227571],[-74.463218,44.227421],[-74.463228,44.226856],[-74.463211,44.226127],[-74.463207,44.225987],[-74.463201,44.225787],[-74.463213,44.225607],[-74.463232,44.225519],[-74.463287,44.225418],[-74.463354,44.225339],[-74.463483,44.225233],[-74.464102,44.224919],[-74.464609,44.225394],[-74.463141,44.22613],[-74.463084,44.226133],[-74.462927,44.226141],[-74.46248,44.226361],[-74.461233,44.227002],[-74.460678,44.227297],[-74.460582,44.227358],[-74.460574,44.227363],[-74.460317,44.227625],[-74.460311,44.22763],[-74.460252,44.227677],[-74.459962,44.227805],[-74.459879,44.22782],[-74.4598,44.227839],[-74.45976,44.227848],[-74.459472,44.227887],[-74.458625,44.227959],[-74.457754,44.228039],[-74.457548,44.228057],[-74.458625,44.227959],[-74.457754,44.228039],[-74.457537,44.228058],[-74.457537,44.228058],[-74.457262,44.226639],[-74.457185,44.226258],[-74.457094,44.225807],[-74.456899,44.224844],[-74.456861,44.224572],[-74.456829,44.224574],[-74.456111,44.224626],[-74.455568,44.224677],[-74.45537,44.224695],[-74.454752,44.224751],[-74.453904,44.224826],[-74.452442,44.224964],[-74.451136,44.225088],[-74.450444,44.225144],[-74.448791,44.225275],[-74.447345,44.225387],[-74.446115,44.225484],[-74.445918,44.225499],[-74.445025,44.225567],[-74.444656,44.225598],[-74.444185,44.225637],[-74.444053,44.225648],[-74.441115,44.225902],[-74.440587,44.225948],[-74.437671,44.226198],[-74.43765,44.2262],[-74.437363,44.226225],[-74.43705,44.226267],[-74.436716,44.226328],[-74.436476,44.226388],[-74.436202,44.226456],[-74.436237,44.226817],[-74.436219,44.227383],[-74.436164,44.228276],[-74.436154,44.228738],[-74.436153,44.228768],[-74.43617,44.22903],[-74.436224,44.229252],[-74.436301,44.229656],[-74.436317,44.229722],[-74.436429,44.230184],[-74.436497,44.230512],[-74.436533,44.230682],[-74.436523,44.23084],[-74.436522,44.230853],[-74.436498,44.230938],[-74.43636,44.231241],[-74.435809,44.232213],[-74.435773,44.232276],[-74.43566,44.232475],[-74.43546,44.232805],[-74.435412,44.232884],[-74.435256,44.233081],[-74.435194,44.233144],[-74.435177,44.233162],[-74.435051,44.233247],[-74.43497,44.233301],[-74.434838,44.233371],[-74.434707,44.233424],[-74.434642,44.233443],[-74.434509,44.233483],[-74.434363,44.233516],[-74.433461,44.233722],[-74.433242,44.233778],[-74.433064,44.233823],[-74.43273,44.233933],[-74.432662,44.23396],[-74.432566,44.233998],[-74.431649,44.23443],[-74.431638,44.234434],[-74.431364,44.234542],[-74.431308,44.234555],[-74.431017,44.234621],[-74.430962,44.234628],[-74.430184,44.234724],[-74.429653,44.234779],[-74.429592,44.234785],[-74.429416,44.234818],[-74.429306,44.23485],[-74.42919,44.234884],[-74.429089,44.234926],[-74.429089,44.234926],[-74.428993,44.234887],[-74.428734,44.2348],[-74.428413,44.234734],[-74.427986,44.234632],[-74.428413,44.234734],[-74.427986,44.234632],[-74.427586,44.234537],[-74.427141,44.234445],[-74.427115,44.234442],[-74.426869,44.234418],[-74.425731,44.234416],[-74.424259,44.234445],[-74.422818,44.234468],[-74.424259,44.234445],[-74.425731,44.234416],[-74.426869,44.234418],[-74.427115,44.234442],[-74.427141,44.234445],[-74.427586,44.234537],[-74.427986,44.234632],[-74.428413,44.234734],[-74.428734,44.2348],[-74.428993,44.234887],[-74.429045,44.234908],[-74.429089,44.234926],[-74.42919,44.234884],[-74.429223,44.234874],[-74.429416,44.234818],[-74.429559,44.234791],[-74.429592,44.234785],[-74.430184,44.234724],[-74.430878,44.234638],[-74.430878,44.234638],[-74.431017,44.234621],[-74.431227,44.234573],[-74.431364,44.234542],[-74.431565,44.234463],[-74.431649,44.23443],[-74.432566,44.233998],[-74.43259,44.233988],[-74.43273,44.233933],[-74.433064,44.233823],[-74.433165,44.233797],[-74.433461,44.233722],[-74.43426,44.23354],[-74.434509,44.233483],[-74.434595,44.233457],[-74.434707,44.233424],[-74.434828,44.233375],[-74.434838,44.233371],[-74.434951,44.233311],[-74.435177,44.233162],[-74.435256,44.233081],[-74.43527,44.233063],[-74.435412,44.232884],[-74.435615,44.232549],[-74.43566,44.232475],[-74.435809,44.232213],[-74.43636,44.231241],[-74.436416,44.231119],[-74.436498,44.230938],[-74.436522,44.230853],[-74.436525,44.230801],[-74.436533,44.230682],[-74.436429,44.230184],[-74.436388,44.230013],[-74.436301,44.229656],[-74.436224,44.229252],[-74.436172,44.229039],[-74.43617,44.22903],[-74.436153,44.228768],[-74.436164,44.228276],[-74.436219,44.227383],[-74.436237,44.226817],[-74.436227,44.226716],[-74.43621,44.226544],[-74.436716,44.226328],[-74.43705,44.226267],[-74.437261,44.226239],[-74.437363,44.226225],[-74.43765,44.2262],[-74.440587,44.225948],[-74.441115,44.225902],[-74.444053,44.225648],[-74.444185,44.225637],[-74.444656,44.225598],[-74.445025,44.225567],[-74.445918,44.225499],[-74.446115,44.225484],[-74.447345,44.225387],[-74.448791,44.225275],[-74.450444,44.225144],[-74.451136,44.225088],[-74.452442,44.224964],[-74.453904,44.224826],[-74.454752,44.224751],[-74.45537,44.224695],[-74.455568,44.224677],[-74.456111,44.224626],[-74.456456,44.224601],[-74.456861,44.224572],[-74.456899,44.224844],[-74.457094,44.225807],[-74.457185,44.226258],[-74.457262,44.226639],[-74.45749,44.227814],[-74.457537,44.228058],[-74.457754,44.228039],[-74.458625,44.227959],[-74.459405,44.227893],[-74.459472,44.227887],[-74.45976,44.227848],[-74.459879,44.22782],[-74.459962,44.227805],[-74.459982,44.227796],[-74.460252,44.227677],[-74.460317,44.227625],[-74.460343,44.227598],[-74.460574,44.227363],[-74.460678,44.227297],[-74.461233,44.227002],[-74.46248,44.226361],[-74.462805,44.226201],[-74.462927,44.226141],[-74.463084,44.226133],[-74.463126,44.226131],[-74.463126,44.226131],[-74.465133,44.228057],[-74.465133,44.228057],[-74.465015,44.228532],[-74.464827,44.229287],[-74.464776,44.229495]]}}]}