{"type":"FeatureCollection","features":[{"type":"Feature","properties":{"name":"sprint"},"geometry":{"type":"LineString","coordinates":[[-74.464662,44.229975],[-74.464718,44.229739],[-74.464748,44.229611],[-74.464765,44.229538],[-74.464818,44.229323],[-74.464905,44.228976],[-74.464997,44.228603],[-74.465043,44.228418],[-74.463127,44.226131],[-74.463084,44.226133],[-74.462927,44.226141],[-74.46248,44.226361],[-74.461457,44.226887],[-74.461233,44.227002],[-74.460678,44.227297],[-74.460574,44.227363],[-74.460554,44.227383],[-74.460317,44.227625],[-74.460296,44.227642],[-74.460252,44.227677],[-74.459962,44.227805],[-74.459879,44.22782],[-74.459799,44.227839],[-74.45976,44.227848],[-74.459472,44.227887],[-74.458625,44.227959],[-74.457754,44.228039],[-74.457537,44.228058],[-74.457537,44.228058],[-74.457262,44.226639],[-74.457185,44.226258],[-74.457094,44.225807],[-74.456899,44.224844],[-74.456861,44.224572],[-74.456823,44.224575],[-74.456111,44.224626],[-74.455568,44.224677],[-74.45537,44.224695],[-74.454752,44.224751],[-74.453904,44.224826],[-74.452442,44.224964],[-74.451136,44.225088],[-74.450444,44.225144],[-74.448791,44.225275],[-74.447345,44.225387],[-74.446115,44.225484],[-74.445918,44.225499],[-74.445025,44.225567],[-74.444656,44.225598],[-74.444185,44.225637],[-74.44411,44.225643],[-74.45537,44.224695],[-74.454752,44.224751],[-74.453904,44.224826],[-74.452442,44.224964],[-74.451136,44.225088],[-74.450444,44.225144],[-74.448791,44.225275],[-74.447345,44.225387],[-74.446115,44.225484],[-74.445918,44.225499],[-74.445025,44.225567],[-74.444656,44.225598],[-74.444185,44.225637],[-74.44411,44.225643],[-74.444185,44.225637],[-74.444656,44.225598],[-74.445025,44.225567],[-74.445918,44.225499],[-74.446115,44.225484],[-74.447345,44.225387],[-74.448791,44.225275],[-74.450444,44.225144],[-74.451136,44.225088],[-74.452442,44.224964],[-74.453904,44.224826],[-74.454752,44.224751],[-74.45537,44.224695],[-74.455568,44.224677],[-74.456111,44.224626],[-74.456823,44.224575],[-74.456861,44.224572],[-74.456899,44.224844],[-74.457094,44.225807],[-74.457185,44.226258],[-74.457262,44.226639],[-74.457537,44.228058],[-74.457537,44.228058],[-74.457754,44.228039],[-74.458625,44.227959],[-74.459472,44.227887],[-74.45976,44.227848],[-74.459799,44.227839],[-74.459879,44.22782],[-74.459962,44.227805],[-74.460252,44.227677],[-74.460296,44.227642],[-74.460317,44.227625],[-74.460554,44.227383],[-74.460574,44.227363],[-74.460678,44.227297],[-74.461233,44.227002],[-74.461457,44.226887],[-74.46248,44.226361],[-74.462927,44.226141],[-74.463084,44.226133],[-74.463126,44.226131],[-74.463211,44.226127],[-74.463211,44.226121],[-74.463215,44.226311],[-74.463217,44.226365],[-74.465133,44.228057],[-74.465133,44.228057],[-74.46513,44.228071],[-74.46505,44.228391],[-74.464963,44.228741],[-74.464912,44.228946],[-74.464827,44.229288],[-74.464799,44.229403]]}}]}