{"type":"FeatureCollection","features":[{"type":"Feature","properties":{"name":"tinman"},"geometry":{"type":"LineString","coordinates":[[-74.46466,44.229983],[-74.464765,44.229538],[-74.464828,44.229283],[-74.465001,44.228588],[-74.465086,44.228247],[-74.463084,44.226133],[-74.46248,44.226361],[-74.460678,44.227297],[-74.460317,44.227625],[-74.460252,44.227677],[-74.459879,44.22782],[-74.45976,44.227848],[-74.458625,44.227959],[-74.457564,44.228056],[-74.457262,44.226639],[-74.457094,44.225807],[-74.45687,44.224639],[-74.456111,44.224626],[-74.45537,44.224695],[-74.453904,44.224826],[-74.451136,44.225088],[-74.448791,44.225275],[-74.446115,44.225484],[-74.445025,44.225567],[-74.444221,44.225634],[-74.454752,44.224751],[-74.452442,44.224964],[-74.450444,44.225144],[-74.447345,44.225387],[-74.445918,44.225499],[-74.444656,44.225598],[-74.444185,44.225637],[-74.441115,44.225902],[-74.43765,44.2262],[-74.437244,44.226241],[-74.436725,44.226326],[-74.436383,44.226411],[-74.436237,44.226817],[-74.436196,44.227752],[-74.436153,44.228768],[-74.43617,44.22903],[-74.436301,44.229656],[-74.436513,44.230585],[-74.436522,44.230853],[-74.436457,44.231029],[-74.436057,44.231775],[-74.43566,44.232475],[-74.435412,44.232884],[-74.435256,44.233081],[-74.43503,44.233261],[-74.434872,44.233353],[-74.434707,44.233424],[-74.434442,44.233498],[-74.433461,44.233722],[-74.433064,44.233823],[-74.432566,44.233998],[-74.432566,44.233998],[-74.431649,44.23443],[-74.431364,44.234542],[-74.430681,44.234662],[-74.429784,44.234765],[-74.429416,44.234818],[-74.42919,44.234884],[-74.428993,44.234887],[-74.428413,44.234734],[-74.427586,44.234537],[-74.427141,44.234445],[-74.426869,44.234418],[-74.425817,44.234416],[-74.42492,44.234432],[-74.424259,44.234445],[-74.422775,44.234468],[-74.421947,44.234482],[-74.42184,44.23448],[-74.424232,44.234445],[-74.424575,44.234439],[-74.425731,44.234416],[-74.426735,44.234418],[-74.427459,44.234511],[-74.428077,44.234654],[-74.428734,44.2348],[-74.428993,44.234887],[-74.42919,44.234884],[-74.429592,44.234785],[-74.43075,44.234654],[-74.431017,44.234621],[-74.431364,44.234542],[-74.431649,44.23443],[-74.432566,44.233998],[-74.432877,44.233884],[-74.433461,44.233722],[-74.433998,44.2336],[-74.434509,44.233483],[-74.43478,44.233394],[-74.43497,44.233301],[-74.435177,44.233162],[-74.435403,44.232896],[-74.43566,44.232475],[-74.435948,44.231967],[-74.435948,44.231967],[-74.436377,44.231203],[-74.436498,44.230938],[-74.436533,44.230682],[-74.436301,44.229656],[-74.43617,44.22903],[-74.436164,44.228276],[-74.436237,44.226817],[-74.436716,44.226328],[-74.437363,44.226225],[-74.440587,44.225948],[-74.444053,44.225648],[-74.444656,44.225598],[-74.445918,44.225499],[-74.447345,44.225387],[-74.450444,44.225144],[-74.452442,44.224964],[-74.454752,44.224751],[-74.455568,44.224677],[-74.456861,44.224572],[-74.457094,44.225807],[-74.457262,44.226639],[-74.457754,44.228039],[-74.459472,44.227887],[-74.45976,44.227848],[-74.459802,44.228352],[-74.459814,44.228514],[-74.459871,44.229284],[-74.460051,44.230992],[-74.46037,44.232908],[-74.460868,44.235506],[-74.460986,44.236141],[-74.461292,44.237678],[-74.461526,44.238015],[-74.461864,44.238261],[-74.462445,44.238462],[-74.462662,44.238312],[-74.462952,44.238021],[-74.463726,44.237507],[-74.464033,44.23736],[-74.464674,44.237165],[-74.464874,44.237085],[-74.465294,44.236486],[-74.465384,44.236423],[-74.465482,44.236282],[-74.465482,44.236282],[-74.465384,44.236423],[-74.465324,44.236462],[-74.465008,44.236833],[-74.464789,44.237138],[-74.464532,44.237201],[-74.463915,44.237408],[-74.463156,44.237871],[-74.462772,44.238174],[-74.462567,44.238488],[-74.46351,44.238695],[-74.463897,44.238859],[-74.464992,44.239659],[-74.465827,44.240314],[-74.466268,44.240772],[-74.466937,44.241785],[-74.467108,44.241945],[-74.467304,44.241989],[-74.467711,44.241969],[-74.470266,44.241725],[-74.474729,44.241322],[-74.475634,44.241222],[-74.475519,44.240786],[-74.475558,44.240707],[-74.475668,44.240643],[-74.476155,44.240707],[-74.476346,44.240698],[-74.476561,44.240581],[-74.476892,44.240386],[-74.478461,44.240983],[-74.478564,44.2411],[-74.478788,44.241027],[-74.479763,44.24114],[-74.480023,44.241447],[-74.480158,44.241591],[-74.480164,44.241777],[-74.479785,44.241972],[-74.478728,44.242439],[-74.474452,44.244327],[-74.471724,44.245543],[-74.47058,44.246559],[-74.470857,44.246909],[-74.471488,44.247687],[-74.471569,44.248035],[-74.471522,44.248324],[-74.471378,44.248645],[-74.470846,44.249619],[-74.47087,44.249965],[-74.471117,44.250286],[-74.471396,44.250555],[-74.471464,44.25069],[-74.471397,44.250927],[-74.470736,44.251413],[-74.47045,44.251817],[-74.470371,44.252384],[-74.470332,44.253054],[-74.470277,44.253462],[-74.470401,44.251988],[-74.470342,44.252974],[-74.470285,44.253404],[-74.470274,44.253485],[-74.470246,44.25366],[-74.47086,44.254095],[-74.471134,44.254329],[-74.471669,44.25476],[-74.47182,44.254927],[-74.472295,44.255554],[-74.472424,44.255689],[-74.473723,44.256414],[-74.475012,44.257144],[-74.475815,44.257576],[-74.476293,44.25782],[-74.4766,44.257954],[-74.476892,44.258056],[-74.477172,44.258125],[-74.477611,44.258164],[-74.47814,44.258159],[-74.478372,44.258115],[-74.478567,44.258025],[-74.47814,44.258159],[-74.477611,44.258164],[-74.47715,44.258121],[-74.476857,44.258047],[-74.476263,44.257807],[-74.475242,44.25728],[-74.473723,44.256414],[-74.472829,44.2559],[-74.472424,44.255689],[-74.472265,44.255515],[-74.471669,44.25476],[-74.471134,44.254329],[-74.470363,44.253725],[-74.470274,44.253485],[-74.470332,44.253054],[-74.470371,44.252384],[-74.47045,44.251817],[-74.470736,44.251413],[-74.471553,44.25084],[-74.471797,44.250832],[-74.471973,44.250856],[-74.472484,44.250789],[-74.472735,44.250712],[-74.473085,44.250605],[-74.473653,44.250386],[-74.474095,44.250309],[-74.476326,44.250281],[-74.47827,44.250082],[-74.478619,44.24999],[-74.479116,44.249658],[-74.479757,44.24914],[-74.479945,44.249079],[-74.481084,44.249215],[-74.481567,44.249212],[-74.481529,44.248831],[-74.481337,44.248661],[-74.480606,44.248266],[-74.48007,44.247962],[-74.481083,44.247002],[-74.483275,44.244917],[-74.48411,44.244141],[-74.484158,44.24406],[-74.484155,44.243976],[-74.48404,44.243902],[-74.482648,44.243364],[-74.482535,44.24329],[-74.482515,44.243165],[-74.482968,44.242609],[-74.482538,44.242121],[-74.481955,44.241959],[-74.481557,44.241901],[-74.481171,44.241848],[-74.480428,44.241725],[-74.480248,44.241649],[-74.480096,44.241532],[-74.479798,44.241181],[-74.47941,44.240725],[-74.478564,44.2411],[-74.478461,44.240983],[-74.477669,44.240047],[-74.477786,44.238888],[-74.476594,44.237497],[-74.476344,44.237319],[-74.476147,44.237236],[-74.473973,44.23664],[-74.46853,44.235165],[-74.467231,44.234791],[-74.466067,44.234301],[-74.465705,44.234108],[-74.465369,44.233827],[-74.465098,44.233472],[-74.464439,44.232469],[-74.463965,44.231441],[-74.463772,44.23073],[-74.464568,44.230606],[-74.464605,44.230247],[-74.464765,44.229538],[-74.465133,44.228057],[-74.465133,44.228057],[-74.464832,44.229267]]}}]}